{
  "version": 0.6,
  "generator": "Overpass API 0.7.55.7 8b86ff77",
  "osm3s": {
    "timestamp_osm_base": "2019-07-01T13:38:02Z",
    "timestamp_areas_base": "2019-07-01T12:48:01Z",
    "copyright": "The data included in this document is from www.openstreetmap.org. The data is made available under ODbL."
  },
  "elements": [
    {
      "type": "node",
      "id": 273202826,
      "lat": 43.7855142,
      "lon": 15.6443627,
      "tags": {
        "addr:city": "Jezera",
        "shop": "butcher"
      }
    },
    {
      "type": "node",
      "id": 286690734,
      "lat": 45.584677,
      "lon": 16.3703002,
      "tags": {
        "shop": "butcher"
      }
    },
    {
      "type": "node",
      "id": 577510673,
      "lat": 46.296636,
      "lon": 16.3275239,
      "tags": {
        "name": "buncek",
        "shop": "butcher"
      }
    },
    {
      "type": "node",
      "id": 798205426,
      "lat": 45.3085797,
      "lon": 18.4132981,
      "tags": {
        "addr:housenumber": "15",
        "addr:street": "Matije Gupca",
        "name": "Mesnica Karlović",
        "opening_hours": "Mo-Fr 07:00-20:00; Sa 08:00-15:00",
        "shop": "butcher"
      }
    },
    {
      "type": "node",
      "id": 839086968,
      "lat": 45.1737595,
      "lon": 14.6933699,
      "tags": {
        "shop": "butcher"
      }
    },
    {
      "type": "node",
      "id": 899598099,
      "lat": 44.8173565,
      "lon": 13.9380784,
      "tags": {
        "shop": "butcher"
      }
    },
    {
      "type": "node",
      "id": 949508526,
      "lat": 43.5055105,
      "lon": 16.4289755,
      "tags": {
        "name": "Mesnica Čukušić",
        "shop": "butcher",
        "toilets:wheelchair": "no",
        "wheelchair": "limited"
      }
    },
    {
      "type": "node",
      "id": 983593523,
      "lat": 43.7567119,
      "lon": 16.6193823,
      "tags": {
        "name": "Pivac",
        "shop": "butcher"
      }
    },
    {
      "type": "node",
      "id": 1027978857,
      "lat": 43.1842493,
      "lon": 16.5984871,
      "tags": {
        "shop": "butcher",
        "wheelchair": "no"
      }
    },
    {
      "type": "node",
      "id": 1062843941,
      "lat": 45.7038839,
      "lon": 16.1201296,
      "tags": {
        "name": "Lujo",
        "shop": "butcher"
      }
    },
    {
      "type": "node",
      "id": 1167244535,
      "lat": 43.5121018,
      "lon": 16.4452534,
      "tags": {
        "history": "retrieved using undelete JOSM plugin",
        "name": "95",
        "shop": "butcher"
      }
    },
    {
      "type": "node",
      "id": 1186079505,
      "lat": 45.8056212,
      "lon": 16.2332342,
      "tags": {
        "addr:city": "Dugo Selo",
        "addr:housenumber": "2",
        "addr:postcode": "10370",
        "addr:street": "Josipa Zorića",
        "name": "Ravlić",
        "shop": "butcher"
      }
    },
    {
      "type": "node",
      "id": 1209089533,
      "lat": 45.7119166,
      "lon": 16.0672,
      "tags": {
        "name": "Navračić",
        "shop": "butcher"
      }
    },
    {
      "type": "node",
      "id": 1251177250,
      "lat": 43.2616039,
      "lon": 16.656296,
      "tags": {
        "name": "Tino",
        "shop": "butcher",
        "wheelchair": "limited"
      }
    },
    {
      "type": "node",
      "id": 1251177251,
      "lat": 43.2614525,
      "lon": 16.6551477,
      "tags": {
        "name": "Pivac",
        "shop": "butcher"
      }
    },
    {
      "type": "node",
      "id": 1272469941,
      "lat": 45.7786507,
      "lon": 15.9885219,
      "tags": {
        "name": "Fiolić",
        "shop": "butcher"
      }
    },
    {
      "type": "node",
      "id": 1272479034,
      "lat": 45.7806758,
      "lon": 15.9861125,
      "tags": {
        "name": "Kolovrat",
        "shop": "butcher"
      }
    },
    {
      "type": "node",
      "id": 1273615246,
      "lat": 45.7769556,
      "lon": 15.9960036,
      "tags": {
        "shop": "butcher"
      }
    },
    {
      "type": "node",
      "id": 1280183453,
      "lat": 45.3754484,
      "lon": 18.9538926,
      "tags": {
        "name": "Mesnica Bođirković",
        "name:en": "Butcher's Bođirković",
        "shop": "butcher"
      }
    },
    {
      "type": "node",
      "id": 1327753220,
      "lat": 45.80663,
      "lon": 15.8980126,
      "tags": {
        "name": "Mesnica Pesun",
        "shop": "butcher"
      }
    },
    {
      "type": "node",
      "id": 1350477234,
      "lat": 43.73217,
      "lon": 15.896014,
      "tags": {
        "name": "Nakićen 3",
        "shop": "butcher"
      }
    },
    {
      "type": "node",
      "id": 1368401269,
      "lat": 43.9226454,
      "lon": 15.4162767,
      "tags": {
        "name": "Mesnica Nakićen",
        "shop": "butcher"
      }
    },
    {
      "type": "node",
      "id": 1368745482,
      "lat": 43.9218138,
      "lon": 15.4186691,
      "tags": {
        "name": "Mesnica Nakićen",
        "shop": "butcher"
      }
    },
    {
      "type": "node",
      "id": 1368849216,
      "lat": 43.9216859,
      "lon": 15.4189404,
      "tags": {
        "name": "Mesnica Nakićen",
        "shop": "butcher"
      }
    },
    {
      "type": "node",
      "id": 1377107386,
      "lat": 44.129542,
      "lon": 15.1043326,
      "tags": {
        "name": "Bruno i Toni",
        "shop": "butcher"
      }
    },
    {
      "type": "node",
      "id": 1385941214,
      "lat": 43.9083746,
      "lon": 15.5082536,
      "tags": {
        "name": "Mesnica",
        "shop": "butcher"
      }
    },
    {
      "type": "node",
      "id": 1399692544,
      "lat": 43.2943439,
      "lon": 17.021107,
      "tags": {
        "name": "Mesnica Dalmacija",
        "shop": "butcher"
      }
    },
    {
      "type": "node",
      "id": 1399692621,
      "lat": 43.2943492,
      "lon": 17.0203914,
      "tags": {
        "name": "Pivac",
        "shop": "butcher"
      }
    },
    {
      "type": "node",
      "id": 1402898359,
      "lat": 43.758801,
      "lon": 15.7773746,
      "tags": {
        "shop": "butcher"
      }
    },
    {
      "type": "node",
      "id": 1403077455,
      "lat": 43.2940136,
      "lon": 17.0200277,
      "tags": {
        "name": "Pivac",
        "shop": "butcher"
      }
    },
    {
      "type": "node",
      "id": 1404742768,
      "lat": 44.2888407,
      "lon": 15.4463637,
      "tags": {
        "name": "Pivac",
        "shop": "butcher"
      }
    },
    {
      "type": "node",
      "id": 1406288993,
      "lat": 45.2398181,
      "lon": 13.9381224,
      "tags": {
        "shop": "butcher"
      }
    },
    {
      "type": "node",
      "id": 1411946349,
      "lat": 43.5151791,
      "lon": 16.4440441,
      "tags": {
        "name": "Samardzic",
        "shop": "butcher"
      }
    },
    {
      "type": "node",
      "id": 1412602050,
      "lat": 44.0813498,
      "lon": 15.1879328,
      "tags": {
        "shop": "butcher"
      }
    },
    {
      "type": "node",
      "id": 1412869268,
      "lat": 45.3633078,
      "lon": 14.3079456,
      "tags": {
        "name": "Damir",
        "shop": "butcher"
      }
    },
    {
      "type": "node",
      "id": 1415885961,
      "lat": 44.0754778,
      "lon": 15.1942181,
      "tags": {
        "shop": "butcher"
      }
    },
    {
      "type": "node",
      "id": 1431991877,
      "lat": 45.6851874,
      "lon": 16.11568,
      "tags": {
        "name": "Ivek-mes",
        "shop": "butcher"
      }
    },
    {
      "type": "node",
      "id": 1448701306,
      "lat": 43.508561,
      "lon": 16.4346194,
      "tags": {
        "name": "Mesnica Božić",
        "shop": "butcher"
      }
    },
    {
      "type": "node",
      "id": 1449508296,
      "lat": 44.8263004,
      "lon": 13.8789088,
      "tags": {
        "shop": "butcher"
      }
    },
    {
      "type": "node",
      "id": 1453363802,
      "lat": 43.7574336,
      "lon": 16.6193748,
      "tags": {
        "name": "Mel",
        "shop": "butcher"
      }
    },
    {
      "type": "node",
      "id": 1457870581,
      "lat": 44.0763715,
      "lon": 15.1935548,
      "tags": {
        "name": "Bubalo",
        "shop": "butcher"
      }
    },
    {
      "type": "node",
      "id": 1459291411,
      "lat": 45.5646139,
      "lon": 18.6534106,
      "tags": {
        "name": "Disnkont S",
        "shop": "butcher"
      }
    },
    {
      "type": "node",
      "id": 1467397645,
      "lat": 43.5162481,
      "lon": 16.4452305,
      "tags": {
        "name": "Mesnica",
        "shop": "butcher"
      }
    },
    {
      "type": "node",
      "id": 1480217326,
      "lat": 43.5088899,
      "lon": 16.4640529,
      "tags": {
        "name": "Bruno",
        "shop": "butcher"
      }
    },
    {
      "type": "node",
      "id": 1489492251,
      "lat": 45.7750013,
      "lon": 15.9557176,
      "tags": {
        "name": "Antonio",
        "shop": "butcher"
      }
    },
    {
      "type": "node",
      "id": 1495223238,
      "lat": 43.5066854,
      "lon": 16.4538668,
      "tags": {
        "name": "Dadić",
        "shop": "butcher"
      }
    },
    {
      "type": "node",
      "id": 1498985413,
      "lat": 43.5051131,
      "lon": 16.4494655,
      "tags": {
        "name": "Muše",
        "shop": "butcher"
      }
    },
    {
      "type": "node",
      "id": 1513005047,
      "lat": 44.7426565,
      "lon": 15.7079387,
      "tags": {
        "name": "Pivac",
        "shop": "butcher"
      }
    },
    {
      "type": "node",
      "id": 1513167095,
      "lat": 43.8603193,
      "lon": 16.1541271,
      "tags": {
        "name": "mesnica",
        "shop": "butcher"
      }
    },
    {
      "type": "node",
      "id": 1558431162,
      "lat": 43.4447583,
      "lon": 16.6856793,
      "tags": {
        "name": "Jukić",
        "note": "pršutoreznica",
        "shop": "butcher"
      }
    },
    {
      "type": "node",
      "id": 1575691321,
      "lat": 45.7658655,
      "lon": 15.9889204,
      "tags": {
        "operator": "Fiolić",
        "shop": "butcher"
      }
    },
    {
      "type": "node",
      "id": 1575776900,
      "lat": 45.833423,
      "lon": 17.3869889,
      "tags": {
        "shop": "butcher"
      }
    },
    {
      "type": "node",
      "id": 1589017255,
      "lat": 43.5076627,
      "lon": 16.4849854,
      "tags": {
        "name": "Paladin",
        "shop": "butcher"
      }
    },
    {
      "type": "node",
      "id": 1590584246,
      "lat": 43.617485,
      "lon": 16.7308938,
      "tags": {
        "name": "Mesnica Pupic",
        "shop": "butcher"
      }
    },
    {
      "type": "node",
      "id": 1612888902,
      "lat": 43.5156703,
      "lon": 16.4444863,
      "tags": {
        "name": "Impex",
        "shop": "butcher"
      }
    },
    {
      "type": "node",
      "id": 1627684975,
      "lat": 45.1225321,
      "lon": 14.5267486,
      "tags": {
        "shop": "butcher"
      }
    },
    {
      "type": "node",
      "id": 1636692262,
      "lat": 43.4461013,
      "lon": 16.6885238,
      "tags": {
        "name": "Simunić",
        "shop": "butcher"
      }
    },
    {
      "type": "node",
      "id": 1636728161,
      "lat": 43.4441283,
      "lon": 16.6919773,
      "tags": {
        "name": "Simunić",
        "shop": "butcher"
      }
    },
    {
      "type": "node",
      "id": 1657364884,
      "lat": 43.5094386,
      "lon": 16.4596868,
      "tags": {
        "name": "Tangar",
        "shop": "butcher"
      }
    },
    {
      "type": "node",
      "id": 1676805992,
      "lat": 43.5090669,
      "lon": 16.4376239,
      "tags": {
        "name": "Mesnica Pivčević",
        "shop": "butcher"
      }
    },
    {
      "type": "node",
      "id": 1676805993,
      "lat": 43.5091335,
      "lon": 16.4376239,
      "tags": {
        "name": "Mesnice Lovrić",
        "shop": "butcher"
      }
    },
    {
      "type": "node",
      "id": 1697672564,
      "lat": 45.8052237,
      "lon": 15.8954427,
      "tags": {
        "name": "Vranac",
        "shop": "butcher"
      }
    },
    {
      "type": "node",
      "id": 1707009848,
      "lat": 45.7934006,
      "lon": 15.9965491,
      "tags": {
        "addr:postcode": "10000",
        "addr:street": "Ulica Ljerke Šram 8",
        "name": "Vinđin-Mesnica",
        "shop": "butcher"
      }
    },
    {
      "type": "node",
      "id": 1707010277,
      "lat": 45.7941524,
      "lon": 15.9969881,
      "tags": {
        "addr:postcode": "10000",
        "addr:street": "Lastovska 2a",
        "name": "Vinđin-Mesnica",
        "shop": "butcher"
      }
    },
    {
      "type": "node",
      "id": 1710446009,
      "lat": 46.3054949,
      "lon": 16.3292759,
      "tags": {
        "name": "Novak",
        "shop": "butcher"
      }
    },
    {
      "type": "node",
      "id": 1714278292,
      "lat": 45.8024684,
      "lon": 15.8981983,
      "tags": {
        "name": "Purex",
        "shop": "butcher"
      }
    },
    {
      "type": "node",
      "id": 1717115947,
      "lat": 45.767746,
      "lon": 18.5980925,
      "tags": {
        "shop": "butcher"
      }
    },
    {
      "type": "node",
      "id": 1720825215,
      "lat": 42.9295077,
      "lon": 16.8938527,
      "tags": {
        "name": "Butcher \"Milina\"",
        "shop": "butcher"
      }
    },
    {
      "type": "node",
      "id": 1735096685,
      "lat": 43.9077857,
      "lon": 15.5066258,
      "tags": {
        "name": "Mesnica",
        "shop": "butcher"
      }
    },
    {
      "type": "node",
      "id": 1737788218,
      "lat": 44.0432497,
      "lon": 16.198769,
      "tags": {
        "addr:city": "Knin",
        "addr:housenumber": "20",
        "addr:postcode": "22300",
        "addr:street": "Tomislavova",
        "name": "Mesnica Musić Grčić",
        "opening_hours": "\"samo jutri\"",
        "shop": "butcher",
        "wheelchair": "no"
      }
    },
    {
      "type": "node",
      "id": 1738539072,
      "lat": 45.1839956,
      "lon": 17.925782,
      "tags": {
        "shop": "butcher"
      }
    },
    {
      "type": "node",
      "id": 1822374895,
      "lat": 45.7898077,
      "lon": 15.9382278,
      "tags": {
        "shop": "butcher"
      }
    },
    {
      "type": "node",
      "id": 1823049577,
      "lat": 45.798135,
      "lon": 15.9474114,
      "tags": {
        "addr:housenumber": "2c",
        "addr:street": "Trsatska ulica",
        "name": "Kanurić",
        "shop": "butcher"
      }
    },
    {
      "type": "node",
      "id": 1839881384,
      "lat": 43.5060083,
      "lon": 16.4588513,
      "tags": {
        "name": "Mesnica Muše",
        "shop": "butcher"
      }
    },
    {
      "type": "node",
      "id": 1868613208,
      "lat": 43.937645,
      "lon": 15.4447383,
      "tags": {
        "name": "Mikulić",
        "shop": "butcher"
      }
    },
    {
      "type": "node",
      "id": 1868613220,
      "lat": 43.9383575,
      "lon": 15.4442951,
      "tags": {
        "name": "Sakić",
        "shop": "butcher"
      }
    },
    {
      "type": "node",
      "id": 1888679400,
      "lat": 43.5142154,
      "lon": 16.455121,
      "tags": {
        "name": "Pivac",
        "shop": "butcher"
      }
    },
    {
      "type": "node",
      "id": 1917443083,
      "lat": 45.1691991,
      "lon": 17.9902018,
      "tags": {
        "addr:city": "Slavonski Brod",
        "addr:housenumber": "130",
        "addr:postcode": "35000",
        "addr:street": "Bilogorska",
        "name": "Jagodanović",
        "opening_hours": "Mo 08:00-12:00;Tu 08:00-15:00;We-Fr 08:00-16:00;Sa 08:00-13:00;Su off",
        "shop": "butcher"
      }
    },
    {
      "type": "node",
      "id": 1928725635,
      "lat": 45.1125318,
      "lon": 15.5850194,
      "tags": {
        "addr:city": "Slunj",
        "addr:country": "HR",
        "addr:housenumber": "10",
        "addr:postcode": "47240",
        "addr:street": "Plitvička",
        "building": "yes",
        "name": "Pivac Mesnica",
        "shop": "butcher"
      }
    },
    {
      "type": "node",
      "id": 1931393863,
      "lat": 45.7720542,
      "lon": 15.9945634,
      "tags": {
        "shop": "butcher"
      }
    },
    {
      "type": "node",
      "id": 1941654932,
      "lat": 45.1660998,
      "lon": 18.0183355,
      "tags": {
        "addr:postcode": "35000",
        "addr:street": "Eugena Kumičića",
        "name": "Bebrinka",
        "shop": "butcher",
        "source": "local_knowledge"
      }
    },
    {
      "type": "node",
      "id": 1945611461,
      "lat": 45.1551607,
      "lon": 18.0204954,
      "tags": {
        "name": "Jagodanović",
        "shop": "butcher",
        "source": "local_knowledge"
      }
    },
    {
      "type": "node",
      "id": 1949849039,
      "lat": 43.5534345,
      "lon": 16.3688407,
      "tags": {
        "name": "Šakić",
        "shop": "butcher"
      }
    },
    {
      "type": "node",
      "id": 1962283851,
      "lat": 46.0424246,
      "lon": 15.995986,
      "tags": {
        "name": "Kudelić",
        "shop": "butcher"
      }
    },
    {
      "type": "node",
      "id": 1977130410,
      "lat": 43.3837724,
      "lon": 16.5532312,
      "tags": {
        "name": "Mirić",
        "shop": "butcher"
      }
    },
    {
      "type": "node",
      "id": 1985567313,
      "lat": 45.1576269,
      "lon": 18.0128623,
      "tags": {
        "name": "Jagodanović",
        "shop": "butcher"
      }
    },
    {
      "type": "node",
      "id": 1985572483,
      "lat": 45.1580723,
      "lon": 18.012932,
      "tags": {
        "name": "Bebrinka",
        "shop": "butcher"
      }
    },
    {
      "type": "node",
      "id": 1986161185,
      "lat": 45.1561207,
      "lon": 18.0147272,
      "tags": {
        "addr:city": "Slavonski Brod",
        "addr:street": "Matije Gupca",
        "name": "Stjepan komerc",
        "opening_hours": "Mo-Fr 07:00-20:00; Sa 07:00-14:00; Su 08:00-12:00",
        "shop": "butcher"
      }
    },
    {
      "type": "node",
      "id": 1991611893,
      "lat": 45.792606,
      "lon": 15.9465817,
      "tags": {
        "name": "Vajda",
        "shop": "butcher"
      }
    },
    {
      "type": "node",
      "id": 1999920662,
      "lat": 43.0172607,
      "lon": 17.5612185,
      "tags": {
        "addr:city": "Opuzen",
        "addr:housenumber": "4",
        "addr:postcode": "20355",
        "addr:street": "Ulica Silvija Strahimira Kranjčevića",
        "name": "Gurman",
        "shop": "butcher"
      }
    },
    {
      "type": "node",
      "id": 1999922100,
      "lat": 43.0165896,
      "lon": 17.5603998,
      "tags": {
        "name": "Pivac",
        "shop": "butcher"
      }
    },
    {
      "type": "node",
      "id": 2008187436,
      "lat": 45.4818333,
      "lon": 15.5541175,
      "tags": {
        "name": "Pivac",
        "shop": "butcher",
        "wheelchair": "yes"
      }
    },
    {
      "type": "node",
      "id": 2055906888,
      "lat": 43.5136619,
      "lon": 16.4549232,
      "tags": {
        "name": "Pivac",
        "opening_hours": "Mo-Sa 06:30-13:00; Su 07:00-12:00",
        "shop": "butcher"
      }
    },
    {
      "type": "node",
      "id": 2095289173,
      "lat": 44.8715582,
      "lon": 13.8491274,
      "tags": {
        "name": "Compari",
        "shop": "butcher"
      }
    },
    {
      "type": "node",
      "id": 2124949627,
      "lat": 43.0412819,
      "lon": 17.53445,
      "tags": {
        "name": "Mesnica Kod Joze",
        "shop": "butcher"
      }
    },
    {
      "type": "node",
      "id": 2137931455,
      "lat": 43.0632678,
      "lon": 16.1847496,
      "tags": {
        "name": "Pivac",
        "shop": "butcher"
      }
    },
    {
      "type": "node",
      "id": 2157220172,
      "lat": 45.8166566,
      "lon": 15.9968276,
      "tags": {
        "name": "Mesnica",
        "shop": "butcher",
        "wheelchair": "limited"
      }
    },
    {
      "type": "node",
      "id": 2184017948,
      "lat": 45.489381,
      "lon": 15.54765,
      "tags": {
        "shop": "butcher",
        "wheelchair": "yes"
      }
    },
    {
      "type": "node",
      "id": 2184019447,
      "lat": 45.48911,
      "lon": 15.547457,
      "tags": {
        "name": "Butcher",
        "shop": "butcher"
      }
    },
    {
      "type": "node",
      "id": 2196038593,
      "lat": 45.8023955,
      "lon": 15.8988504,
      "tags": {
        "name": "Karlo",
        "ref:vatin": "HR63138814901",
        "shop": "butcher"
      }
    },
    {
      "type": "node",
      "id": 2196038594,
      "lat": 45.7955384,
      "lon": 15.9004737,
      "tags": {
        "name": "Karlo",
        "ref:vatin": "HR63138814901",
        "shop": "butcher"
      }
    },
    {
      "type": "node",
      "id": 2199779696,
      "lat": 45.794158,
      "lon": 15.996595,
      "tags": {
        "name": "Karlo",
        "ref:vatin": "HR63138814901",
        "shop": "butcher"
      }
    },
    {
      "type": "node",
      "id": 2272359261,
      "lat": 45.7969877,
      "lon": 15.9355717,
      "tags": {
        "name": "Kanurić mesnice",
        "shop": "butcher"
      }
    },
    {
      "type": "node",
      "id": 2272696682,
      "lat": 45.7975437,
      "lon": 15.9435152,
      "tags": {
        "name": "Fami",
        "ref:vatin": "HR41685317241",
        "shop": "butcher"
      }
    },
    {
      "type": "node",
      "id": 2280499262,
      "lat": 45.4887718,
      "lon": 15.5473496,
      "tags": {
        "name": "Karlo",
        "ref:vatin": "HR63138814901",
        "shop": "butcher"
      }
    },
    {
      "type": "node",
      "id": 2319490873,
      "lat": 45.9957869,
      "lon": 15.914649,
      "tags": {
        "name": "Mika",
        "shop": "butcher"
      }
    },
    {
      "type": "node",
      "id": 2352496354,
      "lat": 43.0538784,
      "lon": 17.4353861,
      "tags": {
        "name": "Pivac",
        "shop": "butcher"
      }
    },
    {
      "type": "node",
      "id": 2391778075,
      "lat": 45.4884575,
      "lon": 16.372664,
      "tags": {
        "name": "Konjužić",
        "shop": "butcher"
      }
    },
    {
      "type": "node",
      "id": 2392199109,
      "lat": 43.3573146,
      "lon": 16.9496511,
      "tags": {
        "name": "Mesnica Erstic",
        "shop": "butcher"
      }
    },
    {
      "type": "node",
      "id": 2394121388,
      "lat": 45.0209969,
      "lon": 14.6292359,
      "tags": {
        "shop": "butcher"
      }
    },
    {
      "type": "node",
      "id": 2401908327,
      "lat": 45.4954798,
      "lon": 16.3654967,
      "tags": {
        "name": "Promes Cvanciger",
        "shop": "butcher"
      }
    },
    {
      "type": "node",
      "id": 2402202881,
      "lat": 45.3063287,
      "lon": 18.4137864,
      "tags": {
        "addr:housenumber": "11",
        "addr:street": "Augusta Cesarca",
        "name": "Mesnica Karlović",
        "opening_hours": "Mo 08:00-15:00; Tu-Fr 08:00-15:00; We 07:00-14:00; Sa 07:00-14:00",
        "shop": "butcher"
      }
    },
    {
      "type": "node",
      "id": 2405478360,
      "lat": 43.7591771,
      "lon": 15.7770887,
      "tags": {
        "addr:postcode": "22211",
        "addr:street": "roca Pave",
        "name": "Mesnica Miletić",
        "shop": "butcher",
        "website": "http://www.miletic.biz/"
      }
    },
    {
      "type": "node",
      "id": 2416073051,
      "lat": 43.9608973,
      "lon": 15.4253065,
      "tags": {
        "name": "Pivac",
        "opening_hours": "Mo-Fr 07:00-14:00; Sa 07:00-13:00; Su 07:00-12:00",
        "shop": "butcher"
      }
    },
    {
      "type": "node",
      "id": 2416073363,
      "lat": 43.9619092,
      "lon": 15.4246158,
      "tags": {
        "name": "Sakić",
        "shop": "butcher"
      }
    },
    {
      "type": "node",
      "id": 2416411492,
      "lat": 43.9381402,
      "lon": 15.4438501,
      "tags": {
        "name": "Nakićen",
        "shop": "butcher"
      }
    },
    {
      "type": "node",
      "id": 2416414969,
      "lat": 43.9378813,
      "lon": 15.4442928,
      "tags": {
        "name": "Števanja",
        "shop": "butcher"
      }
    },
    {
      "type": "node",
      "id": 2418992309,
      "lat": 44.1150092,
      "lon": 15.2274702,
      "tags": {
        "name": "Ikić",
        "shop": "butcher"
      }
    },
    {
      "type": "node",
      "id": 2424501109,
      "lat": 43.9373989,
      "lon": 15.4440861,
      "tags": {
        "name": "Pivac",
        "shop": "butcher"
      }
    },
    {
      "type": "node",
      "id": 2445564477,
      "lat": 43.7596102,
      "lon": 15.7744088,
      "tags": {
        "addr:city": "Vodice",
        "addr:country": "HR",
        "addr:housenumber": "47",
        "addr:postcode": "22211",
        "addr:street": "Pamuković Kamila",
        "name": "Pivac",
        "shop": "butcher"
      }
    },
    {
      "type": "node",
      "id": 2455524597,
      "lat": 45.8169772,
      "lon": 15.8876621,
      "tags": {
        "name": "Karlo",
        "ref:vatin": "HR63138814901",
        "shop": "butcher"
      }
    },
    {
      "type": "node",
      "id": 2479170744,
      "lat": 45.7956337,
      "lon": 15.9645573,
      "tags": {
        "name": "Igomat",
        "opening_hours": "Mo-Fr 07:00-20:00; Sa 07:00-14:00; Su 07:00-12:00",
        "ref:vatin": "HR55662000497",
        "shop": "butcher"
      }
    },
    {
      "type": "node",
      "id": 2486103855,
      "lat": 43.4449682,
      "lon": 16.6918495,
      "tags": {
        "name": "Tomasović",
        "shop": "butcher"
      }
    },
    {
      "type": "node",
      "id": 2486168937,
      "lat": 43.4445286,
      "lon": 16.6919132,
      "tags": {
        "name": "Pivac",
        "shop": "butcher"
      }
    },
    {
      "type": "node",
      "id": 2486540604,
      "lat": 43.4446298,
      "lon": 16.6924138,
      "tags": {
        "name": "Perutnina Ptuj-Pipo doo",
        "shop": "butcher"
      }
    },
    {
      "type": "node",
      "id": 2488189577,
      "lat": 43.7013146,
      "lon": 16.6369036,
      "tags": {
        "name": "MEL",
        "shop": "butcher"
      }
    },
    {
      "type": "node",
      "id": 2492792774,
      "lat": 43.7025056,
      "lon": 16.6403516,
      "tags": {
        "name": "Vitić",
        "shop": "butcher"
      }
    },
    {
      "type": "node",
      "id": 2493552047,
      "lat": 45.7722545,
      "lon": 15.9641499,
      "tags": {
        "shop": "butcher"
      }
    },
    {
      "type": "node",
      "id": 2493552048,
      "lat": 45.772278,
      "lon": 15.9643552,
      "tags": {
        "shop": "butcher"
      }
    },
    {
      "type": "node",
      "id": 2496212788,
      "lat": 45.7653856,
      "lon": 15.9619082,
      "tags": {
        "shop": "butcher"
      }
    },
    {
      "type": "node",
      "id": 2503837987,
      "lat": 45.807803,
      "lon": 15.9191895,
      "tags": {
        "name": "Kanurić",
        "shop": "butcher"
      }
    },
    {
      "type": "node",
      "id": 2504671973,
      "lat": 43.4459158,
      "lon": 16.687735,
      "tags": {
        "name": "Mesnica Kod Joze",
        "shop": "butcher"
      }
    },
    {
      "type": "node",
      "id": 2506825381,
      "lat": 43.4434127,
      "lon": 16.6848336,
      "tags": {
        "name": "Tomasović",
        "shop": "butcher"
      }
    },
    {
      "type": "node",
      "id": 2511662257,
      "lat": 45.1571075,
      "lon": 18.0322237,
      "tags": {
        "name": "Berbinka",
        "shop": "butcher",
        "wheelchair": "limited"
      }
    },
    {
      "type": "node",
      "id": 2522883125,
      "lat": 43.4446212,
      "lon": 16.640771,
      "tags": {
        "name": "Pivac",
        "shop": "butcher"
      }
    },
    {
      "type": "node",
      "id": 2524506385,
      "lat": 43.4437311,
      "lon": 16.6424753,
      "tags": {
        "name": "Mantru",
        "shop": "butcher"
      }
    },
    {
      "type": "node",
      "id": 2524522418,
      "lat": 43.4442882,
      "lon": 16.6410256,
      "tags": {
        "name": "Mesnica Tomasović",
        "shop": "butcher"
      }
    },
    {
      "type": "node",
      "id": 2532185637,
      "lat": 45.7984457,
      "lon": 15.9542022,
      "tags": {
        "name": "fiolić",
        "shop": "butcher"
      }
    },
    {
      "type": "node",
      "id": 2538101468,
      "lat": 43.7003507,
      "lon": 16.6371153,
      "tags": {
        "name": "Levantin",
        "shop": "butcher"
      }
    },
    {
      "type": "node",
      "id": 2558271465,
      "lat": 43.700956,
      "lon": 16.637076,
      "tags": {
        "name": "Vitić",
        "shop": "butcher"
      }
    },
    {
      "type": "node",
      "id": 2563011452,
      "lat": 43.7007835,
      "lon": 16.6369974,
      "tags": {
        "name": "Mel",
        "shop": "butcher"
      }
    },
    {
      "type": "node",
      "id": 2575877510,
      "lat": 43.7048708,
      "lon": 16.6511742,
      "tags": {
        "name": "Tangar",
        "shop": "butcher"
      }
    },
    {
      "type": "node",
      "id": 2576995327,
      "lat": 45.3019366,
      "lon": 13.6249749,
      "tags": {
        "shop": "butcher"
      }
    },
    {
      "type": "node",
      "id": 2590872596,
      "lat": 45.1594627,
      "lon": 18.0260278,
      "tags": {
        "name": "Valvita",
        "shop": "butcher"
      }
    },
    {
      "type": "node",
      "id": 2598736194,
      "lat": 45.153926,
      "lon": 18.0208155,
      "tags": {
        "name": "Brebrinka",
        "shop": "butcher"
      }
    },
    {
      "type": "node",
      "id": 2599244498,
      "lat": 45.7181899,
      "lon": 16.0544434,
      "tags": {
        "name": "Pivac",
        "shop": "butcher"
      }
    },
    {
      "type": "node",
      "id": 2609245081,
      "lat": 43.6177706,
      "lon": 16.7280322,
      "tags": {
        "name": "Galić",
        "shop": "butcher"
      }
    },
    {
      "type": "node",
      "id": 2628888756,
      "lat": 44.821728,
      "lon": 13.9371213,
      "tags": {
        "name": "Placa",
        "shop": "butcher"
      }
    },
    {
      "type": "node",
      "id": 2669982862,
      "lat": 45.7955828,
      "lon": 15.9659544,
      "tags": {
        "name": "Perutnina Ptuj",
        "shop": "butcher",
        "source": "local knowledge"
      }
    },
    {
      "type": "node",
      "id": 2670547773,
      "lat": 44.041579,
      "lon": 16.1963716,
      "tags": {
        "addr:city": "Knin",
        "addr:postcode": "22300",
        "addr:street": "Resičina 2",
        "name": "Mesnica Pivac",
        "phone": "022/661-163",
        "shop": "butcher",
        "website": "http://corporate.pivac.hr/",
        "wheelchair": "yes"
      }
    },
    {
      "type": "node",
      "id": 2670551548,
      "lat": 44.0361744,
      "lon": 16.1973372,
      "tags": {
        "addr:city": "Knin",
        "addr:postcode": "22300",
        "addr:street": "Dr.Franje Tuñmana 30",
        "name": "Mesnica Pivac",
        "phone": "022/660-469",
        "shop": "butcher",
        "website": "http://corporate.pivac.hr/",
        "wheelchair": "yes"
      }
    },
    {
      "type": "node",
      "id": 2670556699,
      "lat": 44.0393786,
      "lon": 16.2020427,
      "tags": {
        "addr:city": "Knin",
        "addr:postcode": "22300",
        "addr:street": "4. gardijske brigade 42",
        "name": "Mesnica Pivac",
        "phone": "022/662339",
        "shop": "butcher",
        "toilets:wheelchair": "no",
        "website": "http://corporate.pivac.hr/",
        "wheelchair": "yes"
      }
    },
    {
      "type": "node",
      "id": 2696315261,
      "lat": 45.1732352,
      "lon": 18.0449729,
      "tags": {
        "name": "Bebrinka",
        "shop": "butcher"
      }
    },
    {
      "type": "node",
      "id": 2725731228,
      "lat": 45.1548453,
      "lon": 18.0217693,
      "tags": {
        "name": "Bebrinka",
        "shop": "butcher"
      }
    },
    {
      "type": "node",
      "id": 2725731247,
      "lat": 45.1547254,
      "lon": 18.0227099,
      "tags": {
        "name": "Perutnina Ptuj",
        "shop": "butcher"
      }
    },
    {
      "type": "node",
      "id": 2725731248,
      "lat": 45.1547736,
      "lon": 18.0223222,
      "tags": {
        "name": "Ravlić",
        "shop": "butcher"
      }
    },
    {
      "type": "node",
      "id": 2725731254,
      "lat": 45.1549107,
      "lon": 18.021347,
      "tags": {
        "name": "Vindija",
        "shop": "butcher"
      }
    },
    {
      "type": "node",
      "id": 2806859422,
      "lat": 43.90748,
      "lon": 15.5083426,
      "tags": {
        "name": "Kod Mate",
        "shop": "butcher"
      }
    },
    {
      "type": "node",
      "id": 2867963691,
      "lat": 42.939218,
      "lon": 16.7881414,
      "tags": {
        "name": "Pivac",
        "shop": "butcher"
      }
    },
    {
      "type": "node",
      "id": 2869838426,
      "lat": 42.9381817,
      "lon": 16.7898559,
      "tags": {
        "name": "Lovre",
        "shop": "butcher"
      }
    },
    {
      "type": "node",
      "id": 2877827567,
      "lat": 45.5855537,
      "lon": 16.2103817,
      "tags": {
        "name": "PPK",
        "shop": "butcher"
      }
    },
    {
      "type": "node",
      "id": 2937826224,
      "lat": 43.507522,
      "lon": 16.4415251,
      "tags": {
        "name": "Purex",
        "opening_hours": "Mo-Sa 07:00-14:00; Su 07:00-13:00",
        "shop": "butcher"
      }
    },
    {
      "type": "node",
      "id": 2937826701,
      "lat": 43.5075599,
      "lon": 16.4416139,
      "tags": {
        "name": "Madunić",
        "shop": "butcher"
      }
    },
    {
      "type": "node",
      "id": 2951381318,
      "lat": 44.8669731,
      "lon": 13.8489673,
      "tags": {
        "shop": "butcher"
      }
    },
    {
      "type": "node",
      "id": 2960356085,
      "lat": 44.2410124,
      "lon": 15.1799816,
      "tags": {
        "shop": "butcher"
      }
    },
    {
      "type": "node",
      "id": 2974651744,
      "lat": 43.5150595,
      "lon": 16.253491,
      "tags": {
        "name": "Mesnica Tangar",
        "shop": "butcher"
      }
    },
    {
      "type": "node",
      "id": 2986348538,
      "lat": 45.2907244,
      "lon": 15.9692777,
      "tags": {
        "name": "PPK",
        "shop": "butcher"
      }
    },
    {
      "type": "node",
      "id": 2986515067,
      "lat": 43.5068615,
      "lon": 16.4525161,
      "tags": {
        "name": "Pršutoreznica",
        "shop": "butcher"
      }
    },
    {
      "type": "node",
      "id": 3002133965,
      "lat": 43.5094421,
      "lon": 16.4779234,
      "tags": {
        "name": "Perajica",
        "shop": "butcher"
      }
    },
    {
      "type": "node",
      "id": 3008165362,
      "lat": 44.1168732,
      "lon": 15.2322314,
      "tags": {
        "shop": "butcher"
      }
    },
    {
      "type": "node",
      "id": 3011123794,
      "lat": 45.8016286,
      "lon": 15.7094059,
      "tags": {
        "name": "Mesnica Koprivnjak",
        "shop": "butcher"
      }
    },
    {
      "type": "node",
      "id": 3040562769,
      "lat": 42.640185,
      "lon": 18.1100984,
      "tags": {
        "name": "Rea Silvia",
        "shop": "butcher"
      }
    },
    {
      "type": "node",
      "id": 3063666731,
      "lat": 45.8241944,
      "lon": 15.6977052,
      "tags": {
        "name": "Supermes",
        "shop": "butcher"
      }
    },
    {
      "type": "node",
      "id": 3069959140,
      "lat": 44.0336239,
      "lon": 15.2460071,
      "tags": {
        "name": "Mesnica Kukljica",
        "opening_hours": "Mo-Sa 07:30-12:00; Su 07:30-11:00",
        "shop": "butcher"
      }
    },
    {
      "type": "node",
      "id": 3081657734,
      "lat": 43.7996203,
      "lon": 15.6416113,
      "tags": {
        "name": "Nakić",
        "opening_hours": "Mo-Sa 06:30-13:00;Su 06:30-12:00",
        "shop": "butcher"
      }
    },
    {
      "type": "node",
      "id": 3088903265,
      "lat": 43.8217175,
      "lon": 15.5919451,
      "tags": {
        "addr:city": "Murter",
        "addr:street": "Hrvatskih vladara",
        "name": "Klarić",
        "opening_hours": "Mo-Sa 07:00-14:00; Su 07:00-12:00",
        "shop": "butcher"
      }
    },
    {
      "type": "node",
      "id": 3157758194,
      "lat": 45.4789598,
      "lon": 16.7776878,
      "tags": {
        "shop": "butcher"
      }
    },
    {
      "type": "node",
      "id": 3189837026,
      "lat": 44.1438636,
      "lon": 15.5829996,
      "tags": {
        "name": "Maslina",
        "opening_hours": "only during summer season",
        "shop": "butcher"
      }
    },
    {
      "type": "node",
      "id": 3280384665,
      "lat": 43.5139031,
      "lon": 16.4550948,
      "tags": {
        "name": "Purex",
        "opening_hours": "Mo-Fr 07:00-15:00; Sa 07:00-14:00; Su 07:00-13:00",
        "shop": "butcher"
      }
    },
    {
      "type": "node",
      "id": 3282974041,
      "lat": 43.5141031,
      "lon": 16.4546357,
      "tags": {
        "name": "Mesnica Bilić",
        "shop": "butcher"
      }
    },
    {
      "type": "node",
      "id": 3282974734,
      "lat": 43.514216,
      "lon": 16.454539,
      "tags": {
        "name": "Mesnica Jole",
        "shop": "butcher"
      }
    },
    {
      "type": "node",
      "id": 3282975097,
      "lat": 43.5139135,
      "lon": 16.4546232,
      "tags": {
        "name": "Mesnica Škokić",
        "shop": "butcher"
      }
    },
    {
      "type": "node",
      "id": 3361818341,
      "lat": 43.5166218,
      "lon": 16.4370496,
      "tags": {
        "name": "Perutnina Ptuj",
        "shop": "butcher"
      }
    },
    {
      "type": "node",
      "id": 3361819507,
      "lat": 43.5169411,
      "lon": 16.4374834,
      "tags": {
        "name": "Mesnica Proso",
        "shop": "butcher"
      }
    },
    {
      "type": "node",
      "id": 3361819604,
      "lat": 43.5169496,
      "lon": 16.437126,
      "tags": {
        "name": "Mesnica Mantru",
        "shop": "butcher"
      }
    },
    {
      "type": "node",
      "id": 3452375217,
      "lat": 45.755007,
      "lon": 15.939028,
      "tags": {
        "name": "Cerovski",
        "shop": "butcher"
      }
    },
    {
      "type": "node",
      "id": 3507051510,
      "lat": 45.4073832,
      "lon": 13.962729,
      "tags": {
        "name": "Zola",
        "shop": "butcher"
      }
    },
    {
      "type": "node",
      "id": 3577025744,
      "lat": 45.3324706,
      "lon": 14.4410529,
      "tags": {
        "addr:city": "Rijeka",
        "addr:housenumber": "1a",
        "addr:postcode": "51000",
        "addr:street": "Brajšina",
        "name": "Mesnica Belveder",
        "shop": "butcher"
      }
    },
    {
      "type": "node",
      "id": 3674755016,
      "lat": 44.115868,
      "lon": 15.2275505,
      "tags": {
        "name": "Mate Lukin",
        "shop": "butcher"
      }
    },
    {
      "type": "node",
      "id": 3674760297,
      "lat": 44.1158526,
      "lon": 15.2277141,
      "tags": {
        "name": "Paleka",
        "shop": "butcher"
      }
    },
    {
      "type": "node",
      "id": 3675672588,
      "lat": 44.1259249,
      "lon": 15.2350086,
      "tags": {
        "name": "Marko",
        "shop": "butcher"
      }
    },
    {
      "type": "node",
      "id": 3687783701,
      "lat": 44.1172357,
      "lon": 15.2393152,
      "tags": {
        "name": "Biloglav",
        "shop": "butcher"
      }
    },
    {
      "type": "node",
      "id": 3690163285,
      "lat": 43.5339272,
      "lon": 15.9670827,
      "tags": {
        "name": "Vrgorac",
        "shop": "butcher"
      }
    },
    {
      "type": "node",
      "id": 3719851637,
      "lat": 43.5139553,
      "lon": 16.4551918,
      "tags": {
        "name": "Pršutoreznica Pepur",
        "shop": "butcher"
      }
    },
    {
      "type": "node",
      "id": 3730831287,
      "lat": 44.1222402,
      "lon": 15.2545648,
      "tags": {
        "name": "mesara",
        "shop": "butcher"
      }
    },
    {
      "type": "node",
      "id": 3752533519,
      "lat": 44.9603365,
      "lon": 14.408379,
      "tags": {
        "shop": "butcher"
      }
    },
    {
      "type": "node",
      "id": 3753397586,
      "lat": 44.9590715,
      "lon": 14.4087618,
      "tags": {
        "shop": "butcher"
      }
    },
    {
      "type": "node",
      "id": 3758095715,
      "lat": 45.4459288,
      "lon": 14.3764604,
      "tags": {
        "shop": "butcher"
      }
    },
    {
      "type": "node",
      "id": 3770453083,
      "lat": 44.1247727,
      "lon": 15.2333443,
      "tags": {
        "name": "Lukin",
        "shop": "butcher"
      }
    },
    {
      "type": "node",
      "id": 3770551302,
      "lat": 44.1174567,
      "lon": 15.2332856,
      "tags": {
        "name": "Paleka",
        "shop": "butcher"
      }
    },
    {
      "type": "node",
      "id": 3770565016,
      "lat": 44.1106358,
      "lon": 15.2442942,
      "tags": {
        "name": "Pivac",
        "shop": "butcher"
      }
    },
    {
      "type": "node",
      "id": 3780595649,
      "lat": 44.1093725,
      "lon": 15.2368114,
      "tags": {
        "name": "Paleka",
        "shop": "butcher"
      }
    },
    {
      "type": "node",
      "id": 3787805935,
      "lat": 45.0742406,
      "lon": 18.4827866,
      "tags": {
        "shop": "butcher"
      }
    },
    {
      "type": "node",
      "id": 3816921144,
      "lat": 46.3787023,
      "lon": 16.4433319,
      "tags": {
        "name": "KIŠ",
        "shop": "butcher"
      }
    },
    {
      "type": "node",
      "id": 3839212507,
      "lat": 44.1195843,
      "lon": 15.2633619,
      "tags": {
        "name": "Ban",
        "shop": "butcher"
      }
    },
    {
      "type": "node",
      "id": 3839779780,
      "lat": 44.1153762,
      "lon": 15.2267913,
      "tags": {
        "name": "Pivac",
        "shop": "butcher"
      }
    },
    {
      "type": "node",
      "id": 3938342428,
      "lat": 44.1074451,
      "lon": 15.2475051,
      "tags": {
        "name": "Marko",
        "shop": "butcher"
      }
    },
    {
      "type": "node",
      "id": 3944593863,
      "lat": 44.0331397,
      "lon": 15.6118393,
      "tags": {
        "name": "Pivac",
        "shop": "butcher"
      }
    },
    {
      "type": "node",
      "id": 4032142074,
      "lat": 45.3775362,
      "lon": 18.9571315,
      "tags": {
        "name": "Ravlić",
        "shop": "butcher",
        "wheelchair": "limited"
      }
    },
    {
      "type": "node",
      "id": 4104546692,
      "lat": 43.7413566,
      "lon": 15.899007,
      "tags": {
        "name": "Musič",
        "shop": "butcher"
      }
    },
    {
      "type": "node",
      "id": 4130602801,
      "lat": 45.8130762,
      "lon": 15.964407,
      "tags": {
        "addr:city": "Zagreb",
        "addr:country": "HR",
        "addr:housenumber": "3",
        "addr:postcode": "10000",
        "addr:street": "Britanski trg",
        "name": "Mesnice Fiolić",
        "shop": "butcher"
      }
    },
    {
      "type": "node",
      "id": 4146519788,
      "lat": 45.8141485,
      "lon": 15.9970625,
      "tags": {
        "name": "Don Vito",
        "shop": "butcher"
      }
    },
    {
      "type": "node",
      "id": 4179331687,
      "lat": 43.4464034,
      "lon": 17.2163982,
      "tags": {
        "name": "Jažić",
        "shop": "butcher"
      }
    },
    {
      "type": "node",
      "id": 4179331688,
      "lat": 43.4466121,
      "lon": 17.2175776,
      "tags": {
        "name": "Điković",
        "shop": "butcher"
      }
    },
    {
      "type": "node",
      "id": 4181421260,
      "lat": 43.445146,
      "lon": 17.2190403,
      "tags": {
        "name": "Pivac",
        "shop": "butcher"
      }
    },
    {
      "type": "node",
      "id": 4210536890,
      "lat": 42.6755324,
      "lon": 18.1120137,
      "tags": {
        "shop": "butcher"
      }
    },
    {
      "type": "node",
      "id": 4271687987,
      "lat": 44.210733,
      "lon": 15.4759861,
      "tags": {
        "shop": "butcher"
      }
    },
    {
      "type": "node",
      "id": 4280816689,
      "lat": 43.8189898,
      "lon": 15.9238519,
      "tags": {
        "name": "Pivac",
        "opening_hours": "Mo-Fr 07:00-20:00; Sa 07:00-14:00; Su 07:00-12:00",
        "shop": "butcher",
        "website": "http://www.pivac.hr"
      }
    },
    {
      "type": "node",
      "id": 4290763128,
      "lat": 43.8224748,
      "lon": 15.5930558,
      "tags": {
        "name": "Šikić",
        "shop": "butcher"
      }
    },
    {
      "type": "node",
      "id": 4290763929,
      "lat": 43.821813,
      "lon": 15.5925356,
      "tags": {
        "name": "Delikatese Vukšić",
        "shop": "butcher"
      }
    },
    {
      "type": "node",
      "id": 4294313912,
      "lat": 43.5185386,
      "lon": 16.2492335,
      "tags": {
        "shop": "butcher"
      }
    },
    {
      "type": "node",
      "id": 4299567575,
      "lat": 44.8272566,
      "lon": 13.9286234,
      "tags": {
        "name": "Fleischer",
        "shop": "butcher"
      }
    },
    {
      "type": "node",
      "id": 4309009490,
      "lat": 45.1796261,
      "lon": 18.2389164,
      "tags": {
        "shop": "butcher"
      }
    },
    {
      "type": "node",
      "id": 4314417833,
      "lat": 43.1849463,
      "lon": 16.6001657,
      "tags": {
        "name": "Pivac",
        "shop": "butcher"
      }
    },
    {
      "type": "node",
      "id": 4385380903,
      "lat": 45.292517,
      "lon": 14.2759658,
      "tags": {
        "name": "Mesnica Mario",
        "shop": "butcher"
      }
    },
    {
      "type": "node",
      "id": 4402118992,
      "lat": 43.7327958,
      "lon": 15.8958035,
      "tags": {
        "name": "mesnice Miletić",
        "shop": "butcher"
      }
    },
    {
      "type": "node",
      "id": 4409702008,
      "lat": 43.587477,
      "lon": 15.9259968,
      "tags": {
        "shop": "butcher"
      }
    },
    {
      "type": "node",
      "id": 4413436089,
      "lat": 45.3385765,
      "lon": 14.3086052,
      "tags": {
        "addr:housenumber": "2/1",
        "addr:postcode": "51410",
        "addr:street": "Vjekoslava Spinčića",
        "email": "mesnica.jelacic@gmail.com",
        "name": "Mesnica\"Jelačić\"",
        "name:hr": "Mesnica\"Jelačić\"",
        "opening_hours": "Mo-Sa 07:00-14:00; Su 07:00-12:00",
        "phone": "051271509",
        "shop": "butcher"
      }
    },
    {
      "type": "node",
      "id": 4435722892,
      "lat": 45.3536455,
      "lon": 14.3862015,
      "tags": {
        "name": "Mesnica Branko",
        "name:en": "butcher's Branko",
        "name:hr": "Mesnica Branko",
        "shop": "butcher"
      }
    },
    {
      "type": "node",
      "id": 4446638017,
      "lat": 45.8055976,
      "lon": 16.2343671,
      "tags": {
        "addr:city": "Dugo Selo",
        "addr:housenumber": "12",
        "addr:postcode": "10370",
        "addr:street": "Josipa Zorića",
        "name": "Perutnina Ptuj",
        "shop": "butcher"
      }
    },
    {
      "type": "node",
      "id": 4586557958,
      "lat": 45.7156637,
      "lon": 16.071042,
      "tags": {
        "name": "Pivac",
        "shop": "butcher"
      }
    },
    {
      "type": "node",
      "id": 4677131204,
      "lat": 45.8152472,
      "lon": 15.8772941,
      "tags": {
        "name": "Mesnica Marko",
        "shop": "butcher"
      }
    },
    {
      "type": "node",
      "id": 4770263845,
      "lat": 45.8556697,
      "lon": 15.9539631,
      "tags": {
        "addr:city": "Zagreb",
        "addr:housenumber": "8",
        "addr:postcode": "10000",
        "addr:street": "Potočani",
        "name": "Mesnica Rodbinić",
        "shop": "butcher"
      }
    },
    {
      "type": "node",
      "id": 4792454537,
      "lat": 46.2240928,
      "lon": 16.1240872,
      "tags": {
        "name": "Mesnica Vugrinec",
        "shop": "butcher"
      }
    },
    {
      "type": "node",
      "id": 4798788847,
      "lat": 46.224091,
      "lon": 16.1226212,
      "tags": {
        "name": "Perutnina Ptuj",
        "shop": "butcher"
      }
    },
    {
      "type": "node",
      "id": 4798788848,
      "lat": 46.224098,
      "lon": 16.1228459,
      "tags": {
        "name": "Vajda",
        "shop": "butcher"
      }
    },
    {
      "type": "node",
      "id": 4813656143,
      "lat": 45.3158606,
      "lon": 13.5632749,
      "tags": {
        "shop": "butcher"
      }
    },
    {
      "type": "node",
      "id": 4816339338,
      "lat": 45.8030732,
      "lon": 16.0202909,
      "tags": {
        "addr:city": "Zagreb",
        "addr:housenumber": "56",
        "addr:postcode": "10000",
        "addr:street": "Ivanićgradska ulica",
        "name": "IGOMAT",
        "opening_hours": "Mon-Fri 7-20; Sat 7-14; Sun 7-12",
        "operator": "IGOMAT",
        "shop": "butcher"
      }
    },
    {
      "type": "node",
      "id": 4907439922,
      "lat": 44.1321516,
      "lon": 15.2205617,
      "tags": {
        "addr:city": "Zadar",
        "addr:housenumber": "62",
        "addr:postcode": "23 000",
        "addr:street": "Put Dikla",
        "name": "Mesnica Policanka",
        "shop": "butcher"
      }
    },
    {
      "type": "node",
      "id": 4973580053,
      "lat": 44.9977148,
      "lon": 15.1258564,
      "tags": {
        "addr:housenumber": "62b",
        "addr:street": "Frankopanska",
        "butcher": "smoked_meat",
        "name": "Pivac",
        "opening_hours": "Mo-Fr 07:00-17:00; Sa 07:00-14:00; Su 07:00-12:00",
        "phone": "+385 53 700 402",
        "shop": "butcher",
        "website": "http://www.pivac.hr/"
      }
    },
    {
      "type": "node",
      "id": 5009829570,
      "lat": 42.6562278,
      "lon": 18.0880941,
      "tags": {
        "name": "Zupka",
        "shop": "butcher"
      }
    },
    {
      "type": "node",
      "id": 5009842383,
      "lat": 42.6516403,
      "lon": 18.0926577,
      "tags": {
        "name": "Perutnina Ptuj",
        "shop": "butcher"
      }
    },
    {
      "type": "node",
      "id": 5009842391,
      "lat": 42.6516754,
      "lon": 18.0927136,
      "tags": {
        "name": "Zupka",
        "shop": "butcher"
      }
    },
    {
      "type": "node",
      "id": 5009843480,
      "lat": 42.6515873,
      "lon": 18.0927363,
      "tags": {
        "name": "Zicer",
        "shop": "butcher"
      }
    },
    {
      "type": "node",
      "id": 5009847672,
      "lat": 42.6554325,
      "lon": 18.0879913,
      "tags": {
        "name": "Perutnina Ptuj",
        "shop": "butcher"
      }
    },
    {
      "type": "node",
      "id": 5009850721,
      "lat": 42.6566428,
      "lon": 18.0880648,
      "tags": {
        "name": "pivac",
        "shop": "butcher"
      }
    },
    {
      "type": "node",
      "id": 5047258270,
      "lat": 46.5136182,
      "lon": 16.4390706,
      "tags": {
        "addr:city": "Mursko Središće",
        "addr:housenumber": "9",
        "addr:postcode": "40315",
        "addr:street": "Trg bana Josipa Jelačića",
        "shop": "butcher"
      }
    },
    {
      "type": "node",
      "id": 5047261645,
      "lat": 46.5132829,
      "lon": 16.4392908,
      "tags": {
        "addr:city": "Mursko Središće",
        "addr:housenumber": "7",
        "addr:postcode": "40315",
        "addr:street": "Trg bana Josipa Jelačića",
        "name": "Mesnica MIhalić",
        "opening_hours": "Mo-Fr 07:00-20:00; Sa 07:00-14:00; Su 07:00-12:00",
        "phone": "+385800330011",
        "shop": "butcher"
      }
    },
    {
      "type": "node",
      "id": 5052643500,
      "lat": 43.3470787,
      "lon": 16.734534,
      "tags": {
        "name": "Krise",
        "shop": "butcher"
      }
    },
    {
      "type": "node",
      "id": 5069817322,
      "lat": 46.2087706,
      "lon": 16.4209135,
      "tags": {
        "name": "Trgonom Mesnica",
        "name:hr": "Trgonom Mesnica",
        "shop": "butcher"
      }
    },
    {
      "type": "node",
      "id": 5072190062,
      "lat": 45.1745534,
      "lon": 14.6926493,
      "tags": {
        "opening_hours": "Mo-Su 07:00-20:00",
        "shop": "butcher"
      }
    },
    {
      "type": "node",
      "id": 5072948711,
      "lat": 45.3393947,
      "lon": 16.9791743,
      "tags": {
        "addr:housenumber": "17",
        "addr:street": "Osječka ulica",
        "name": "Promes-Cvanciger",
        "shop": "butcher"
      }
    },
    {
      "type": "node",
      "id": 5104750512,
      "lat": 45.3388786,
      "lon": 16.9776475,
      "tags": {
        "addr:housenumber": "10",
        "addr:street": "Ulica kralja Tomislava",
        "name": "Pivac",
        "shop": "butcher"
      }
    },
    {
      "type": "node",
      "id": 5105331949,
      "lat": 45.3372986,
      "lon": 16.9752878,
      "tags": {
        "addr:housenumber": "35",
        "addr:street": "Ulica kralja Tomislava",
        "name": "Mesni butik Idžojtić",
        "shop": "butcher"
      }
    },
    {
      "type": "node",
      "id": 5123763621,
      "lat": 42.9597765,
      "lon": 17.1345311,
      "tags": {
        "name": "Milina",
        "shop": "butcher"
      }
    },
    {
      "type": "node",
      "id": 5182415521,
      "lat": 44.6589984,
      "lon": 14.3972366,
      "tags": {
        "name": "MESNICA JUBA",
        "name:en": "MEATMARKET JUBA",
        "name:hr": "MESNICA JUBA",
        "opening_hours": "Mo-Sa 07:00-12:00,18:00-20:00; Su 07:00-11:00",
        "shop": "butcher"
      }
    },
    {
      "type": "node",
      "id": 5212597342,
      "lat": 43.2648528,
      "lon": 16.6483068,
      "tags": {
        "name": "Mesnica",
        "shop": "butcher"
      }
    },
    {
      "type": "node",
      "id": 5327943071,
      "lat": 44.6492265,
      "lon": 15.3825482,
      "tags": {
        "name": "Kod Pere",
        "shop": "butcher"
      }
    },
    {
      "type": "node",
      "id": 5333275551,
      "lat": 45.8130854,
      "lon": 15.9967301,
      "tags": {
        "addr:unit": "4",
        "name": "Blagus",
        "shop": "butcher"
      }
    },
    {
      "type": "node",
      "id": 5333275554,
      "lat": 45.8131141,
      "lon": 15.9967099,
      "tags": {
        "name": "Kudelić",
        "shop": "butcher"
      }
    },
    {
      "type": "node",
      "id": 5370476795,
      "lat": 45.4146649,
      "lon": 17.1623881,
      "tags": {
        "name": "Pivac",
        "shop": "butcher"
      }
    },
    {
      "type": "node",
      "id": 5370481677,
      "lat": 45.4125662,
      "lon": 17.1634822,
      "tags": {
        "shop": "butcher"
      }
    },
    {
      "type": "node",
      "id": 5402220412,
      "lat": 46.3460836,
      "lon": 16.8154069,
      "tags": {
        "name": "Mesnica",
        "shop": "butcher"
      }
    },
    {
      "type": "node",
      "id": 5510238529,
      "lat": 45.2088039,
      "lon": 13.6834723,
      "tags": {
        "shop": "butcher"
      }
    },
    {
      "type": "node",
      "id": 5556242963,
      "lat": 45.7656779,
      "lon": 15.9936104,
      "tags": {
        "addr:city": "Zagreb",
        "addr:housenumber": "20",
        "addr:postcode": "10010",
        "addr:street": "Vajdin Vijenac",
        "facebook": "https://www.facebook.com/igomat.finomeso/",
        "name": "Igomat",
        "opening_hours": "Mo-Fr 06:00-20:00, Sa 06:00-15:00, Su 06:00-12:00",
        "operator": "Igomat d.o.o.",
        "phone": "+385 1 6622 255",
        "shop": "butcher",
        "website": "http://igomat.hr/prodaja/mesnica-dugave/"
      }
    },
    {
      "type": "node",
      "id": 5640610422,
      "lat": 43.0451085,
      "lon": 16.0900295,
      "tags": {
        "shop": "butcher"
      }
    },
    {
      "type": "node",
      "id": 5689864801,
      "lat": 43.732385,
      "lon": 15.8962553,
      "tags": {
        "name": "Musić",
        "shop": "butcher"
      }
    },
    {
      "type": "node",
      "id": 5689888740,
      "lat": 43.7324196,
      "lon": 15.8971578,
      "tags": {
        "name": "Sladić",
        "shop": "butcher"
      }
    },
    {
      "type": "node",
      "id": 5764507913,
      "lat": 45.2925856,
      "lon": 18.8072611,
      "tags": {
        "name": "Krešo",
        "shop": "butcher",
        "wheelchair": "no"
      }
    },
    {
      "type": "node",
      "id": 5806315720,
      "lat": 44.30209,
      "lon": 15.0816093,
      "tags": {
        "shop": "butcher"
      }
    },
    {
      "type": "node",
      "id": 5820741155,
      "lat": 43.0626754,
      "lon": 16.1839185,
      "tags": {
        "name": "Škokić",
        "opening_hours": "Mo-Sa 07:00-13:00, 18:00-20:00; Su 07:00-12:00",
        "phone": "+385922422656",
        "shop": "butcher"
      }
    },
    {
      "type": "node",
      "id": 5983080791,
      "lat": 43.5501364,
      "lon": 16.3450559,
      "tags": {
        "name": "Mesnica Skejo",
        "shop": "butcher"
      }
    },
    {
      "type": "node",
      "id": 5996188297,
      "lat": 43.907488,
      "lon": 15.6950293,
      "tags": {
        "shop": "butcher"
      }
    },
    {
      "type": "node",
      "id": 5996188298,
      "lat": 43.9023648,
      "lon": 15.7013703,
      "tags": {
        "name": "Mesnica Miletić",
        "shop": "butcher"
      }
    },
    {
      "type": "node",
      "id": 6155965643,
      "lat": 45.8053521,
      "lon": 15.7217086,
      "tags": {
        "name": "Mesnica",
        "shop": "butcher"
      }
    },
    {
      "type": "node",
      "id": 6235629787,
      "lat": 45.6739712,
      "lon": 15.6555103,
      "tags": {
        "shop": "butcher"
      }
    },
    {
      "type": "node",
      "id": 6308237962,
      "lat": 45.7895093,
      "lon": 15.9292978,
      "tags": {
        "name": "Mesnica Sima",
        "shop": "butcher"
      }
    },
    {
      "type": "node",
      "id": 6308246583,
      "lat": 45.7896063,
      "lon": 15.9287515,
      "tags": {
        "name": "Mesnica AS",
        "shop": "butcher"
      }
    },
    {
      "type": "node",
      "id": 6308253014,
      "lat": 45.7899771,
      "lon": 15.9288542,
      "tags": {
        "shop": "butcher"
      }
    },
    {
      "type": "node",
      "id": 6308253015,
      "lat": 45.7899801,
      "lon": 15.9289949,
      "tags": {
        "shop": "butcher"
      }
    },
    {
      "type": "node",
      "id": 6308253017,
      "lat": 45.7899437,
      "lon": 15.9291302,
      "tags": {
        "shop": "butcher"
      }
    },
    {
      "type": "node",
      "id": 6308253018,
      "lat": 45.7899203,
      "lon": 15.9291665,
      "tags": {
        "name": "Pivac",
        "shop": "butcher"
      }
    },
    {
      "type": "node",
      "id": 6308253019,
      "lat": 45.7897821,
      "lon": 15.9292665,
      "tags": {
        "shop": "butcher"
      }
    },
    {
      "type": "node",
      "id": 6352277094,
      "lat": 45.3793197,
      "lon": 13.626078,
      "tags": {
        "shop": "butcher"
      }
    },
    {
      "type": "node",
      "id": 6382689685,
      "lat": 45.7984863,
      "lon": 15.9066052,
      "tags": {
        "addr:housenumber": "6",
        "addr:street": "Ulica Josipa Strganca",
        "name": "Mesnice Medven",
        "opening_hours": "Mo-Fr 07:00-20:00; Sa 07:00-15:00; Su 07:00-12:00",
        "ref": "9",
        "shop": "butcher",
        "website": "http://medven.inkodeks.net/"
      }
    },
    {
      "type": "node",
      "id": 6397056687,
      "lat": 44.2629112,
      "lon": 15.2337497,
      "tags": {
        "shop": "butcher"
      }
    },
    {
      "type": "node",
      "id": 6424237328,
      "lat": 45.4334884,
      "lon": 14.9056727,
      "tags": {
        "shop": "butcher"
      }
    },
    {
      "type": "node",
      "id": 6485709438,
      "lat": 46.3884503,
      "lon": 16.4373631,
      "tags": {
        "addr:city": "Čakovec",
        "addr:housenumber": "17",
        "addr:postcode": "40000",
        "addr:street": "Ulica Valenta Morandinija",
        "name": "Vajda",
        "operator": "Mesna industrija braća Pivac d.o.o.",
        "shop": "butcher",
        "website": "http://www.pivac.hr/"
      }
    },
    {
      "type": "node",
      "id": 6485756346,
      "lat": 46.3884989,
      "lon": 16.4379385,
      "tags": {
        "addr:city": "Čakovec",
        "addr:housenumber": "31",
        "addr:postcode": "40000",
        "addr:street": "Ulica Valenta Morandinija",
        "name": "Međimurski pilići Blagus",
        "opening_hours": "Mo-Sa 07:00-15:00; Su 08:00-12:00",
        "shop": "butcher"
      }
    },
    {
      "type": "way",
      "id": 41215883,
      "nodes": [
        503609892,
        503609893,
        503609894,
        503609895,
        503609897,
        503609898,
        503609899,
        503609900,
        503609901,
        503609892
      ],
      "tags": {
        "shop": "butcher"
      }
    },
    {
      "type": "way",
      "id": 41962415,
      "nodes": [
        520005032,
        520005036,
        2629647099,
        2629647098,
        520005039,
        520005043,
        520005032
      ],
      "tags": {
        "building": "yes",
        "roof:material": "roof_tiles",
        "roof:shape": "gabled",
        "shop": "butcher"
      }
    },
    {
      "type": "way",
      "id": 114415196,
      "nodes": [
        1296119022,
        1296118978,
        1296118789,
        1296119188,
        1296119022
      ],
      "tags": {
        "building": "yes",
        "name": "Mesnica Musić",
        "shop": "butcher"
      }
    },
    {
      "type": "way",
      "id": 126808870,
      "nodes": [
        1404695439,
        1404695442,
        1404695438,
        1404695435,
        1404695439
      ],
      "tags": {
        "addr:city": "Funtana",
        "addr:country": "HR",
        "addr:housenumber": "7",
        "addr:postcode": "52452",
        "addr:street": "Grgeti",
        "building": "yes",
        "contact:phone": "+38552445274",
        "name": "Sandro",
        "shop": "butcher"
      }
    },
    {
      "type": "way",
      "id": 132663031,
      "nodes": [
        1459259544,
        1459259543,
        1459259510,
        1459259509,
        1459259448,
        1459259447,
        1459259416,
        1459259418,
        1459259423,
        1459259544
      ],
      "tags": {
        "addr:city": "Osijek",
        "addr:housenumber": "278",
        "addr:postcode": "31000",
        "addr:street": "Ulica Josipa Jurja Strossmayera",
        "building": "yes",
        "name": "Ravlić",
        "shop": "butcher"
      }
    },
    {
      "type": "way",
      "id": 138431093,
      "nodes": [
        1517888602,
        1517888557,
        1517888566,
        1517888578,
        1517888581,
        1517888593,
        1517888605,
        1517888634,
        1517888607,
        1517888602
      ],
      "tags": {
        "building": "yes",
        "name": "Libero",
        "shop": "butcher"
      }
    },
    {
      "type": "way",
      "id": 169859583,
      "nodes": [
        1810181064,
        1810181069,
        1810181072,
        1810181077,
        1810181064
      ],
      "tags": {
        "addr:housenumber": "10",
        "addr:street": "Folnegovićeva ulica",
        "building": "yes",
        "name": "Santoku",
        "phone": "+385923704679",
        "shop": "butcher",
        "website": "http://rougemarin.hr/s/hr/Rouge/santoku"
      }
    },
    {
      "type": "way",
      "id": 193460274,
      "nodes": [
        2039801088,
        2039801094,
        2039801092,
        2039801090,
        2039801088
      ],
      "tags": {
        "shop": "butcher"
      }
    },
    {
      "type": "way",
      "id": 294755153,
      "nodes": [
        2983694444,
        2983694445,
        2983694446,
        2983694447,
        2983694444
      ],
      "tags": {
        "building": "yes",
        "shop": "butcher"
      }
    },
    {
      "type": "way",
      "id": 301275870,
      "nodes": [
        3053519164,
        3053519165,
        3053519166,
        3053519167,
        3053519168,
        3053519169,
        3053519170,
        3053519171,
        3053519164
      ],
      "tags": {
        "building": "yes",
        "name": "Mesnica Mihalić",
        "shop": "butcher"
      }
    },
    {
      "type": "way",
      "id": 371897325,
      "nodes": [
        3754461972,
        3754461976,
        3754461977,
        3754461974,
        3754461967,
        3754461972
      ],
      "tags": {
        "building": "yes",
        "shop": "butcher",
        "source": "survey"
      }
    },
    {
      "type": "way",
      "id": 401830822,
      "nodes": [
        4042347375,
        4042347372,
        4042347371,
        4042347374,
        4042347375
      ],
      "tags": {
        "building": "yes",
        "building:levels": "1",
        "layer": "1",
        "name": "Ravlić",
        "shop": "butcher"
      }
    },
    {
      "type": "way",
      "id": 429820345,
      "nodes": [
        4290202055,
        4290202056,
        4290202057,
        4290202058,
        4290202054,
        4290202053,
        4290202055
      ],
      "tags": {
        "building": "yes",
        "name": "Ravlić",
        "shop": "butcher"
      }
    },
    {
      "type": "way",
      "id": 467190972,
      "nodes": [
        4618395821,
        4618395822,
        4618395823,
        4618395824,
        4618395821
      ],
      "tags": {
        "addr:city": "Vir",
        "addr:housenumber": "58",
        "addr:postcode": "23234",
        "addr:street": "Ul. Borisa Krnčevića",
        "building": "yes",
        "name": "Surić",
        "shop": "butcher"
      }
    },
    {
      "type": "way",
      "id": 467584669,
      "nodes": [
        4621880740,
        4621880741,
        4621880742,
        4621880743,
        4621880740
      ],
      "tags": {
        "addr:city": "Zagreb",
        "addr:housenumber": "2",
        "addr:postcode": "10090",
        "addr:street": "Podsusedska aleja",
        "building": "yes",
        "name": "Mesna industrija Imes Podsused",
        "roof:material": "roof_tiles",
        "roof:shape": "gabled",
        "shop": "butcher"
      }
    },
    {
      "type": "way",
      "id": 470840487,
      "nodes": [
        4650273550,
        4650273553,
        4650273554,
        4650273551,
        4650273550
      ],
      "tags": {
        "building": "yes",
        "name": "Mesnica",
        "shop": "butcher"
      }
    },
    {
      "type": "way",
      "id": 501145339,
      "nodes": [
        4920297093,
        4920297094,
        4920297095,
        4920297096,
        4920297093
      ],
      "tags": {
        "building": "yes",
        "name": "Mesnica Erstić",
        "opening_hours": "Mo-Sa 06:00-12:00; Su 06:00-11:30",
        "roof:shape": "gabled",
        "shop": "butcher"
      }
    },
    {
      "type": "way",
      "id": 682223107,
      "nodes": [
        6388815824,
        6388815820,
        6388815825,
        6388815826,
        6388815827,
        6388815823,
        6388815824
      ],
      "tags": {
        "addr:city": "Višnjevac",
        "addr:housenumber": "2",
        "addr:postcode": "31220",
        "addr:street": "Ulica Josipa Jurja Strossmayera",
        "building": "yes",
        "name": "Valvita",
        "shop": "butcher"
      }
    },
    {
      "type": "node",
      "id": 2039801088,
      "lat": 43.0175637,
      "lon": 17.5616972
    },
    {
      "type": "node",
      "id": 2039801090,
      "lat": 43.0176231,
      "lon": 17.5618888
    },
    {
      "type": "node",
      "id": 2039801092,
      "lat": 43.0174873,
      "lon": 17.5619788
    },
    {
      "type": "node",
      "id": 2039801094,
      "lat": 43.0174132,
      "lon": 17.5617923
    },
    {
      "type": "node",
      "id": 1517888557,
      "lat": 44.8684172,
      "lon": 13.8591835
    },
    {
      "type": "node",
      "id": 1517888566,
      "lat": 44.8684464,
      "lon": 13.8590452
    },
    {
      "type": "node",
      "id": 1517888578,
      "lat": 44.8684786,
      "lon": 13.8590587
    },
    {
      "type": "node",
      "id": 1517888581,
      "lat": 44.8684945,
      "lon": 13.8589835
    },
    {
      "type": "node",
      "id": 1517888593,
      "lat": 44.8685443,
      "lon": 13.8590044
    },
    {
      "type": "node",
      "id": 1517888602,
      "lat": 44.8685605,
      "lon": 13.8592438
    },
    {
      "type": "node",
      "id": 1517888605,
      "lat": 44.8685606,
      "lon": 13.8589274
    },
    {
      "type": "node",
      "id": 1517888607,
      "lat": 44.8685682,
      "lon": 13.8592071
    },
    {
      "type": "node",
      "id": 1517888634,
      "lat": 44.8686219,
      "lon": 13.8589532
    },
    {
      "type": "node",
      "id": 4618395821,
      "lat": 44.302052,
      "lon": 15.08344
    },
    {
      "type": "node",
      "id": 4618395822,
      "lat": 44.3021027,
      "lon": 15.0834934
    },
    {
      "type": "node",
      "id": 4618395823,
      "lat": 44.3020489,
      "lon": 15.0835933
    },
    {
      "type": "node",
      "id": 4618395824,
      "lat": 44.3019982,
      "lon": 15.08354
    },
    {
      "type": "node",
      "id": 1296118789,
      "lat": 43.9075117,
      "lon": 15.5083111
    },
    {
      "type": "node",
      "id": 1296118978,
      "lat": 43.9075994,
      "lon": 15.5084448
    },
    {
      "type": "node",
      "id": 1296119022,
      "lat": 43.9076517,
      "lon": 15.5083734
    },
    {
      "type": "node",
      "id": 1296119188,
      "lat": 43.9075743,
      "lon": 15.508247
    },
    {
      "type": "node",
      "id": 503609892,
      "lat": 43.5181908,
      "lon": 16.2491792
    },
    {
      "type": "node",
      "id": 503609893,
      "lat": 43.5181189,
      "lon": 16.2489925
    },
    {
      "type": "node",
      "id": 503609894,
      "lat": 43.5182075,
      "lon": 16.248921
    },
    {
      "type": "node",
      "id": 503609895,
      "lat": 43.5182141,
      "lon": 16.2490017
    },
    {
      "type": "node",
      "id": 503609897,
      "lat": 43.5182893,
      "lon": 16.2489994
    },
    {
      "type": "node",
      "id": 503609898,
      "lat": 43.5182893,
      "lon": 16.2490363
    },
    {
      "type": "node",
      "id": 503609899,
      "lat": 43.518291,
      "lon": 16.2491423
    },
    {
      "type": "node",
      "id": 503609900,
      "lat": 43.5183361,
      "lon": 16.2491377
    },
    {
      "type": "node",
      "id": 503609901,
      "lat": 43.5183361,
      "lon": 16.2491768
    },
    {
      "type": "node",
      "id": 520005032,
      "lat": 43.4929212,
      "lon": 16.2634151
    },
    {
      "type": "node",
      "id": 520005036,
      "lat": 43.4928469,
      "lon": 16.2635326
    },
    {
      "type": "node",
      "id": 520005039,
      "lat": 43.4927569,
      "lon": 16.2634811
    },
    {
      "type": "node",
      "id": 520005043,
      "lat": 43.4928472,
      "lon": 16.2633327
    },
    {
      "type": "node",
      "id": 2629647098,
      "lat": 43.4928148,
      "lon": 16.2635431
    },
    {
      "type": "node",
      "id": 2629647099,
      "lat": 43.4928288,
      "lon": 16.2635159
    },
    {
      "type": "node",
      "id": 3754461967,
      "lat": 44.0703146,
      "lon": 15.2872587
    },
    {
      "type": "node",
      "id": 3754461972,
      "lat": 44.070354,
      "lon": 15.2872146
    },
    {
      "type": "node",
      "id": 3754461974,
      "lat": 44.070362,
      "lon": 15.2873411
    },
    {
      "type": "node",
      "id": 3754461976,
      "lat": 44.0703885,
      "lon": 15.2872749
    },
    {
      "type": "node",
      "id": 3754461977,
      "lat": 44.0704015,
      "lon": 15.287297
    },
    {
      "type": "node",
      "id": 1404695435,
      "lat": 45.1748559,
      "lon": 13.6011893
    },
    {
      "type": "node",
      "id": 1404695438,
      "lat": 45.1748926,
      "lon": 13.6012637
    },
    {
      "type": "node",
      "id": 1404695439,
      "lat": 45.1748942,
      "lon": 13.6011512
    },
    {
      "type": "node",
      "id": 1404695442,
      "lat": 45.1749309,
      "lon": 13.6012256
    },
    {
      "type": "node",
      "id": 4621880740,
      "lat": 45.8167202,
      "lon": 15.8358647
    },
    {
      "type": "node",
      "id": 4621880741,
      "lat": 45.8167235,
      "lon": 15.8359399
    },
    {
      "type": "node",
      "id": 4621880742,
      "lat": 45.8166465,
      "lon": 15.8359389
    },
    {
      "type": "node",
      "id": 4621880743,
      "lat": 45.8166481,
      "lon": 15.8358634
    },
    {
      "type": "node",
      "id": 1810181064,
      "lat": 45.7980397,
      "lon": 16.0069812
    },
    {
      "type": "node",
      "id": 1810181069,
      "lat": 45.7979931,
      "lon": 16.0069852
    },
    {
      "type": "node",
      "id": 1810181072,
      "lat": 45.7980009,
      "lon": 16.0071736
    },
    {
      "type": "node",
      "id": 1810181077,
      "lat": 45.7980475,
      "lon": 16.0071697
    },
    {
      "type": "node",
      "id": 2983694444,
      "lat": 46.2768404,
      "lon": 16.3851216
    },
    {
      "type": "node",
      "id": 2983694445,
      "lat": 46.2767492,
      "lon": 16.3851216
    },
    {
      "type": "node",
      "id": 2983694446,
      "lat": 46.2767503,
      "lon": 16.3849751
    },
    {
      "type": "node",
      "id": 2983694447,
      "lat": 46.2768415,
      "lon": 16.3849718
    },
    {
      "type": "node",
      "id": 3053519164,
      "lat": 46.3781408,
      "lon": 16.3856661
    },
    {
      "type": "node",
      "id": 3053519165,
      "lat": 46.3781575,
      "lon": 16.386334
    },
    {
      "type": "node",
      "id": 3053519166,
      "lat": 46.3781057,
      "lon": 16.3863394
    },
    {
      "type": "node",
      "id": 3053519167,
      "lat": 46.3780964,
      "lon": 16.3866344
    },
    {
      "type": "node",
      "id": 3053519168,
      "lat": 46.3779706,
      "lon": 16.3866371
    },
    {
      "type": "node",
      "id": 3053519169,
      "lat": 46.3779688,
      "lon": 16.3865593
    },
    {
      "type": "node",
      "id": 3053519170,
      "lat": 46.3778744,
      "lon": 16.3865727
    },
    {
      "type": "node",
      "id": 3053519171,
      "lat": 46.3778984,
      "lon": 16.3856581
    },
    {
      "type": "node",
      "id": 4920297093,
      "lat": 43.2937142,
      "lon": 17.021373
    },
    {
      "type": "node",
      "id": 4920297094,
      "lat": 43.2936171,
      "lon": 17.0214424
    },
    {
      "type": "node",
      "id": 4920297095,
      "lat": 43.2936443,
      "lon": 17.0215154
    },
    {
      "type": "node",
      "id": 4920297096,
      "lat": 43.293741,
      "lon": 17.0214427
    },
    {
      "type": "node",
      "id": 4650273550,
      "lat": 45.3317973,
      "lon": 17.6718738
    },
    {
      "type": "node",
      "id": 4650273551,
      "lat": 45.3317416,
      "lon": 17.6718761
    },
    {
      "type": "node",
      "id": 4650273553,
      "lat": 45.3317987,
      "lon": 17.6719793
    },
    {
      "type": "node",
      "id": 4650273554,
      "lat": 45.3317424,
      "lon": 17.6719834
    },
    {
      "type": "node",
      "id": 4290202053,
      "lat": 45.7591289,
      "lon": 18.1649061
    },
    {
      "type": "node",
      "id": 4290202054,
      "lat": 45.7591218,
      "lon": 18.1651411
    },
    {
      "type": "node",
      "id": 4290202055,
      "lat": 45.7591869,
      "lon": 18.1649097
    },
    {
      "type": "node",
      "id": 4290202056,
      "lat": 45.7591836,
      "lon": 18.1650163
    },
    {
      "type": "node",
      "id": 4290202057,
      "lat": 45.7592456,
      "lon": 18.1650202
    },
    {
      "type": "node",
      "id": 4290202058,
      "lat": 45.7592418,
      "lon": 18.1651485
    },
    {
      "type": "node",
      "id": 6388815820,
      "lat": 45.5646108,
      "lon": 18.6196374
    },
    {
      "type": "node",
      "id": 6388815823,
      "lat": 45.564579,
      "lon": 18.6195641
    },
    {
      "type": "node",
      "id": 6388815824,
      "lat": 45.5645687,
      "lon": 18.6196213
    },
    {
      "type": "node",
      "id": 6388815825,
      "lat": 45.5646321,
      "lon": 18.6196452
    },
    {
      "type": "node",
      "id": 6388815826,
      "lat": 45.5646426,
      "lon": 18.6195867
    },
    {
      "type": "node",
      "id": 6388815827,
      "lat": 45.5646032,
      "lon": 18.6195724
    },
    {
      "type": "node",
      "id": 1459259416,
      "lat": 45.5649204,
      "lon": 18.644904
    },
    {
      "type": "node",
      "id": 1459259418,
      "lat": 45.5649236,
      "lon": 18.6446609
    },
    {
      "type": "node",
      "id": 1459259423,
      "lat": 45.564944,
      "lon": 18.6446314
    },
    {
      "type": "node",
      "id": 1459259447,
      "lat": 45.5649835,
      "lon": 18.6449057
    },
    {
      "type": "node",
      "id": 1459259448,
      "lat": 45.5649849,
      "lon": 18.6447977
    },
    {
      "type": "node",
      "id": 1459259509,
      "lat": 45.5650501,
      "lon": 18.6447994
    },
    {
      "type": "node",
      "id": 1459259510,
      "lat": 45.5650509,
      "lon": 18.6447424
    },
    {
      "type": "node",
      "id": 1459259543,
      "lat": 45.5651012,
      "lon": 18.6447437
    },
    {
      "type": "node",
      "id": 1459259544,
      "lat": 45.5651026,
      "lon": 18.6446356
    },
    {
      "type": "node",
      "id": 4042347371,
      "lat": 45.3515768,
      "lon": 19.0014206
    },
    {
      "type": "node",
      "id": 4042347372,
      "lat": 45.3516232,
      "lon": 19.001554
    },
    {
      "type": "node",
      "id": 4042347374,
      "lat": 45.3516765,
      "lon": 19.0013503
    },
    {
      "type": "node",
      "id": 4042347375,
      "lat": 45.3517229,
      "lon": 19.0014837
    }
  ]
}