{"version": 0.6, "generator": "Overpass API 0.7.55.7 8b86ff77", "osm3s": {"timestamp_osm_base": "2019-07-08T15:38:02Z", "timestamp_areas_base": "2019-07-08T15:12:02Z", "copyright": "The data included in this document is from www.openstreetmap.org. The data is made available under ODbL."}, "elements": [{"type": "node", "id": 158694446, "lat": 43.6494878, "lon": -79.4299579, "tags": {"name": "Pav\u00e3o", "shop": "butcher"}}, {"type": "node", "id": 166959604, "lat": 45.3602952, "lon": -73.7408554, "tags": {"created_by": "JOSM", "shop": "butcher"}}, {"type": "node", "id": 280366496, "lat": 48.4377466, "lon": -123.3124115, "tags": {"addr:city": "Oak Bay", "addr:housenumber": "2577", "addr:street": "Cadboro Bay Road", "name": "Slaters Meats", "payment:bitcoin": "yes", "phone": "+1-250-592-0823", "shop": "butcher", "website": "http://slatersmeats.com/"}}, {"type": "node", "id": 283844069, "lat": 45.4533703, "lon": -73.4683728, "tags": {"created_by": "Potlatch 0.10b", "shop": "butcher", "wheelchair": "yes"}}, {"type": "node", "id": 317464033, "lat": 43.4256316, "lon": -80.5449048, "tags": {"name": "M&M Food Market", "shop": "butcher"}}, {"type": "node", "id": 357938391, "lat": 43.7901704, "lon": -79.140435, "tags": {"name": "M&M Food Market", "shop": "butcher"}}, {"type": "node", "id": 384785118, "lat": 43.7573237, "lon": -79.2347414, "tags": {"name": "M&M Food Market", "shop": "butcher"}}, {"type": "node", "id": 386379026, "lat": 43.769788, "lon": -79.3760752, "tags": {"name": "M&M Food Market", "shop": "butcher"}}, {"type": "node", "id": 414966308, "lat": 43.5986917, "lon": -79.6608387, "tags": {"name": "M&M Food Market", "shop": "butcher"}}, {"type": "node", "id": 420260370, "lat": 43.4688443, "lon": -79.7179865, "tags": {"name": "M&M Food Market", "shop": "butcher"}}, {"type": "node", "id": 421328765, "lat": 43.7449946, "lon": -79.3253739, "tags": {"name": "M&M Food Market", "shop": "butcher"}}, {"type": "node", "id": 429371931, "lat": 43.9682769, "lon": -79.2641036, "tags": {"name": "M&M Food Market", "shop": "butcher"}}, {"type": "node", "id": 443151716, "lat": 44.9012093, "lon": -76.2531906, "tags": {"name": "M&M Food Market", "shop": "butcher"}}, {"type": "node", "id": 456028240, "lat": 45.4628587, "lon": -73.5708283, "tags": {"name": "Viandal", "shop": "butcher", "wheelchair": "yes"}}, {"type": "node", "id": 471064326, "lat": 45.5144092, "lon": -73.5735022, "tags": {"name": "Slovenia", "shop": "butcher", "wheelchair": "limited"}}, {"type": "node", "id": 481255004, "lat": 43.4052089, "lon": -80.3291035, "tags": {"name": "The Canadian Honey Ham Company", "shop": "butcher"}}, {"type": "node", "id": 532125417, "lat": 51.1161247, "lon": -114.2055859, "tags": {"name": "M & M Meatshop", "shop": "butcher"}}, {"type": "node", "id": 570125204, "lat": 45.3560436, "lon": -73.7172426, "tags": {"name": "Boucherie D'Anjou", "shop": "butcher"}}, {"type": "node", "id": 583392998, "lat": 43.6656598, "lon": -79.3686771, "tags": {"name": "St James Butcher Shop", "shop": "butcher"}}, {"type": "node", "id": 587605676, "lat": 49.8842629, "lon": -97.1762676, "tags": {"name": "Portage Deli and Meats", "shop": "butcher"}}, {"type": "node", "id": 603173999, "lat": 43.6439434, "lon": -79.7560437, "tags": {"name": "M&M Food Market", "shop": "butcher"}}, {"type": "node", "id": 618404741, "lat": 43.7838966, "lon": -79.2924535, "tags": {"name": "M&M Food Market", "shop": "butcher"}}, {"type": "node", "id": 631149357, "lat": 49.1245354, "lon": -121.9590811, "tags": {"name": "The Docks", "shop": "butcher"}}, {"type": "node", "id": 637893153, "lat": 42.8125416, "lon": -81.8637776, "tags": {"name": "Alvinston Abottoir", "shop": "butcher"}}, {"type": "node", "id": 724833082, "lat": 43.5209259, "lon": -79.8751628, "tags": {"name": "Wally's Meat Terminal", "phone": "+1-905-878-9922", "shop": "butcher"}}, {"type": "node", "id": 736974108, "lat": 43.6436033, "lon": -79.3915235, "tags": {"name": "M&M Midtown", "shop": "butcher"}}, {"type": "node", "id": 774053654, "lat": 42.9894082, "lon": -81.2943421, "tags": {"name": "M M Meats", "shop": "butcher"}}, {"type": "node", "id": 793828058, "lat": 45.4009392, "lon": -75.6870421, "tags": {"addr:housenumber": "869", "addr:street": "Bank Street", "name": "Glebe Meat Market", "shop": "butcher"}}, {"type": "node", "id": 859635111, "lat": 43.6853896, "lon": -79.3149407, "tags": {"name": "Royal Beef", "shop": "butcher"}}, {"type": "node", "id": 891897907, "lat": 43.5802799, "lon": -79.6137289, "tags": {"addr:city": "Mississauga", "addr:country": "CA", "addr:housenumber": "4", "addr:province": "ON", "addr:street": "2560 Shepard Avenue", "name": "Krak\u00f3w Deli", "shop": "butcher"}}, {"type": "node", "id": 924684367, "lat": 48.4316916, "lon": -89.228776, "tags": {"name": "Bay Quality Meats", "shop": "butcher"}}, {"type": "node", "id": 925737291, "lat": 49.2795821, "lon": -123.0979009, "tags": {"addr:housenumber": "253", "addr:street": "Keefer Street", "name": "Sing Chong Food Center", "phone": "+1-604-684-0253", "shop": "butcher"}}, {"type": "node", "id": 955306941, "lat": 49.2721326, "lon": -122.7900056, "tags": {"name": "Millington's Quality Butcher Shop", "shop": "butcher"}}, {"type": "node", "id": 960913396, "lat": 49.2119522, "lon": -122.9205366, "tags": {"name": "National Meats", "phone": "+1-604-522-7558", "shop": "butcher", "source": "gps/photo survey"}}, {"type": "node", "id": 980052670, "lat": 49.2201085, "lon": -122.9285191, "tags": {"name": "Farmtown Meats", "shop": "butcher", "website": "http://www.farmtownmeats.com/"}}, {"type": "node", "id": 1025802521, "lat": 45.5540649, "lon": -73.5396838, "tags": {"addr:city": "Montr\u00e9al", "addr:housename": "March\u00e9 Maisonneuve", "addr:housenumber": "4445", "addr:postcode": "H1V 3V3", "addr:street": "Rue Ontario Est", "name": "Boucherie du March\u00e9 Maisonneuve", "phone": "+1-514-253-7925", "shop": "butcher"}}, {"type": "node", "id": 1089204026, "lat": 45.6044625, "lon": -76.4911885, "tags": {"name": "Pontiac Boucherie et Charcuterie", "shop": "butcher"}}, {"type": "node", "id": 1119706706, "lat": 47.6726153, "lon": -68.8693215, "tags": {"name": "Boucherie-Des-Lacs", "operator": "Boucherie Des Lacs", "shop": "butcher"}}, {"type": "node", "id": 1148331963, "lat": 43.704851, "lon": -79.4080349, "tags": {"name": "The Healthy Butcher", "shop": "butcher"}}, {"type": "node", "id": 1151275004, "lat": 49.272185, "lon": -123.1349823, "tags": {"name": "Tenderland Meats", "shop": "butcher"}}, {"type": "node", "id": 1151289442, "lat": 49.2722465, "lon": -123.1351884, "tags": {"name": "Dussa's Ham & Cheese", "shop": "butcher"}}, {"type": "node", "id": 1159657377, "lat": 49.8181555, "lon": -97.1935093, "tags": {"name": "M&M Meat Shops", "shop": "butcher"}}, {"type": "node", "id": 1160206577, "lat": 49.7908991, "lon": -97.1566659, "tags": {"name": "M&M Meat Shops", "shop": "butcher"}}, {"type": "node", "id": 1344092428, "lat": 44.3259665, "lon": -78.3389828, "tags": {"name": "M&M Food Market", "shop": "butcher"}}, {"type": "node", "id": 1350971225, "lat": 45.6274777, "lon": -73.7509861, "tags": {"name": "Boucherie C\u00f4t\u00e9", "shop": "butcher"}}, {"type": "node", "id": 1350995227, "lat": 43.5196101, "lon": -79.6261787, "tags": {"name": "Doug Auld & Son Butchers", "phone": "+1-905-822-1551", "shop": "butcher"}}, {"type": "node", "id": 1355686046, "lat": 43.715692, "lon": -79.400559, "tags": {"created_by": "iLOE 1.9", "name": "The Butchers", "shop": "butcher"}}, {"type": "node", "id": 1371196689, "lat": 45.5344455, "lon": -73.5733605, "tags": {"addr:housenumber": "1969", "addr:street": "Mont-royal est", "name": "La maison du r\u00f4ti", "shop": "butcher", "website": "http://www.maisonduroti.com", "wheelchair": "yes"}}, {"type": "node", "id": 1373339717, "lat": 49.278622, "lon": -123.0978377, "tags": {"name": "Carley Quality Meat Ltd.", "shop": "butcher"}}, {"type": "node", "id": 1387033874, "lat": 43.706709, "lon": -79.375725, "tags": {"created_by": "iLOE 1.9", "name": "Cumbrae's", "shop": "butcher"}}, {"type": "node", "id": 1391581596, "lat": 50.6981832, "lon": -120.3601269, "tags": {"name": "M&M Meat Shops", "shop": "butcher"}}, {"type": "node", "id": 1398059708, "lat": 45.8246829, "lon": -77.1176067, "tags": {"addr:city": "Pembroke", "addr:housenumber": "214", "addr:postcode": "K8A 5N2", "addr:street": "Pembroke Street West", "name": "Ulrich's Butcher Shop Catering", "phone": "+1-613-735-6025", "shop": "butcher"}}, {"type": "node", "id": 1408011120, "lat": 43.701959, "lon": -79.39714, "tags": {"addr:city": "Toronto", "addr:housenumber": "2055", "addr:street": "Yonge Street", "name": "The Butcher's Son", "phone": "+1-416-901-9414", "shop": "butcher", "website": "http://thebutchersson.ca/"}}, {"type": "node", "id": 1447648387, "lat": 49.4782027, "lon": -119.5825459, "tags": {"name": "Tony's Butcher", "shop": "butcher"}}, {"type": "node", "id": 1460602922, "lat": 45.3906875, "lon": -73.9620034, "tags": {"addr:housenumber": "383", "addr:postcode": "J7V 4X3", "addr:street": "Grand Boulevard", "name": "Mon Boucher", "shop": "butcher"}}, {"type": "node", "id": 1460602932, "lat": 45.3904143, "lon": -73.9623092, "tags": {"name": "Europe D\u00e9li Charcuterie", "shop": "butcher"}}, {"type": "node", "id": 1570283312, "lat": 45.5225019, "lon": -73.5955957, "tags": {"name": "Chez Vito", "shop": "butcher"}}, {"type": "node", "id": 1571355177, "lat": 45.515727, "lon": -73.5754356, "tags": {"addr:housenumber": "20", "addr:postcode": "H2W 2S6", "addr:street": "Rue Roy Est", "name": "Alim-P\u00f4t", "shop": "butcher", "wheelchair": "no"}}, {"type": "node", "id": 1571355182, "lat": 45.5158088, "lon": -73.5764804, "tags": {"addr:housenumber": "3833", "addr:postcode": "H2W 1X9", "addr:street": "Boulevard Saint-Laurent", "name": "Charcuterie Fairmount", "shop": "butcher"}}, {"type": "node", "id": 1571409665, "lat": 45.5158586, "lon": -73.5766118, "tags": {"name": "Charcuterie Hongroise", "shop": "butcher"}}, {"type": "node", "id": 1605482623, "lat": 43.1344772, "lon": -80.7319709, "tags": {"name": "M&M Food Market", "shop": "butcher"}}, {"type": "node", "id": 1606934133, "lat": 43.5385022, "lon": -80.5535439, "tags": {"shop": "butcher"}}, {"type": "node", "id": 1608159289, "lat": 46.8317234, "lon": -71.3491055, "tags": {"name": "Boucherie J.E. Drolet Inc.", "shop": "butcher"}}, {"type": "node", "id": 1614640971, "lat": 50.6660076, "lon": -120.3557145, "tags": {"name": "Summit Gourmet Meats", "shop": "butcher"}}, {"type": "node", "id": 1648657368, "lat": 45.1442727, "lon": -76.1291138, "tags": {"name": "Beckwith Butcher", "shop": "butcher"}}, {"type": "node", "id": 1667622575, "lat": 46.0744029, "lon": -66.0696189, "tags": {"name": "Chappy's Butcher Block", "shop": "butcher"}}, {"type": "node", "id": 1668869769, "lat": 49.8035548, "lon": -97.1576067, "tags": {"addr:housenumber": "2\u00a0\u2013 2425", "addr:street": "Pembina Highway", "name": "Miller's Super Valu Meats", "shop": "butcher", "source": "Bing"}}, {"type": "node", "id": 1674967916, "lat": 45.3987371, "lon": -75.7371876, "tags": {"addr:housenumber": "1333", "addr:street": "Wellington Street West", "name": "Wellington Butchery", "opening_hours": "Mo-Th 09:00-18:00; Fr 09:00-19:00; Sa 08:00-18:00; Su 10:00-18:00", "phone": "+1-613-722-0086", "shop": "butcher", "website": "https://www.saslovesmeat.com/wellington/"}}, {"type": "node", "id": 1682652545, "lat": 43.6268822, "lon": -79.5271981, "tags": {"name": "Pavo Meats & Deli", "phone": "+1-416-251-6193", "shop": "butcher", "website": "http://pavaomeats.com/"}}, {"type": "node", "id": 1684166543, "lat": 43.6504475, "lon": -79.4787683, "tags": {"addr:city": "Toronto", "addr:housenumber": "2283", "addr:street": "Bloor Street West", "name": "Bloor Meat Market", "phone": "+1-416-767-2105", "shop": "butcher", "website": "http://www.bloormeatmarket.com/", "wheelchair": "yes"}}, {"type": "node", "id": 1684683903, "lat": 45.3912805, "lon": -75.7565144, "tags": {"addr:housenumber": "400", "addr:postcode": "K2A 1Y5", "addr:street": "Winston Avenue", "name": "Piggy Market", "opening_hours": "Mo-We 10:00-18:30; Th-Fr 10:00-19:00; Sa 9:00-18:30; Su 11:00-17:00", "shop": "butcher", "website": "https://www.thepiggymarket.com/"}}, {"type": "node", "id": 1704261653, "lat": 49.2185904, "lon": -122.9599781, "tags": {"name": "Al Salam Halal Meat", "shop": "butcher"}}, {"type": "node", "id": 1704261655, "lat": 49.2186972, "lon": -122.960668, "tags": {"name": "Canaan Meat", "shop": "butcher"}}, {"type": "node", "id": 1716772406, "lat": 62.4500707, "lon": -114.4061859, "tags": {"name": "M&M Meats", "shop": "butcher"}}, {"type": "node", "id": 1726227088, "lat": 50.6999915, "lon": -120.3603291, "tags": {"name": "Gary's European Sausage", "shop": "butcher"}}, {"type": "node", "id": 1732492157, "lat": 43.5084826, "lon": -80.2308277, "tags": {"shop": "butcher"}}, {"type": "node", "id": 1740276144, "lat": 46.3223386, "lon": -73.6449112, "tags": {"addr:street": "Rue Arbour", "name": "Salaison St-Georges", "shop": "butcher"}}, {"type": "node", "id": 1761895573, "lat": 53.5577071, "lon": -113.5023953, "tags": {"name": "Baltyk Meat & Deli", "shop": "butcher"}}, {"type": "node", "id": 1818454083, "lat": 43.5571751, "lon": -79.580317, "tags": {"name": "Elmwood Meat Market", "phone": "+1-905-274-3010", "shop": "butcher", "website": "http://www.elmwoodmeatmarket.com/"}}, {"type": "node", "id": 1820387465, "lat": 43.4057166, "lon": -80.5128922, "tags": {"name": "Montenegro Foods", "shop": "butcher"}}, {"type": "node", "id": 1829831687, "lat": 45.52532, "lon": -71.2772464, "tags": {"addr:housenumber": "40", "addr:street": "Victoria", "designation": "Charcuterie", "name": "Charcuterie Scotstown", "shop": "butcher"}}, {"type": "node", "id": 1832198861, "lat": 45.396594, "lon": -71.897851, "tags": {"addr:housename": "March\u00e9 de la Gare", "addr:housenumber": "720", "addr:postcode": "J1H 0E9", "addr:street": "Place de la Gare", "designation": "Boucherie du Terroir", "name": "Boucherie du Terroir", "shop": "butcher", "website": "http://marchedelagare.com"}}, {"type": "node", "id": 1832199805, "lat": 45.3965564, "lon": -71.8980707, "tags": {"addr:housename": "March\u00e9 de la Gare", "addr:housenumber": "720", "addr:postcode": "J1H 0E9", "addr:street": "Place de la Gare", "designation": "William J. Walter M\u00e8re et fils", "name": "William J. Walter M\u00e8re et fils", "shop": "butcher", "website": "http://marchedelagare.com"}}, {"type": "node", "id": 1868697730, "lat": 44.7444223, "lon": -81.1407899, "tags": {"name": "Sullivan's Butcher Shop", "shop": "butcher", "source": "image"}}, {"type": "node", "id": 1883299164, "lat": 43.6135081, "lon": -79.5800204, "tags": {"addr:city": "Mississauga", "addr:country": "CA", "addr:housenumber": "1575", "addr:province": "ON", "addr:street": "Dundas Street East", "name": "Eddie's Meat Market", "shop": "butcher", "website": "https://www.eddiesmarket.ca/"}}, {"type": "node", "id": 1886020850, "lat": 43.6189587, "lon": -79.4997136, "tags": {"addr:housenumber": "392", "addr:street": "Royal York Road", "name": "Royal York Meat Market", "shop": "butcher", "website": "https://www.royalyorkmeatmarket.com/"}}, {"type": "node", "id": 1894639982, "lat": 45.3120347, "lon": -66.0185783, "tags": {"name": "M&M Meat Shops", "shop": "butcher"}}, {"type": "node", "id": 1895675101, "lat": 49.1260706, "lon": -123.182471, "tags": {"name": "D Original Sausage Haus", "shop": "butcher"}}, {"type": "node", "id": 1906187885, "lat": 50.5606521, "lon": -111.8853661, "tags": {"shop": "butcher"}}, {"type": "node", "id": 1907123296, "lat": 43.6004322, "lon": -79.5075053, "tags": {"addr:city": "Toronto", "addr:housenumber": "2992", "addr:street": "Lake Shore Boulevard West", "diet:halal": "yes", "name": "Bani Halal Food", "phone": "+1-416-521-9990", "shop": "butcher", "website": "https://www.banihalalfood.ca/"}}, {"type": "node", "id": 1907765291, "lat": 49.8596583, "lon": -119.4903039, "tags": {"name": "M&M Meat Shops", "shop": "butcher"}}, {"type": "node", "id": 1910775184, "lat": 50.6547383, "lon": -120.3785692, "tags": {"name": "Chop 'n Block Deli", "shop": "butcher"}}, {"type": "node", "id": 1913557910, "lat": 43.7353088, "lon": -79.8240251, "tags": {"name": "M&M Food Market", "shop": "butcher"}}, {"type": "node", "id": 1949610674, "lat": 43.7156768, "lon": -79.4004751, "tags": {"name": "Marlon's Meat & Fish", "shop": "butcher"}}, {"type": "node", "id": 1957230235, "lat": 44.2569179, "lon": -76.5751534, "tags": {"name": "Brother's Quality Meats", "shop": "butcher", "source": "local knowledge"}}, {"type": "node", "id": 1957230237, "lat": 44.25126, "lon": -76.5690221, "tags": {"name": "M&M Food Market", "shop": "butcher", "source": "local knowledge"}}, {"type": "node", "id": 1957360444, "lat": 44.2369521, "lon": -76.5703117, "tags": {"name": "Pig and Olive", "shop": "butcher", "source": "local knowledge"}}, {"type": "node", "id": 1985209982, "lat": 43.4210063, "lon": -80.5029009, "tags": {"name": "M&M Meats", "shop": "butcher"}}, {"type": "node", "id": 1987678349, "lat": 43.3703018, "lon": -80.8300866, "tags": {"name": "The Best Little Pork Shoppe", "shop": "butcher"}}, {"type": "node", "id": 2010927644, "lat": 43.5244359, "lon": -79.6832183, "tags": {"addr:unit": "1", "name": "Massimos Fine Meats", "opening_hours": "mo-sa 09:00-19:00;su 10:00-17:00", "phone": "+1-905-607-0660", "shop": "butcher", "website": "http://www.massimosfinemeats.ca"}}, {"type": "node", "id": 2012588805, "lat": 43.4450606, "lon": -79.6691798, "tags": {"alt_name": "Just an Olde Butchery and Seafood", "name": "Just An Olde Fashion Butchery", "phone": "+1-905-842-2000", "shop": "butcher"}}, {"type": "node", "id": 2018093523, "lat": 46.0870306, "lon": -73.1445317, "tags": {"name": "Boucherie Courchesne", "shop": "butcher"}}, {"type": "node", "id": 2022974408, "lat": 43.4393382, "lon": -79.6753003, "tags": {"name": "Marbled Meats", "shop": "butcher", "website": "marbledoakville.com"}}, {"type": "node", "id": 2039279576, "lat": 43.4481409, "lon": -80.483238, "tags": {"name": "Charles Quality Meats", "shop": "butcher"}}, {"type": "node", "id": 2074047367, "lat": 45.3692645, "lon": -75.7741458, "tags": {"addr:housenumber": "2249", "addr:street": "Carling Avenue", "name": "M&M Food Market", "shop": "butcher", "website": "http://www.mmmeatshops.com/", "wikidata": "Q6711827", "wikipedia": "en:M&M Meat Shops"}}, {"type": "node", "id": 2079833090, "lat": 45.5237327, "lon": -73.6052495, "tags": {"addr:housenumber": "5739", "addr:postcode": "H2V 4H2", "addr:street": "Avenue du Parc", "fax": "+1-514-272-9725", "name": "Boucherie Buymore", "name:fr": "Boucherie Buymore", "phone": "+1-514-272-1828", "shop": "butcher", "source": "survey"}}, {"type": "node", "id": 2088038891, "lat": 45.37681, "lon": -75.6461085, "tags": {"addr:housenumber": "1596", "addr:street": "Walkley Road", "halal": "yes", "name": "Al Amir Grocery & Meat Shop", "shop": "butcher"}}, {"type": "node", "id": 2111368150, "lat": 43.6900666, "lon": -79.3493925, "tags": {"name": "Fresh Choice Butchers", "shop": "butcher"}}, {"type": "node", "id": 2129833006, "lat": 43.6600383, "lon": -79.4795262, "tags": {"addr:city": "Toronto", "addr:housenumber": "515", "addr:street": "Annette Street", "name": "Butcher by Nature", "opening_hours": "Su-Tu closed;We-Fr 10:00-18:00;Sa 09:00-17:00", "phone": "+1-416 241-8187", "shop": "butcher", "website": "http://www.butcherbynature.com/"}}, {"type": "node", "id": 2140822933, "lat": 49.0741897, "lon": -122.5365678, "tags": {"addr:housenumber": "3986", "addr:street": "248th St", "designation": "Butcher", "name": "Bonetti Freezer Meats", "shop": "butcher"}}, {"type": "node", "id": 2140851688, "lat": 49.0962058, "lon": -122.5376949, "tags": {"name": "JD Farms Specialty Turkey", "shop": "butcher"}}, {"type": "node", "id": 2147859874, "lat": 43.9213415, "lon": -80.0903159, "tags": {"name": "M&M Food Market", "shop": "butcher"}}, {"type": "node", "id": 2153426058, "lat": 43.5988385, "lon": -79.5442099, "tags": {"addr:housenumber": "278", "addr:street": "Brown's Line", "name": "Family Meat & Deli", "shop": "butcher"}}, {"type": "node", "id": 2158443536, "lat": 43.5754069, "lon": -79.5608222, "tags": {"addr:city": "Mississauga", "addr:housenumber": "941", "addr:postcode": "L5E 1E3", "addr:street": "Lakeshore Road East", "addr:unit": "A", "name": "Al-Salam Meat Shop", "phone": "+1-905-391-3344", "shop": "butcher"}}, {"type": "node", "id": 2172009075, "lat": 45.4809619, "lon": -73.5786577, "tags": {"addr:city": "Montr\u00e9al", "addr:housenumber": "3035", "addr:street": "Rue Notre-Dame Ouest", "name": "Boucherie Notre-Dame", "shop": "butcher"}}, {"type": "node", "id": 2172810704, "lat": 49.8859877, "lon": -97.1558423, "tags": {"shop": "butcher"}}, {"type": "node", "id": 2179394508, "lat": 43.7045792, "lon": -79.3745199, "tags": {"name": "White House Meats", "phone": "+1-416-488-2004", "shop": "butcher"}}, {"type": "node", "id": 2187192350, "lat": 43.5396206, "lon": -79.6624072, "tags": {"name": "Burton Meats", "shop": "butcher", "website": "www.burtonmeats.com"}}, {"type": "node", "id": 2194541768, "lat": 43.5177083, "lon": -79.8777409, "tags": {"name": "M&M Food Market", "shop": "butcher"}}, {"type": "node", "id": 2213108110, "lat": 46.473583, "lon": -81.0271924, "tags": {"name": "Tarini Brothers", "shop": "butcher"}}, {"type": "node", "id": 2266363337, "lat": 43.4454995, "lon": -80.4792307, "tags": {"amenity": "deli", "name": "Taste of Europe", "shop": "butcher"}}, {"type": "node", "id": 2273048205, "lat": 50.9786015, "lon": -114.0613431, "tags": {"name": "The Better Butcher", "shop": "butcher"}}, {"type": "node", "id": 2273048450, "lat": 50.978615, "lon": -114.0617749, "tags": {"addr:housenumber": "357", "addr:street": "Heritage Dr. SE", "name": "Polcan Meat Products & Delicatessen", "shop": "butcher", "website": "http://www.polishcanadians.ca/biz_EN/polcan_meat_products_delicatessen_EN.html"}}, {"type": "node", "id": 2301969134, "lat": 45.4363643, "lon": -73.6241973, "tags": {"name": "Boucherie Aliments Marchigiani", "shop": "butcher"}}, {"type": "node", "id": 2305545676, "lat": 43.9100193, "lon": -78.7088647, "tags": {"name": "M&M Food Market", "shop": "butcher"}}, {"type": "node", "id": 2310496188, "lat": 49.223834, "lon": -123.065935, "tags": {"addr:housenumber": "6653", "addr:street": "Victoria Drive", "name": "Teemway Seafood Co", "shop": "butcher"}}, {"type": "node", "id": 2328618146, "lat": 49.8546335, "lon": -100.9266424, "tags": {"name": "Butcher Shoppe", "shop": "butcher"}}, {"type": "node", "id": 2329683267, "lat": 45.508115, "lon": -73.559805, "tags": {"addr:city": "Montr\u00e9al", "addr:country": "CA", "addr:housenumber": "1021A", "addr:province": "QC", "addr:street": "Boulevard Saint-Laurent", "name": "Cong Ty Haisan Vinh Loi - Asie De L'est Produits De La Mer Et Viandes", "shop": "butcher", "wheelchair": "no"}}, {"type": "node", "id": 2336530620, "lat": 43.6800674, "lon": -79.3906138, "tags": {"addr:city": "Toronto", "addr:housenumber": "1097", "addr:postcode": "M4W 2L7", "addr:street": "Yonge Street", "name": "Olliffe", "shop": "butcher", "website": "https://www.olliffe.ca/"}}, {"type": "node", "id": 2337754707, "lat": 43.7684014, "lon": -79.3814657, "tags": {"name": "Prime Beef Boutique", "shop": "butcher"}}, {"type": "node", "id": 2351055414, "lat": 46.7773948, "lon": -71.3580411, "tags": {"name": "Boucherie ideale", "shop": "butcher"}}, {"type": "node", "id": 2356785998, "lat": 43.7735289, "lon": -79.4142495, "tags": {"name": "The OWL\u2019s Meat Shop", "phone": "+1-416-228-4646", "shop": "butcher"}}, {"type": "node", "id": 2365100293, "lat": 43.6790799, "lon": -79.5471994, "tags": {"addr:city": "Etobicoke", "addr:housenumber": "250", "addr:postcode": "M9R 2R5", "addr:street": "Wincott Drive", "name": "M&M Food Market", "opening_hours": "Mo-Fr 09:30-20:00; Sa 09:00-19:00; Su 10:00-18:00", "phone": "+1-416-247-9858", "shop": "butcher", "source": "http://www.mmmeatshops.com/en/storelocator/store_maps.asp?StoreID=133", "website": "https://www.mmfoodmarket.com/"}}, {"type": "node", "id": 2368842025, "lat": 48.4019113, "lon": -71.0600082, "tags": {"addr:city": "Chicoutimi", "addr:country": "CA", "addr:housename": "Boucherie Claude Fortier", "addr:housenumber": "390", "addr:postcode": "G7H 5S5", "addr:province": "Qu\u00e9bec", "addr:street": "Rue des Saguen\u00e9ens", "name": "Boucherie Claude Fortier", "opening_hours": "Mo-We 08:00-18:00; Th-Fr 08:00-21:00; Sa 08:00-17:00; Su 08:00-18:00", "shop": "butcher"}}, {"type": "node", "id": 2371128182, "lat": 49.6845088, "lon": -115.9837415, "tags": {"name": "Kimberley Sausage & Meats", "shop": "butcher", "source": "local_knowledge"}}, {"type": "node", "id": 2392908822, "lat": 53.5191582, "lon": -113.4568991, "tags": {"name": "M & M Meat Shop", "shop": "butcher"}}, {"type": "node", "id": 2393339076, "lat": 50.0115414, "lon": -125.2468537, "tags": {"addr:housenumber": "223E", "addr:street": "Dogwood Street", "name": "M & M Meat Shop", "phone": "+1 250 286-4884", "shop": "butcher"}}, {"type": "node", "id": 2395147179, "lat": 46.8866551, "lon": -71.5158815, "tags": {"addr:housename": "Place Shannon", "addr:housenumber": "438", "addr:postcode": "G0A 4N0", "addr:street": "Boulevard Jacques-Cartier", "name": "Boucherie J Cartier", "shop": "butcher", "source": "local Knoledge"}}, {"type": "node", "id": 2405780605, "lat": 43.6512093, "lon": -79.4766504, "tags": {"addr:city": "Toronto", "addr:housenumber": "2330", "addr:street": "Bloor Street West", "name": "Rowe Farms", "shop": "butcher", "website": "http://www.rowefarms.ca/", "wheelchair": "yes"}}, {"type": "node", "id": 2409375296, "lat": 42.960896, "lon": -82.3690402, "tags": {"addr:housename": "Davy Jones", "name": "Davy Jones", "shop": "butcher"}}, {"type": "node", "id": 2416234643, "lat": 43.8696403, "lon": -79.866911, "tags": {"name": "Howard The Butcher", "shop": "butcher"}}, {"type": "node", "id": 2421397672, "lat": 44.5009045, "lon": -80.233586, "tags": {"name": "M&M Food Market", "shop": "butcher"}}, {"type": "node", "id": 2464926637, "lat": 50.7017855, "lon": -119.2829809, "tags": {"name": "Chicken Direct", "shop": "butcher"}}, {"type": "node", "id": 2471217944, "lat": 44.5025542, "lon": -80.2171018, "tags": {"name": "Blue Ridge Meats", "shop": "butcher"}}, {"type": "node", "id": 2498067280, "lat": 46.7553035, "lon": -71.1221569, "tags": {"name": "March\u00e9 Carrier", "shop": "butcher"}}, {"type": "node", "id": 2510769571, "lat": 45.4983437, "lon": -73.6263799, "tags": {"addr:housenumber": "5627A", "addr:street": "Chemin de la C\u00f4te-Des-Neiges", "level": "1", "name": "D\u00e9lices du Maghreb", "shop": "butcher"}}, {"type": "node", "id": 2510839474, "lat": 45.4947434, "lon": -73.6189775, "tags": {"addr:city": "Montr\u00e9al", "addr:housenumber": "5060", "addr:street": "Chemin de la C\u00f4te-Des-Neiges", "contact:facebook": "https://www.facebook.com/Boucherie-Atlantique-257242954327555/", "contact:website": "http://www.boucherieatlantique.ca", "description": "European Meat Market and Grocery Store", "name": "Boucherie Atlantique", "opening_hours": "Mo-We 08:00-18:00; Th,Fr 08:00-19:00; Sa 08:00-17:00", "shop": "butcher"}}, {"type": "node", "id": 2514178484, "lat": 49.8638152, "lon": -97.1113806, "tags": {"addr:city": "Winnipeg", "addr:housenumber": "590", "addr:street": "Saint Mary's Road", "name": "Miller\u2019s Super Valu Meats", "shop": "butcher", "website": "http://millersmeats.com/"}}, {"type": "node", "id": 2527507520, "lat": 43.5841728, "lon": -79.7161598, "tags": {"name": "M&M Meats", "shop": "butcher"}}, {"type": "node", "id": 2542609745, "lat": 49.6916327, "lon": -124.9996905, "tags": {"addr:housenumber": "319", "addr:street": "4th Street", "name": "The Butcher's Block", "phone": "+1-250-338-1412", "shop": "butcher"}}, {"type": "node", "id": 2542611394, "lat": 49.691509, "lon": -125.0000816, "tags": {"addr:housenumber": "347", "addr:street": "4th Street", "name": "Runge's Imports & Delicatessen", "shop": "butcher"}}, {"type": "node", "id": 2585172861, "lat": 43.7121108, "lon": -79.399287, "tags": {"name": "Rowefarms uptown market", "shop": "butcher"}}, {"type": "node", "id": 2633862435, "lat": 43.7047052, "lon": -79.3614473, "tags": {"addr:city": "East York", "addr:housenumber": "62", "addr:street": "Laird Drive", "name": "GrillTime", "shop": "butcher", "website": "https://www.grilltime.ca/"}}, {"type": "node", "id": 2639383725, "lat": 50.6697099, "lon": -120.3629441, "tags": {"name": "Retail Meat Store", "shop": "butcher"}}, {"type": "node", "id": 2667910776, "lat": 45.0666726, "lon": -77.8612392, "tags": {"addr:housenumber": "198", "addr:street": "Hastings Street North", "name": "York River Meats", "shop": "butcher", "source": "survey"}}, {"type": "node", "id": 2687039454, "lat": 43.6900008, "lon": -79.8351815, "tags": {"name": "Meat Bros", "shop": "butcher"}}, {"type": "node", "id": 2699772895, "lat": 45.5501036, "lon": -73.5735787, "tags": {"addr:city": "Montr\u00e9al", "addr:housenumber": "3180", "addr:postcode": "H1Y 1Y1", "addr:street": "Rue Masson", "name": "Boucherie Aux deux gaulois", "phone": "+1 514 725 5550", "shop": "butcher"}}, {"type": "node", "id": 2700754110, "lat": 52.7366918, "lon": -108.3058245, "tags": {"name": "Andre's Meat Shop", "shop": "butcher"}}, {"type": "node", "id": 2702019125, "lat": 43.6781919, "lon": -79.3447706, "tags": {"addr:city": "Toronto", "addr:housenumber": "674", "addr:street": "Pape Avenue", "name": "Ellas Meat Market and Deli", "shop": "butcher"}}, {"type": "node", "id": 2719632961, "lat": 46.7708865, "lon": -71.3199674, "tags": {"name": "So-Cho", "shop": "butcher"}}, {"type": "node", "id": 2725979165, "lat": 43.5137032, "lon": -79.6264039, "tags": {"addr:unit": "4", "name": "M&M Food Market", "opening_hours": "mo-fr 09:00-20:00;sa 09:00-19:00;su 10:00-18:00", "shop": "butcher", "website": "mmmeatshops.com"}}, {"type": "node", "id": 2731610682, "lat": 43.5452755, "lon": -79.7141318, "tags": {"diet:halal": "yes", "name": "Minha Halal Meat", "shop": "butcher"}}, {"type": "node", "id": 2734606384, "lat": 43.4487524, "lon": -80.6246677, "tags": {"name": "Charles Quality Meats", "shop": "butcher"}}, {"type": "node", "id": 2743203012, "lat": 48.2622309, "lon": -79.1294636, "tags": {"name": "Boucherie Donald Gelinas", "shop": "butcher"}}, {"type": "node", "id": 2744858991, "lat": 49.0503323, "lon": -122.3275789, "tags": {"addr:unit": "106", "name": "Clancy's Meats Co.", "opening_hours": "Mo-Sa 10:00-19:00;Su,PH 11:00-18:00", "phone": "+1-604-744-0488", "shop": "butcher", "website": "http://www.clancysmeatco.com/pages/abbotsford"}}, {"type": "node", "id": 2782450926, "lat": 43.6657128, "lon": -79.4816191, "tags": {"addr:city": "Toronto", "addr:housenumber": "3348", "addr:street": "Dundas Street West", "name": "Wholesale Meats", "shop": "butcher", "website": "http://www.venericameats.com/"}}, {"type": "node", "id": 2793452592, "lat": 45.4742392, "lon": -73.6243355, "tags": {"addr:city": "Montr\u00e9al", "addr:housenumber": "5719", "addr:postcode": "H4A 1E7", "addr:street": "Avenue de Monkland", "name": "Le Maitre Boucher", "opening_hours": "Mo-We 8:30-19:00; Th 8:30-20:00; Fr 8:30-21:00; Sa 8:30-17:00; Su 10:00-17:00", "phone": "+1 514 487 1437", "shop": "butcher", "website": "http://www.lemaitreboucher.com/"}}, {"type": "node", "id": 2796619532, "lat": 44.0736067, "lon": -79.4838017, "tags": {"name": "Clancy's Meat Company", "shop": "butcher"}}, {"type": "node", "id": 2803535884, "lat": 45.1308592, "lon": -76.1289463, "tags": {"addr:housenumber": "355", "addr:street": "Franktown Road", "name": "M&M Food Market", "shop": "butcher"}}, {"type": "node", "id": 2895879490, "lat": 49.8290086, "lon": -119.6273254, "tags": {"entrance": "main", "name": "T-Bone's Fresh Meal Market", "shop": "butcher"}}, {"type": "node", "id": 2905105552, "lat": 43.3713554, "lon": -80.9525133, "tags": {"name": "M&M Meats", "shop": "butcher"}}, {"type": "node", "id": 2969553603, "lat": 44.599611, "lon": -79.3199124, "tags": {"name": "Leska's", "opening_hours": "Mo-Sa 09:00-18:00; Su 10:00-17:00; PH closed", "phone": "+1-705-327-1807", "shop": "butcher", "website": "http://www.leskasmeat.com/"}}, {"type": "node", "id": 2981662865, "lat": 49.4744396, "lon": -123.7539677, "tags": {"addr:city": "Sechelt", "addr:street": "Dolphin Street", "name": "Butcher Dave's", "shop": "butcher"}}, {"type": "node", "id": 2987524124, "lat": 47.448328, "lon": -70.5224556, "tags": {"name": "Bouchere de La Baie", "shop": "butcher"}}, {"type": "node", "id": 2990835624, "lat": 45.5083412, "lon": -73.9825736, "tags": {"name": "Boucherie Richard Daigneault", "shop": "butcher"}}, {"type": "node", "id": 2995826179, "lat": 44.1962798, "lon": -80.9823836, "tags": {"name": "Bentinck Packers", "shop": "butcher", "source": "Personal Observation"}}, {"type": "node", "id": 3010438323, "lat": 53.5946481, "lon": -112.3386555, "tags": {"addr:city": "Mundare", "addr:housenumber": "5212", "addr:postcode": "T0B 3H0", "addr:street": "50 Street", "name": "Stawnichy's", "shop": "butcher"}}, {"type": "node", "id": 3011573630, "lat": 53.6367371, "lon": -113.5751574, "tags": {"shop": "butcher"}}, {"type": "node", "id": 3030691054, "lat": 43.762482, "lon": -80.5862832, "tags": {"name": "Your Local Butcher Shop", "shop": "butcher"}}, {"type": "node", "id": 3039930793, "lat": 45.4632926, "lon": -73.5755133, "tags": {"addr:city": "Verdun", "addr:housenumber": "947", "addr:street": "Rue de l'\u00c9glise", "name": "Les viandes Mc Cormack", "opening_hours": "Tu-Fr 12:00-18:00, Sa 09:00-17:00", "shop": "butcher"}}, {"type": "node", "id": 3056708566, "lat": 53.5426173, "lon": -113.2998439, "tags": {"addr:city": "Sherwood Park", "addr:housenumber": "390", "addr:street": "Baseline Road", "name": "Butcher Block & Smoke House", "shop": "butcher"}}, {"type": "node", "id": 3115323704, "lat": 45.4963757, "lon": -73.6203124, "tags": {"addr:city": "Montr\u00e9al", "addr:housenumber": "5216", "addr:postcode": "H3T 1W9", "addr:street": "Avenue Gatineau", "name": "Boucherie De Paris", "phone": "+1 514-731-6615", "shop": "butcher"}}, {"type": "node", "id": 3124398618, "lat": 50.4052002, "lon": -104.6466779, "tags": {"name": "Clancy's Meat Co.", "shop": "butcher"}}, {"type": "node", "id": 3125151761, "lat": 49.1244435, "lon": -123.1812845, "tags": {"addr:city": "Richmond", "addr:housenumber": "190-12251", "addr:postcode": "V7E 1T6", "addr:street": "Number 1 Road", "name": "Heringers Olde Fashioned Quality Meats", "phone": "+1-604-274-6328", "shop": "butcher"}}, {"type": "node", "id": 3133824402, "lat": 46.823923, "lon": -71.2270828, "tags": {"name": "Boucherie Le Croc Mignon", "shop": "butcher"}}, {"type": "node", "id": 3187788080, "lat": 49.3126585, "lon": -123.0573073, "tags": {"addr:city": "North Vancouver City", "addr:housenumber": "703", "addr:province": "BC", "addr:street": "Queensbury Avenue", "name": "British Butcher Shoppe", "shop": "butcher"}}, {"type": "node", "id": 3244885038, "lat": 43.9139731, "lon": -78.9595117, "tags": {"name": "M&M Food Market", "shop": "butcher"}}, {"type": "node", "id": 3250273344, "lat": 46.7830796, "lon": -71.2872963, "tags": {"name": "Boucherie Les halles", "shop": "butcher"}}, {"type": "node", "id": 3268050811, "lat": 45.3219221, "lon": -76.2969497, "tags": {"addr:housenumber": "223", "addr:postcode": "K0A 2X0", "addr:street": "McWatty Road", "name": "Mr Beef", "shop": "butcher", "website": "https://ontariofresh.ca/profile/mr-beef"}}, {"type": "node", "id": 3303286931, "lat": 43.6813819, "lon": -79.8050678, "tags": {"name": "Warraich Meats", "shop": "butcher"}}, {"type": "node", "id": 3308179666, "lat": 43.6486331, "lon": -79.371451, "tags": {"addr:city": "Toronto", "addr:floor": "1", "addr:housenumber": "95", "addr:postcode": "M5E 1C3", "addr:street": "Front Street East", "addr:unit": "16", "name": "Whitehouse Meats", "shop": "butcher"}}, {"type": "node", "id": 3355504213, "lat": 52.3909032, "lon": -104.9815266, "tags": {"shop": "butcher"}}, {"type": "node", "id": 3372320037, "lat": 42.9430446, "lon": -79.8922113, "tags": {"addr:city": "Cayuga", "addr:housenumber": "4643", "addr:province": "Ontario", "addr:street": "Highway 3", "name": "Hanson's Meats", "opening_hours": "Mo-Fr 08:00-17:00; Sa 08:00-15:00", "phone": "+1-905-772-5053", "shop": "butcher"}}, {"type": "node", "id": 3410458848, "lat": 43.4865381, "lon": -79.7150746, "tags": {"name": "Shah Halal Meat Shop", "shop": "butcher"}}, {"type": "node", "id": 3414823698, "lat": 44.3294734, "lon": -79.8903087, "tags": {"name": "M&M Food Market", "shop": "butcher"}}, {"type": "node", "id": 3418253894, "lat": 43.6229001, "lon": -79.5194871, "tags": {"addr:housenumber": "1132", "addr:street": "The Queensway", "name": "West Farm Meat", "phone": "+1-416-252-1768", "shop": "butcher"}}, {"type": "node", "id": 3423549062, "lat": 44.4888538, "lon": -80.0503886, "tags": {"name": "M&M Food Market", "shop": "butcher"}}, {"type": "node", "id": 3426203544, "lat": 43.9825425, "lon": -80.7364403, "tags": {"name": "M&M Food Market", "shop": "butcher"}}, {"type": "node", "id": 3427220186, "lat": 43.7456559, "lon": -79.2958872, "tags": {"butcher": "halal", "name": "Alzahraa Halal Meat", "shop": "butcher"}}, {"type": "node", "id": 3428783204, "lat": 43.9810963, "lon": -80.7348176, "tags": {"name": "Meat The Butcher", "shop": "butcher"}}, {"type": "node", "id": 3435068082, "lat": 43.7128506, "lon": -79.5324774, "tags": {"name": "M&M Food Market", "shop": "butcher"}}, {"type": "node", "id": 3455030546, "lat": 43.5858748, "lon": -79.7191337, "tags": {"addr:housenumber": "49", "addr:street": "Queen Street South", "name": "SL Pastry Meat & Delicatessen", "phone": "+1-905-286-4545", "shop": "butcher"}}, {"type": "node", "id": 3460311000, "lat": 43.6895868, "lon": -79.2899294, "tags": {"name": "M&M Food Market", "shop": "butcher"}}, {"type": "node", "id": 3460913384, "lat": 46.3286141, "lon": -72.5953033, "tags": {"addr:housenumber": "6275", "addr:postcode": "G8Z 4P9", "addr:street": "Rue Corbeil", "name": "Boucherie Nobert", "shop": "butcher", "website": "http://www.boucherienobert.com/"}}, {"type": "node", "id": 3465528887, "lat": 43.6142457, "lon": -79.6109781, "tags": {"name": "Commisso Meat", "phone": "+1-905-273-3390", "shop": "butcher"}}, {"type": "node", "id": 3477852527, "lat": 43.8714297, "lon": -79.2695317, "tags": {"name": "Asian Halal Meat", "shop": "butcher"}}, {"type": "node", "id": 3477852529, "lat": 43.8718396, "lon": -79.269242, "tags": {"name": "Markham Meat & Delicatessen", "shop": "butcher"}}, {"type": "node", "id": 3480661390, "lat": 46.3421319, "lon": -72.5430888, "tags": {"name": "Boucherie Alex Lamy", "shop": "butcher"}}, {"type": "node", "id": 3486775960, "lat": 43.0682758, "lon": -79.9561355, "tags": {"name": "European Edge Meat & Delicatessen", "shop": "butcher"}}, {"type": "node", "id": 3498450310, "lat": 49.0479657, "lon": -122.3393377, "tags": {"addr:unit": "17", "alt_name": "Mr India Restaurant", "amenity": "restaurant", "cuisine": "indian", "name": "Mr India Meats & Restaurant", "opening_hours": "We-Mo 10:00-22:00", "phone": "+1-604-870-4892", "shop": "butcher"}}, {"type": "node", "id": 3518466497, "lat": 49.3375728, "lon": -123.1023568, "tags": {"name": "Edgemont Gourmet Meats", "shop": "butcher"}}, {"type": "node", "id": 3550021375, "lat": 43.8238233, "lon": -79.3248624, "tags": {"name": "D&G Quality Meat Ltd.", "shop": "butcher"}}, {"type": "node", "id": 3555265897, "lat": 52.3738447, "lon": -106.6149711, "tags": {"name": "Pine View Farms", "place": "farm", "shop": "butcher", "website": "https://pineviewfarms.com/"}}, {"type": "node", "id": 3556318736, "lat": 49.0500588, "lon": -122.3350445, "tags": {"addr:housenumber": "2630", "addr:postcode": "V2T 2Y2", "addr:street": "Cedar Park Place", "addr:unit": "1", "alt_name": "Grewal Brothers Meat Shop", "name": "Grewal Indo-Canadian Meat Shop", "opening_hours": "11:00-20:30;Fr-Sa 11:00-21:00", "phone": "+1-604-864-8840", "shop": "butcher"}}, {"type": "node", "id": 3556318743, "lat": 49.049683, "lon": -122.3350586, "tags": {"addr:housenumber": "2606", "addr:postcode": "V2T 3S5", "addr:street": "Cedar Park Place", "addr:unit": "A", "name": "Garcha Bros. Meat Shop", "phone": "+1-604-746-7769", "shop": "butcher"}}, {"type": "node", "id": 3556589421, "lat": 43.4495195, "lon": -79.7601674, "tags": {"name": "M&M Food Market", "shop": "butcher"}}, {"type": "node", "id": 3556973538, "lat": 49.6886331, "lon": -124.9353151, "tags": {"addr:unit": "103", "name": "M&M Meat Shops", "phone": "+1-250-339-1224", "shop": "butcher"}}, {"type": "node", "id": 3573273103, "lat": 45.5656568, "lon": -73.5921125, "tags": {"addr:city": "Montr\u00e9al", "addr:housenumber": "3930", "addr:street": "Rue Jean-Talon Est", "name": "Boucherie Sabra", "phone": "+1-514-727-0936", "shop": "butcher"}}, {"type": "node", "id": 3573342093, "lat": 45.5597984, "lon": -73.5972606, "tags": {"addr:city": "Montr\u00e9al", "addr:housenumber": "3320", "addr:street": "Rue Jean-Talon Est", "name": "Boucherie Halal Magheb", "phone": "+1-514-374-2044", "shop": "butcher"}}, {"type": "node", "id": 3584513313, "lat": 44.0914758, "lon": -79.1333414, "tags": {"name": "M&M Food Market", "shop": "butcher"}}, {"type": "node", "id": 3586925412, "lat": 45.1040047, "lon": -73.7588139, "tags": {"addr:city": "Saint-Chrysostome", "addr:housenumber": "538", "addr:postcode": "J0S 1R0", "addr:street": "Notre-Dame", "name": "Boucherie St-Chrysostome", "phone": "+1-450-826-0396", "shop": "butcher"}}, {"type": "node", "id": 3607367773, "lat": 45.4453605, "lon": -75.7321862, "tags": {"addr:city": "Gatineau", "addr:country": "CA", "addr:housenumber": "460", "addr:source": "Gatineau.ca/donneesouvertes 08Aug2015", "addr:street": "Boulevard Saint-Joseph", "name": "M&M Food Market", "name:fr": "Les Aliments M&M", "shop": "butcher"}}, {"type": "node", "id": 3622726927, "lat": 46.3047639, "lon": -74.2006409, "tags": {"addr:city": "Saint-Donat", "addr:housenumber": "1193", "addr:postcode": "J0T 2C0", "addr:street": "Rue Principale", "name": "Maison des Fermiers", "shop": "butcher"}}, {"type": "node", "id": 3646911682, "lat": 45.3432306, "lon": -80.0095109, "tags": {"name": "M&M Food Market", "shop": "butcher"}}, {"type": "node", "id": 3652733276, "lat": 44.2526419, "lon": -76.4611625, "tags": {"name": "Barriefield Meat Market", "shop": "butcher"}}, {"type": "node", "id": 3655903571, "lat": 44.260106, "lon": -76.5825181, "tags": {"name": "Bob's Butcher Shop", "shop": "butcher"}}, {"type": "node", "id": 3671035233, "lat": 43.2635797, "lon": -79.8633364, "tags": {"name": "Butcher and the Vegan", "shop": "butcher"}}, {"type": "node", "id": 3671101574, "lat": 45.0771288, "lon": -64.3174475, "tags": {"name": "Reid's Meats", "shop": "butcher"}}, {"type": "node", "id": 3672920928, "lat": 49.0466922, "lon": -122.337381, "tags": {"addr:unit": "104", "name": "Desi Meat\u00a0&\u00a0Masala\u00a0Chicken Shop", "shop": "butcher"}}, {"type": "node", "id": 3686183037, "lat": 52.8293292, "lon": -110.8464643, "tags": {"shop": "butcher"}}, {"type": "node", "id": 3690123632, "lat": 45.3947462, "lon": -75.8449051, "tags": {"addr:city": "Gatineau", "addr:housenumber": "104", "addr:postcode": "J9H 3M1", "addr:source": "Gatineau.ca/donneesouvertes 08Aug2015", "addr:street": "Rue Principale", "name": "William J. Walter", "shop": "butcher"}}, {"type": "node", "id": 3690591711, "lat": 45.425059, "lon": -75.7336966, "tags": {"addr:city": "Gatineau", "addr:country": "CA", "addr:housenumber": "25", "addr:postcode": "J8Y 3V7", "addr:source": "Gatineau.ca/donneesouvertes 08Aug2015", "addr:street": "Boulevard Saint-Joseph", "name": "Epicerie Atlas", "shop": "butcher"}}, {"type": "node", "id": 3690767384, "lat": 45.4848522, "lon": -75.6313608, "tags": {"addr:city": "Gatineau", "addr:country": "CA", "addr:housenumber": "555", "addr:postcode": "J8P 1E9", "addr:source": "Gatineau.ca/donneesouvertes 08Aug2015", "addr:street": "Boulevard Maloney Est", "name": "Boucherie Les Peches Mignons", "shop": "butcher"}}, {"type": "node", "id": 3692363212, "lat": 49.5251633, "lon": -115.7544883, "tags": {"name": "Rick's Fine Meats", "shop": "butcher"}}, {"type": "node", "id": 3722081275, "lat": 50.3178416, "lon": -122.7984601, "tags": {"addr:city": "Pemberton", "addr:housenumber": "7330", "addr:postcode": "V0N 2L1", "addr:street": "Arbutus", "addr:unit": "109", "designation": "Meat Retail", "name": "Pemberton Meadows Natural Beef", "shop": "butcher", "source": "user", "website": "http://www.mileoneeatinghouse.com/media/11689/150105_meatcheese_orderform.pdf"}}, {"type": "node", "id": 3730989659, "lat": 47.3697741, "lon": -70.0356325, "tags": {"addr:city": "La Pocati\u00e8re", "addr:housenumber": "703", "addr:postcode": "G0R 1Z0", "addr:street": "Avenue Painchaud", "name": "Boucherie Charcuterie Rossignol Inc", "phone": "+1-418-856-1163", "shop": "butcher", "website": "http://boucherierossignol.wix.com/boucherierossignol"}}, {"type": "node", "id": 3746073204, "lat": 43.6030527, "lon": -79.7068963, "tags": {"name": "Pak Halal Meat", "shop": "butcher"}}, {"type": "node", "id": 3746884628, "lat": 49.0497508, "lon": -122.2598039, "tags": {"addr:unit": "110", "name": "M&M Food Market", "name:fr": "Les aliments M&M", "old_name": "M&M Meat Shops", "opening_hours": "Mo-Fr 09:30-19:00;Sa 09:00-19:00;Su 10:00-18:00", "phone": "+1-604-852-6615", "shop": "butcher", "shop:frozen_food": "yes", "website": "https://www.mmfoodmarket.com/en/stores/424"}}, {"type": "node", "id": 3749496726, "lat": 43.6075568, "lon": -79.617125, "tags": {"name": "Royal Meat", "phone": "+1-905-279-3261", "shop": "butcher"}}, {"type": "node", "id": 3762637911, "lat": 43.5679269, "lon": -79.8424122, "tags": {"addr:city": "Hornby", "addr:housenumber": "12951", "addr:street": "Steeles Avenue", "alt_name": "Livno Meats", "name": "Livno Meat & Deli", "phone": "+1-905-876-2832", "shop": "butcher", "website": "http://www.livnomeats.com/"}}, {"type": "node", "id": 3765699415, "lat": 44.3342236, "lon": -76.154778, "tags": {"name": "M&M Food Market", "shop": "butcher"}}, {"type": "node", "id": 3769531983, "lat": 43.65484, "lon": -79.4007781, "tags": {"name": "Sanagan's Meat Locker", "shop": "butcher"}}, {"type": "node", "id": 3789085638, "lat": 43.6810919, "lon": -79.4294882, "tags": {"addr:city": "Toronto", "addr:housenumber": "786", "addr:postcode": "M6C 1B6", "addr:street": "St. Clair Avenue West", "name": "Roast Fine Foods", "opening_hours": "Mo-Tu 10:00-19:00; We-Fr 09:00-19:00; Sa 09:00-18:00; Su 10:00-18:00", "operator": "ben@roastfinefoods.com", "shop": "butcher", "website": "http://www.roastfinefoods.com/"}}, {"type": "node", "id": 3789830557, "lat": 44.661822, "lon": -63.5988102, "tags": {"name": "Butcher", "shop": "butcher", "toilets:wheelchair": "no", "wheelchair": "yes", "wheelchair:description": "Store is very small, little room for a wheelchair"}}, {"type": "node", "id": 3792024257, "lat": 49.0543173, "lon": -122.3582155, "tags": {"addr:unit": "13", "level": "0", "name": "Garcha Bros Meat Shop & Poultry", "opening_hours": "10:00-20:00", "phone": "+1-604-825-4064", "shop": "butcher", "website": "https://www.garchameatshop.com/"}}, {"type": "node", "id": 3793413574, "lat": 44.6406655, "lon": -63.5662544, "tags": {"name": "Gateway Farm & Butcher Shop", "shop": "butcher", "toilets:wheelchair": "yes", "wheelchair": "yes", "wheelchair:description": "Low counters, wide aisles, nearest bathroom in the building is wheelchair accessible."}}, {"type": "node", "id": 3811078864, "lat": 45.626349, "lon": -76.8772, "tags": {"addr:housenumber": "10", "addr:street": "Pembroke Street", "name": "Lake View Deli and Meatery", "shop": "butcher"}}, {"type": "node", "id": 3813350819, "lat": 43.9035253, "lon": -80.1268391, "tags": {"addr:unit": "4", "contact:facebook": "https://www.facebook.com/Daves-Butcher-Shop-115543065165703/", "name": "Dave's Butcher Shop", "phone": "+1-519-415-6328", "shop": "butcher", "website": "https://www.davesbutchershop.ca/"}}, {"type": "node", "id": 3818079911, "lat": 43.6241774, "lon": -79.5667879, "tags": {"alt_name": "The Meat Store", "name": "Halenda's", "phone": "+1-905-671-6464", "shop": "butcher", "website": "https://halendas.com/"}}, {"type": "node", "id": 3830034975, "lat": 44.1865491, "lon": -77.4013777, "tags": {"name": "M&M Food Market", "shop": "butcher"}}, {"type": "node", "id": 3899072785, "lat": 45.4281857, "lon": -75.653027, "tags": {"addr:housenumber": "351", "addr:street": "Donald Street", "name": "Dumouchel Meat & Deli", "shop": "butcher", "website": "http://www.dumouchelmeat.com/"}}, {"type": "node", "id": 3903719596, "lat": 45.2554405, "lon": -74.1278604, "tags": {"name": "Boucherie Mario", "shop": "butcher"}}, {"type": "node", "id": 3903897401, "lat": 43.5933791, "lon": -79.5913718, "tags": {"name": "Kingsway Meat", "phone": "+1-905-275-3222", "shop": "butcher", "website": "http://www.kingswaymeats.com/"}}, {"type": "node", "id": 3908771062, "lat": 49.2400568, "lon": -123.0538099, "tags": {"addr:city": "Vancouver", "addr:housenumber": "2519", "addr:postcode": "V5R 5H3", "addr:street": "Kingsway", "name": "Beefway Meats", "phone": "+1-604-438-1190", "shop": "butcher"}}, {"type": "node", "id": 3910048933, "lat": 43.7840765, "lon": -79.6597372, "tags": {"name": "Nath Meat", "phone": "+1-905-794-1178", "shop": "butcher"}}, {"type": "node", "id": 3913734191, "lat": 42.9592514, "lon": -81.3330549, "tags": {"addr:city": "London", "addr:housenumber": "305", "addr:postcode": "N6K 2K1", "addr:street": "Boler Road", "name": "M&M Food Market", "shop": "butcher"}}, {"type": "node", "id": 3922982117, "lat": 44.2404631, "lon": -76.5246557, "tags": {"name": "M&M Food Market", "shop": "butcher"}}, {"type": "node", "id": 3932550880, "lat": 43.5988737, "lon": -79.6611324, "tags": {"diet:halal": "yes", "name": "Paramount Butcher Shop", "phone": "+1-905-890-1700", "shop": "butcher", "website": "http://www.paramountbutchershop.com/"}}, {"type": "node", "id": 3937919233, "lat": 49.1865042, "lon": -99.6706376, "tags": {"name": "Killarney Meats", "shop": "butcher"}}, {"type": "node", "id": 3956980924, "lat": 43.5543324, "lon": -79.6455253, "tags": {"diet:halal": "yes", "name": "House of Zabeeha", "shop": "butcher"}}, {"type": "node", "id": 3976482951, "lat": 43.5835186, "lon": -79.7786895, "tags": {"name": "M&M Food Market", "shop": "butcher"}}, {"type": "node", "id": 3992893441, "lat": 49.2680982, "lon": -123.1581353, "tags": {"addr:housenumber": "2326", "addr:street": "West 4th Avenue", "name": "Market Meats", "shop": "butcher"}}, {"type": "node", "id": 4006780642, "lat": 43.6428001, "lon": -79.7468532, "tags": {"name": "A-1 Meat & Poultry", "shop": "butcher"}}, {"type": "node", "id": 4011412243, "lat": 43.638048, "lon": -79.7285313, "tags": {"contact:facebook": "https://www.facebook.com/Noor-Halal-Meat-1615716821999874/", "diet:halal": "yes", "name": "Noor Halal Meat & Grocers", "phone": "+1-905-670-2111", "shop": "butcher"}}, {"type": "node", "id": 4037770436, "lat": 49.2623503, "lon": -123.0895136, "tags": {"addr:city": "Vancouver", "addr:housenumber": "666", "addr:postcode": "V5T 1X6", "addr:province": "BC", "addr:street": "East Broadway", "name": "Harkness and Co. Butchers", "phone": "+1-604-558-3807", "shop": "butcher"}}, {"type": "node", "id": 4062554948, "lat": 49.2715123, "lon": -122.7571198, "tags": {"addr:city": "Port Coquitlam", "addr:housenumber": "3233", "addr:postcode": "V3B 3N3", "addr:province": "BC", "addr:street": "Coast Meridian Road", "name": "Millenium Meats", "shop": "butcher"}}, {"type": "node", "id": 4139516289, "lat": 48.5608579, "lon": -71.6441159, "tags": {"name": "PMA", "shop": "butcher"}}, {"type": "node", "id": 4173240092, "lat": 43.1597413, "lon": -80.2666722, "tags": {"internet_access": "wlan", "name": "The Sausage Place", "shop": "butcher"}}, {"type": "node", "id": 4173334632, "lat": 45.2451257, "lon": -74.120879, "tags": {"name": "Boucherie Jacques-Cartier", "shop": "butcher"}}, {"type": "node", "id": 4214504931, "lat": 49.8271358, "lon": -97.1063408, "tags": {"name": "Marcello\u2019s Meats", "shop": "butcher", "website": "http://www.marcellosmeats.com/"}}, {"type": "node", "id": 4217358072, "lat": 43.9193226, "lon": -78.5827039, "tags": {"name": "Clark Meats", "shop": "butcher"}}, {"type": "node", "id": 4253817276, "lat": 42.8860627, "lon": -79.2530612, "tags": {"name": "Mayzzz...Meats", "phone": "+1-905-835-9138", "shop": "butcher"}}, {"type": "node", "id": 4270906286, "lat": 45.3440101, "lon": -80.0302082, "tags": {"contact:facebook": "https://www.facebook.com/Orrs-Fine-Meats-and-Deli-226272304079909/", "name": "Orr's Fine Meats & Deli", "shop": "butcher"}}, {"type": "node", "id": 4277492303, "lat": 43.6551211, "lon": -79.4159131, "tags": {"addr:city": "Toronto", "addr:housenumber": "644", "addr:postcode": "M6G 1B8", "addr:street": "College Street", "name": "Grace Meat Market", "phone": "+1-416-534-7776", "shop": "butcher", "toilets:wheelchair": "no", "wheelchair": "no"}}, {"type": "node", "id": 4298525603, "lat": 52.0965035, "lon": -106.6555104, "tags": {"addr:city": "Saskatoon", "addr:housenumber": "1-2605", "addr:street": "Broadway Avenue", "name": "The Beecher Meat Shop", "phone": "+1-306-952-1391", "shop": "butcher", "website": "http://www.beechermeat.ca"}}, {"type": "node", "id": 4307885607, "lat": 45.4892262, "lon": -73.5677248, "tags": {"addr:city": "Montr\u00e9al", "addr:housenumber": "1654", "addr:postcode": "H3J 1M1", "addr:province": "QC", "addr:street": "Rue Notre-Dame Ouest", "name": "Boucherie Grinder", "shop": "butcher"}}, {"type": "node", "id": 4343189708, "lat": 46.8131636, "lon": -71.2274745, "tags": {"addr:city": "Qu\u00e9bec", "addr:housenumber": "241", "addr:province": "QC", "addr:street": "Rue Saint-Joseph Est", "name": "Boucherie EUMATIMI", "opening_hours": "Tu-We 10:00-18:00; Th-Fr 10:00-19:00; Sa 10:00-17:00; Su 11:00-17:00", "shop": "butcher"}}, {"type": "node", "id": 4350365289, "lat": 45.6065807, "lon": -73.8346497, "tags": {"name": "Boucherie c\u00f4t\u00e9 Boisbriand", "shop": "butcher"}}, {"type": "node", "id": 4352737692, "lat": 43.6489266, "lon": -79.9255464, "tags": {"name": "McMaster's Meats & Deli", "shop": "butcher"}}, {"type": "node", "id": 4359000089, "lat": 45.5371508, "lon": -73.6153928, "tags": {"name": "Boucherie Al-Khair", "shop": "butcher"}}, {"type": "node", "id": 4362941943, "lat": 45.5428439, "lon": -73.6294826, "tags": {"addr:city": "Montreal", "addr:housenumber": "8113", "addr:street": "Ste-Denis", "name": "Pascal le Boucher", "shop": "butcher", "website": "http://www.pascalleboucher.com/"}}, {"type": "node", "id": 4364803014, "lat": 42.9039269, "lon": -81.4455104, "tags": {"name": "Mount Brydges Abattoir", "name:en": "Mount Brydges Abattoir", "shop": "butcher"}}, {"type": "node", "id": 4373039275, "lat": 43.6730034, "lon": -79.2864846, "tags": {"addr:housenumber": "2256", "addr:street": "Queen Street East", "name": "The Chopping Block", "shop": "butcher"}}, {"type": "node", "id": 4401301717, "lat": 43.7072324, "lon": -79.6474033, "tags": {"name": "Moga Meat", "shop": "butcher"}}, {"type": "node", "id": 4405978328, "lat": 43.5841495, "lon": -79.6530897, "tags": {"diet:halal": "yes", "name": "Chop Shop", "shop": "butcher"}}, {"type": "node", "id": 4410525474, "lat": 43.6051553, "lon": -79.663158, "tags": {"diet:halal": "yes", "name": "Thamer & Laith Meat Shop", "shop": "butcher"}}, {"type": "node", "id": 4423693055, "lat": 43.8695564, "lon": -79.7218853, "tags": {"name": "M&M Food Market", "shop": "butcher"}}, {"type": "node", "id": 4428959076, "lat": 45.8977906, "lon": -73.651669, "tags": {"addr:city": "Saint-Esprit", "addr:housenumber": "36", "addr:street": "Rang de la Rivi\u00e8re Sud", "name": "Volailles D'Ang\u00e8le inc. (Les)", "shop": "butcher"}}, {"type": "node", "id": 4448636489, "lat": 50.6279489, "lon": -113.8797641, "tags": {"name": "Cargil Foods", "name:en": "Cargil Foods", "shop": "butcher"}}, {"type": "node", "id": 4451144360, "lat": 49.273046, "lon": -123.0562606, "tags": {"addr:city": "Vancouver", "addr:housenumber": "1310", "addr:postcode": "V5L 4T6", "addr:province": "British Columbia", "addr:street": "Nanaimo Street", "email": "colmeat@telus.net", "name": "Columbus Meat Market", "opening_hours": "Mo-Fr 08:00-17:30; Sa 08:00-17:00; Su Off; PH Off", "phone": "+1-604-253-2242", "shop": "butcher", "website": "https://www.columbusmeatmarket.com"}}, {"type": "node", "id": 4456757734, "lat": 45.4273582, "lon": -75.6926911, "tags": {"addr:housenumber": "50", "addr:postcode": "K1N 7A2", "addr:street": "By Ward Market Square", "name": "Saslove's Meat Market", "shop": "butcher", "website": "https://www.saslovesmeat.com/"}}, {"type": "node", "id": 4465655244, "lat": 44.1759435, "lon": -81.6151032, "tags": {"name": "M&M Food Market", "shop": "butcher"}}, {"type": "node", "id": 4465705617, "lat": 45.5445612, "lon": -73.6354916, "tags": {"addr:city": "Montreal", "addr:housenumber": "8501", "addr:postcode": "H2P 2H4", "addr:street": "St-Denis", "name": "Aux Deux Gaulois", "old_name": "Salaison Drouin", "shop": "butcher"}}, {"type": "node", "id": 4485631099, "lat": 45.5326833, "lon": -73.565611, "tags": {"addr:city": "Montr\u00e9al", "addr:housenumber": "4066", "addr:postcode": "H2K 3V8", "addr:province": "Qu\u00e9bec", "addr:street": "Avenue des \u00c9rables", "name": "Boucherie Des \u00c9rables", "shop": "butcher"}}, {"type": "node", "id": 4487964158, "lat": 43.7472833, "lon": -79.3851659, "tags": {"addr:housenumber": "303", "addr:postcode": "M2L 1L3", "addr:street": "York Mills Road", "name": "Nortown", "name:en": "Nortown Foods", "phone": "+1-416-447-0310", "shop": "butcher"}}, {"type": "node", "id": 4496956090, "lat": 43.5986474, "lon": -81.0144201, "tags": {"addr:housenumber": "6515", "addr:postcode": "N0K 1P0", "addr:street": "154 Road", "name": "Wilderness Ranch", "name:en": "Wilderness Ranch", "opening_hours": "Mo-Sa 09:00-19:00", "phone": "+1-519-504-5102", "shop": "butcher", "website": "http://greassfedmeatsontario.com"}}, {"type": "node", "id": 4497207589, "lat": 43.6238443, "lon": -79.5409003, "tags": {"addr:housenumber": "121", "addr:postcode": "M8Z 5K7", "addr:street": "Shorncliffe Road", "name": "The Butcher Shoppe", "name:en": "The Butcher Shoppe", "note": "retail factory store", "opening_hours": "Mo-Fr 06:30-16:30", "phone": "+1-416-234-2290", "shop": "butcher", "website": "http://butchershoppe.com"}}, {"type": "node", "id": 4498730389, "lat": 43.1406139, "lon": -80.3306847, "tags": {"addr:housenumber": "101", "addr:postcode": "N3T 5L7", "addr:street": "Robinson Road", "name": "Devon Acres Organic Farms", "name:en": "Devon Acres Organic Farms", "phone": "+1-519-752-3980", "shop": "butcher", "website": "https://devonacres.wordpress.com/"}}, {"type": "node", "id": 4498844189, "lat": 42.8025179, "lon": -80.6862205, "tags": {"addr:housenumber": "460", "addr:postcode": "N4G 4G9", "addr:street": "Concession 1 Road", "name": "YU Ranch", "name:en": "YU Ranch", "phone": "+1-519-842-2597", "shop": "butcher", "website": "http://yuranch.com"}}, {"type": "node", "id": 4499886392, "lat": 43.2918733, "lon": -80.0049623, "tags": {"addr:housenumber": "801", "addr:postcode": "L9H 5E2", "addr:street": "Collinson Road", "name": "Morden's Organic Farm Store", "name:en": "Morden's Organic Farm Store", "shop": "butcher"}}, {"type": "node", "id": 4530578499, "lat": 49.8812925, "lon": -97.1231863, "tags": {"addr:city": "Winnipeg", "addr:housenumber": "101 \u2013 300", "addr:postcode": "R2H 2A2", "addr:street": "Avenue Tach\u00e9 Avenue", "amenity": "restaurant", "contact:phone": "+1-204-237-1530", "contact:twitter": "boucheeboucher", "contact:website": "http://www.boucheeboucher.ca/", "name": "Bouch\u00e9e Boucher", "opening_hours": "Mo-Th 11:00-22:00 \"restaurant\", Fr-Sa 11:00-23:00 \"restaurant\", Su 10:00-14:00 \"restaurant\" || Mo-Fr 06:30-20:00 \"butcher\", Sa 09:00-21:00 \"butcher\", Su 10:00-14:00 \"butcher\"", "shop": "butcher"}}, {"type": "node", "id": 4554486548, "lat": 42.588268, "lon": -82.3857805, "tags": {"name": "Dresden Meat& Deli", "shop": "butcher"}}, {"type": "node", "id": 4554495407, "lat": 42.6011116, "lon": -82.1852077, "tags": {"name": "DRESDEN MEAT PACKERS", "shop": "butcher"}}, {"type": "node", "id": 4554698912, "lat": 43.6667521, "lon": -79.5786014, "tags": {"name": "Mrakovic Meat & Deli", "shop": "butcher", "website": "http://www.mrakovic.com/"}}, {"type": "node", "id": 4565218501, "lat": 45.0429934, "lon": -72.8260449, "tags": {"name": "La Girondine", "shop": "butcher"}}, {"type": "node", "id": 4569092771, "lat": 45.5789762, "lon": -73.6445192, "tags": {"name": "Boucherie Corona", "shop": "butcher"}}, {"type": "node", "id": 4576708790, "lat": 49.3373239, "lon": -123.0390422, "tags": {"addr:housenumber": "1264", "addr:postcode": "V7J 2A3", "addr:street": "Lynn Valley Road", "email": "lynnvalleymeats@gmail.com", "name": "Lynn Valley Meats Market", "name:en": "Lynn Valley Meats Market", "opening_hours": "Mo-Fr 09:00-19:00; Sa 10:00-18:00", "phone": "+1-604-985-5969", "shop": "butcher", "website": "http://www.lynnvalleymeats.ca/"}}, {"type": "node", "id": 4581779702, "lat": 45.5350572, "lon": -73.6149313, "tags": {"addr:housenumber": "158", "addr:street": "Place du March\u00e9-du-Nord", "name": "Boucherie Capitol", "name:fr": "Boucherie Capitol", "opening_hours": "Su-We 08:00-18:00; Th-Fr 08:00-21:00; Sa 07:30-18:00", "shop": "butcher"}}, {"type": "node", "id": 4585953544, "lat": 51.0022868, "lon": -118.1997619, "tags": {"name": "Ray's Butcher Shop", "shop": "butcher"}}, {"type": "node", "id": 4592674490, "lat": 45.5011331, "lon": -73.6268988, "tags": {"addr:housenumber": "5774", "addr:postcode": "H3S 2C6", "addr:street": "Avenue Decelles", "name": "Boucherie de Paris,", "name:fr": "Boucherie de Paris,", "shop": "butcher"}}, {"type": "node", "id": 4632600051, "lat": 44.1080935, "lon": -79.5907766, "tags": {"addr:city": "Bradford", "addr:housenumber": "478", "addr:postcode": "L3Z 0A2", "addr:province": "Ontario", "addr:street": "Holland Street West", "description": "Specialty frozen foods", "name": "m&m's", "shop": "butcher"}}, {"type": "node", "id": 4634694453, "lat": 53.2274814, "lon": -114.9776004, "tags": {"shop": "butcher"}}, {"type": "node", "id": 4641034962, "lat": 43.8092111, "lon": -79.1284212, "tags": {"name": "Bruno's Signature Meats", "shop": "butcher"}}, {"type": "node", "id": 4650710346, "lat": 43.7401383, "lon": -79.7594572, "tags": {"addr:city": "Brampton", "addr:housenumber": "630", "addr:postcode": "L6R 1T4", "addr:street": "Peter Robertson Boulevard", "name": "Warraich Meats", "opening_hours": "Mo-Su 10:00-22:00", "phone": "+1-905-799-0177", "shop": "butcher", "website": "http://warraichmeats.com/"}}, {"type": "node", "id": 4686136519, "lat": 52.2691752, "lon": -113.8130666, "tags": {"name": "Midtown Meats", "shop": "butcher"}}, {"type": "node", "id": 4698349895, "lat": 49.2605936, "lon": -122.8893366, "tags": {"name": "Lucky Meats", "name:en": "Lucky Meats", "opening_hours": "Mo-Th, Sa 10:00-18:30; Fr 10:00-19:00; Su 11:00-18:00", "shop": "butcher"}}, {"type": "node", "id": 4740609406, "lat": 51.1016811, "lon": -114.1395342, "tags": {"addr:city": "Calgary", "addr:housenumber": "3616", "addr:postcode": "T2L 1V9", "addr:street": "52 Avenue NW", "addr:unit": "#33", "name": "Goginara Meat Shop", "phone": "+1-403-282-8033", "shop": "butcher"}}, {"type": "node", "id": 4758741680, "lat": 43.7377288, "lon": -79.2172343, "tags": {"name": "The Butcher Shop", "shop": "butcher"}}, {"type": "node", "id": 4797885127, "lat": 45.4503806, "lon": -75.5189109, "tags": {"addr:housenumber": "3681", "addr:street": "Innes Road", "name": "Georges Meatshop", "shop": "butcher"}}, {"type": "node", "id": 4806002720, "lat": 45.3524596, "lon": -75.6466475, "tags": {"addr:housenumber": "2446", "addr:street": "Bank Street", "level": "0", "name": "M&M Food Market", "shop": "butcher"}}, {"type": "node", "id": 4816373325, "lat": 45.4040017, "lon": -75.7246381, "tags": {"addr:housenumber": "1059", "addr:street": "Wellington Street West", "name": "Hintonburg Market", "opening_hours": "Mo-Fr 08:00-20:00; Sa-Su 09:00-19:00", "shop": "butcher"}}, {"type": "node", "id": 4818159671, "lat": 43.6621784, "lon": -79.4241485, "tags": {"addr:city": "Toronto", "addr:housenumber": "857", "addr:street": "Bloor Street West", "name": "Vince Gasparro's Meat Market", "phone": "+1-416-534-7122", "shop": "butcher", "website": "https://www.mybutcher.ca/"}}, {"type": "node", "id": 4824053821, "lat": 49.2468231, "lon": -123.0899693, "tags": {"addr:housenumber": "4286", "addr:street": "Fraser Street", "name": "Polonia Sausage House", "shop": "butcher"}}, {"type": "node", "id": 4826449562, "lat": 49.6331431, "lon": -124.9233923, "tags": {"addr:housenumber": "4285", "addr:street": "South Island Highway", "name": "Fat Moose", "phone": "+1-250-334-1924", "shop": "butcher"}}, {"type": "node", "id": 4833500221, "lat": 45.1546756, "lon": -63.3963902, "tags": {"addr:housenumber": "13244", "addr:street": "Highway 215", "name": "13244 Brain's Meat Shop", "name:en": "13244 Brain's Meat Shop", "opening_hours": "Mo-Su 10:00-18:00", "phone": "+1-902-750-1496", "shop": "butcher"}}, {"type": "node", "id": 4869894864, "lat": 43.7518016, "lon": -79.2618352, "tags": {"shop": "butcher"}}, {"type": "node", "id": 4870844000, "lat": 43.4983214, "lon": -79.7068399, "tags": {"name": "M&M Food Market", "shop": "butcher"}}, {"type": "node", "id": 4872920409, "lat": 43.5673867, "lon": -79.6515767, "tags": {"description": "retail store of Sargent Farms", "diet:halal": "yes", "name": "Sargent Farms", "opening_hours": "Tu-Fr 10:00-19:00;Sa 10:00-18:00;Su 10:00-17:00", "phone": "+1-905-896-1059", "shop": "butcher", "website": "https://sargentfarms.ca/"}}, {"type": "node", "id": 4894628271, "lat": 43.3989167, "lon": -80.3260472, "tags": {"name": "M&M Food Market", "shop": "butcher"}}, {"type": "node", "id": 4929342975, "lat": 50.9573984, "lon": -114.0693954, "tags": {"name": "Urban Butcher", "opening_hours": "Tu-Sa 10:00-18:00", "shop": "butcher"}}, {"type": "node", "id": 4931462941, "lat": 51.0206738, "lon": -114.1426345, "tags": {"name": "Alpine Sausage", "shop": "butcher"}}, {"type": "node", "id": 4937598274, "lat": 49.2321487, "lon": -123.0657508, "tags": {"addr:city": "Vancouver", "addr:housenumber": "5751", "addr:province": "BC", "addr:street": "Victoria Drive", "name": "Tak's Farm Produce & Meat", "shop": "butcher"}}, {"type": "node", "id": 4957675323, "lat": 49.1589765, "lon": -122.7810368, "tags": {"name": "Dhesi Meat", "name:en": "Dhesi Meat", "phone": "+1-604-593-5222", "shop": "butcher"}}, {"type": "node", "id": 4964781503, "lat": 45.5038446, "lon": -72.2464723, "tags": {"addr:city": "Racine", "addr:housenumber": "157", "addr:street": "Chemin de Brompton", "name": "Boucherie Lamarche", "shop": "butcher"}}, {"type": "node", "id": 4990873723, "lat": 43.4718463, "lon": -80.5134768, "tags": {"addr:street": "Weber Street North", "name": "M&M Meats", "name:en": "M&M Meats", "shop": "butcher"}}, {"type": "node", "id": 5000059789, "lat": 46.8735256, "lon": -71.0957083, "tags": {"name": "Boucherie Jos Rousseau", "shop": "butcher"}}, {"type": "node", "id": 5016433543, "lat": 43.68227, "lon": -79.4652794, "tags": {"shop": "butcher"}}, {"type": "node", "id": 5031440447, "lat": 49.2795427, "lon": -123.0973276, "tags": {"addr:city": "Vancouver", "addr:housenumber": "595", "addr:province": "BC", "addr:street": "Gore Avenue", "name": "Money Foods Enterprises", "shop": "butcher"}}, {"type": "node", "id": 5037132795, "lat": 43.6406231, "lon": -79.5420153, "tags": {"addr:housenumber": "3884", "addr:street": "Bloor Street West", "name": "The Steak Master", "shop": "butcher"}}, {"type": "node", "id": 5108651132, "lat": 45.3584209, "lon": -75.7389525, "tags": {"addr:housenumber": "1400", "addr:street": "Clyde Avenue", "name": "M&M Food Market", "shop": "butcher"}}, {"type": "node", "id": 5111407369, "lat": 45.5466806, "lon": -73.5436731, "tags": {"addr:housenumber": "3748", "addr:street": "Rue Ontario Est", "name": "Boucherie Beau-Bien", "opening_hours": "Mo-We 08:00-19:00; Th-Fr 08:00-20:00; Sa 08:00-18:00; Su 08:00-17:00", "phone": "+1-514-529-0221", "shop": "butcher", "website": "http://www.boucherie-beau-bien.ca/"}}, {"type": "node", "id": 5111760363, "lat": 45.5475593, "lon": -73.5441203, "tags": {"addr:housenumber": "5", "addr:street": "Place Simon-Valois", "name": "Saucissier William J. Walter", "shop": "butcher", "website": "https://wjwsaucissier-web.sharepoint.com/Francais/Succursales/Montreal/Hochelaga/SitePages/Home.aspx"}}, {"type": "node", "id": 5120682421, "lat": 43.6477643, "lon": -79.4006518, "tags": {"addr:city": "Toronto", "addr:housenumber": "565", "addr:postcode": "M5V 2B6", "addr:street": "Queen Street West", "name": "The Healthy Butcher", "phone": "+1-416-674-2642", "shop": "butcher", "website": "https://thehealthybutcher.com/", "wheelchair": "yes", "wheelchair:description": "No steps at entrance"}}, {"type": "node", "id": 5121148355, "lat": 49.2187324, "lon": -122.6482397, "tags": {"name": "M&M Meats", "shop": "butcher"}}, {"type": "node", "id": 5140435744, "lat": 43.6769818, "lon": -79.4482656, "tags": {"addr:city": "Toronto", "addr:housenumber": "1300", "addr:street": "Saint Clair Avenue West", "name": "Talho Rui Gomes", "operator": "Talho Rui Gomes", "shop": "butcher"}}, {"type": "node", "id": 5187015339, "lat": 51.792271, "lon": -114.1059653, "tags": {"name": "Kerick's Meat Market", "shop": "butcher"}}, {"type": "node", "id": 5197143993, "lat": 45.6098909, "lon": -74.5918277, "tags": {"addr:city": "Hawkesbury", "addr:housenumber": "1085", "addr:postcode": "K6A 1B8", "addr:street": "Main Street East", "name": "Boucherie M\u00e9nard", "phone": "+1-613-632-7301", "shop": "butcher"}}, {"type": "node", "id": 5231755549, "lat": 49.314011, "lon": -123.0779118, "tags": {"addr:city": "North Vancouver City", "addr:housenumber": "120", "addr:province": "British Columbia", "addr:street": "West 3rd Street", "name": "Olympia Meats", "shop": "butcher"}}, {"type": "node", "id": 5248242921, "lat": 46.7811804, "lon": -71.2519933, "tags": {"addr:city": "Qu\u00e9bec", "addr:housenumber": "1317", "addr:province": "Qu\u00e9bec", "addr:street": "Avenue Maguire", "name": "Saucisserie Le p'tit Verrat", "phone": "+1-418-681-7761", "shop": "butcher"}}, {"type": "node", "id": 5272564188, "lat": 45.5218668, "lon": -73.5620933, "tags": {"name": "Boucherie des faubourgs", "shop": "butcher"}}, {"type": "node", "id": 5358385925, "lat": 49.1646373, "lon": -121.9578338, "tags": {"name": "The Mad Butcher", "shop": "butcher"}}, {"type": "node", "id": 5432436277, "lat": 44.6990096, "lon": -63.604019, "tags": {"addr:city": "Dartmouth", "addr:housenumber": "1", "addr:postcode": "B3B 1G5", "addr:province": "Nova Scotia", "addr:street": "Wright Avenue", "name": "Chops Meat Market", "shop": "butcher", "website": "http://www.chopsmeatmarket.ca/"}}, {"type": "node", "id": 5446942011, "lat": 51.0503824, "lon": -114.0622085, "tags": {"addr:city": "Calgary", "addr:housenumber": "106", "addr:postcode": "T2G 0B6", "addr:province": "Alberta", "addr:street": "3 Avenue SE", "name": "Wah Hing Meat Shop", "shop": "butcher"}}, {"type": "node", "id": 5455279134, "lat": 50.0269935, "lon": -125.2502765, "tags": {"addr:city": "Campbell River", "addr:housenumber": "1270", "addr:postcode": "V9W 3A4", "addr:province": "BC", "addr:street": "Dogwood Street", "addr:unit": "50", "name": "JK's Local Meat Cave", "shop": "butcher"}}, {"type": "node", "id": 5474438135, "lat": 45.5210544, "lon": -73.6742944, "tags": {"name": "Boucherie Abu Elias", "phone": "+1-514-747-7754", "shop": "butcher"}}, {"type": "node", "id": 5484438624, "lat": 44.2687939, "lon": -76.4801461, "tags": {"name": "Greenlees Meats", "shop": "butcher"}}, {"type": "node", "id": 5492170942, "lat": 45.4237568, "lon": -76.3691506, "tags": {"name": "M&M Food Market", "shop": "butcher"}}, {"type": "node", "id": 5503061412, "lat": 49.8577303, "lon": -97.2040728, "tags": {"name": "Miller's Meat Market", "shop": "butcher"}}, {"type": "node", "id": 5508319722, "lat": 43.6463364, "lon": -79.4089682, "tags": {"addr:city": "Toronto", "addr:housenumber": "714", "addr:street": "Queen Street West", "name": "Cumbrae's", "phone": "+1-416-681-1111", "shop": "butcher", "website": "http://cumbraes.com/", "wheelchair": "yes", "wheelchair:description": "StopGap ramp"}}, {"type": "node", "id": 5562314178, "lat": 44.6566362, "lon": -63.5949004, "tags": {"name": "Brother's Meats & Delicatessen", "shop": "butcher"}}, {"type": "node", "id": 5589369616, "lat": 44.3074487, "lon": -77.7957297, "tags": {"name": "M&M Food Market", "shop": "butcher"}}, {"type": "node", "id": 5635386510, "lat": 43.5209056, "lon": -80.6212713, "tags": {"name": "Stemmler's Meats and Cheese", "shop": "butcher"}}, {"type": "node", "id": 5668359691, "lat": 49.2828727, "lon": -122.8262581, "tags": {"addr:city": "Port Moody", "addr:housenumber": "245", "addr:postcode": "V3H 5C9", "addr:province": "British Columbia", "addr:street": "Newport Drive", "name": "The Little Butcher", "operator": "The Little Butcher", "shop": "butcher"}}, {"type": "node", "id": 5676957843, "lat": 43.4841662, "lon": -80.5254143, "tags": {"addr:housenumber": "401", "name": "Charles Quality Meats", "opening_hours": "Mo-Th 10:00-18:00; Fr 10:00-19:00; Su 10:00-14:00", "phone": "+1-519-888-8150", "shop": "butcher"}}, {"type": "node", "id": 5688115088, "lat": 43.9050987, "lon": -78.7002034, "tags": {"name": "Kyle's Quality Meats", "shop": "butcher"}}, {"type": "node", "id": 5706206222, "lat": 43.7359819, "lon": -79.5634374, "tags": {"addr:city": "Etobicoke", "addr:housenumber": "969", "addr:postcode": "M9V 1A6", "addr:street": "Albion Road", "name": "Dar Halal Meat Market", "phone": "+1-416-745-5242", "shop": "butcher", "toilets:wheelchair": "no", "wheelchair": "no"}}, {"type": "node", "id": 5709288421, "lat": 43.7379721, "lon": -79.5651925, "tags": {"addr:city": "Etobicoke", "addr:housenumber": "2635", "addr:postcode": "M9V 2X4", "addr:street": "Islington Avenue", "name": "Macelleria Potenza", "phone": "+1-416-741-2658", "shop": "butcher", "toilets:wheelchair": "no", "wheelchair": "no"}}, {"type": "node", "id": 5722357727, "lat": 43.1986805, "lon": -80.0166015, "tags": {"name": "M&M Food Market", "shop": "butcher"}}, {"type": "node", "id": 5724602661, "lat": 49.1181737, "lon": -122.7569408, "tags": {"addr:city": "Surrey", "addr:housenumber": "6377", "addr:postcode": "V3S 3T6", "addr:province": "BC", "addr:street": "168 Street", "addr:unit": "112", "name": "Fraserview Meats", "shop": "butcher"}}, {"type": "node", "id": 5762421923, "lat": 45.3692177, "lon": -75.6207304, "tags": {"addr:housenumber": "4", "addr:street": "Lorry Greenberg Drive", "name": "Al Farat Meat Shop", "shop": "butcher"}}, {"type": "node", "id": 5764321684, "lat": 45.383414, "lon": -75.620597, "tags": {"addr:housenumber": "2335", "addr:street": "St-Laurent Boulevard", "name": "Best Beef Store", "shop": "butcher"}}, {"type": "node", "id": 5771050817, "lat": 49.1340949, "lon": -122.840212, "tags": {"addr:city": "Surrey", "addr:housenumber": "13753", "addr:postcode": "V3W 2P2", "addr:street": "72 Avenue", "addr:unit": "106", "email": "info@captainmeat.ca", "name": "Captain Meat & Poultry", "opening_hours": "Mo-Su 09:00-21:00", "payment:cash": "yes", "payment:credit_cards": "yes", "payment:debit_cards": "yes", "payment:mastercard": "yes", "phone": "+1-604-592-2910", "shop": "butcher", "website": "https://www.captainmeat.ca/"}}, {"type": "node", "id": 5771076183, "lat": 49.150649, "lon": -122.8671448, "tags": {"addr:city": "Surrey", "addr:housenumber": "8120", "addr:postcode": "V3W 1R1", "addr:street": "128 Street", "addr:unit": "152", "email": "info@captainmeat.ca", "name": "Captain Meat & Poultry", "opening_hours": "Mo-Su 09:00-21:00", "payment:cash": "yes", "payment:credit_cards": "yes", "payment:mastercard": "yes", "payment:visa": "yes", "phone": "+1-604-503-4009", "shop": "butcher", "website": "https://www.captainmeat.ca/"}}, {"type": "node", "id": 5774046656, "lat": 45.3564092, "lon": -75.8027834, "tags": {"addr:housenumber": "2953", "addr:street": "Carling Avenue", "name": "Bilal Farms Butcher Shop", "shop": "butcher"}}, {"type": "node", "id": 5793180308, "lat": 43.5343831, "lon": -79.6782643, "tags": {"name": "M&M Food Market", "shop": "butcher"}}, {"type": "node", "id": 5802455677, "lat": 45.2560691, "lon": -74.1300553, "tags": {"name": "Charcuterie MD", "shop": "butcher"}}, {"type": "node", "id": 5821946734, "lat": 46.1225668, "lon": -64.8493892, "tags": {"addr:city": "Moncton", "addr:housenumber": "1855", "addr:postcode": "E1G 1A8", "addr:street": "Mountain Road", "name": "Old Fashion Meat Market", "shop": "butcher"}}, {"type": "node", "id": 5826965585, "lat": 45.9766204, "lon": -66.6501987, "tags": {"addr:housenumber": "230", "addr:street": "Main Street", "name": "Peter\u2019s Meat Market", "opening_hours": "Mo-Su 09:00-21:00", "shop": "butcher", "website": "https://petersmeatmarket.ca/"}}, {"type": "node", "id": 5832823069, "lat": 45.5319828, "lon": -73.5757069, "tags": {"addr:housenumber": "1577", "addr:street": "Avenue du Mont-Royal Est", "name": "Boucherie Champfleuri", "opening_hours": "Mo-We 10:00-19:00;Th-Fr 10:00-21:00;Sa 09:00-18:00;Su 10:00-18:00", "phone": "+1 514 529 0314", "shop": "butcher"}}, {"type": "node", "id": 5836676602, "lat": 45.4099449, "lon": -75.7099883, "tags": {"addr:housenumber": "777", "addr:street": "Somerset Street West", "name": "Saigon Meats & Vegetables", "shop": "butcher"}}, {"type": "node", "id": 5844042273, "lat": 48.4272312, "lon": -123.3594659, "tags": {"name": "Bold Butchery and Grill", "shop": "butcher"}}, {"type": "node", "id": 5859925358, "lat": 49.1578957, "lon": -122.7783647, "tags": {"addr:city": "Surrey", "addr:housenumber": "16013", "addr:postcode": "V4N 0G2", "addr:province": "BC", "addr:street": "Fraser Highway", "name": "Clancy's Meat Co. Fleetwood", "opening_hours": "Mo-Sa 10:00-19:00, Su 11:00-18:00", "shop": "butcher"}}, {"type": "node", "id": 5862243743, "lat": 45.5355949, "lon": -73.6142724, "tags": {"addr:housenumber": "224", "name": "Boucherie du March\u00e9", "shop": "butcher"}}, {"type": "node", "id": 5888865469, "lat": 45.272024, "lon": -75.2825944, "tags": {"addr:housenumber": "953", "addr:street": "Notre Dame Street", "name": "M&M Food Market", "shop": "butcher"}}, {"type": "node", "id": 5891377803, "lat": 45.2588873, "lon": -75.9213953, "tags": {"addr:housenumber": "1496", "addr:street": "Stittsville Main Street", "name": "Ivan's Meat and Deli", "shop": "butcher"}}, {"type": "node", "id": 5891726668, "lat": 45.5338357, "lon": -73.5739074, "tags": {"addr:housenumber": "1881", "addr:street": "Avenue du Mont-Royal Est", "name": "Comtoise", "opening_hours": "Mo,We-Sa 10:00-19:00;Su 10:00-18:00", "shop": "butcher"}}, {"type": "node", "id": 5911886580, "lat": 50.4502003, "lon": -104.594898, "tags": {"name": "Ukrainian Co-op", "shop": "butcher"}}, {"type": "node", "id": 5922231786, "lat": 51.1531688, "lon": -114.2060234, "tags": {"addr:housenumber": "12", "addr:postcode": "T3R 0N2", "addr:street": "Royal Vista Way NW", "internet_access": "wlan", "name": "Royal Meat & Groceries", "opening_hours": "Mo-Fr 11:00-20:00; Sa-Su 11:00-18:00", "phone": "+1-403-452-6168", "shop": "butcher"}}, {"type": "node", "id": 5947441355, "lat": 45.4309213, "lon": -75.6213185, "tags": {"addr:housenumber": "1136", "addr:street": "Cadboro Road", "name": "Al Madina Meat and Food Market", "shop": "butcher"}}, {"type": "node", "id": 5999431315, "lat": 51.6619618, "lon": -114.1370129, "tags": {"name": "Able Meats", "shop": "butcher"}}, {"type": "node", "id": 6067433325, "lat": 45.4535052, "lon": -75.752048, "tags": {"addr:housenumber": "1", "addr:street": "Rue Cholette", "craft": "caterer", "name": "Les Flavoureux", "shop": "butcher"}}, {"type": "node", "id": 6068689994, "lat": 45.475215, "lon": -73.6080658, "tags": {"addr:city": "Westmount", "addr:housenumber": "5209", "addr:postcode": "H4A 1T7", "addr:province": "QC", "addr:street": "Rue Sherbrooke Ouest", "name": "Boucherie Westmount", "opening_hours": "Mo 10:30-18:30,Tu-We 09:00-18:30,Th-Fr 09:00-19:30,Sa 09:00-18:00,Su 10:00-17:00", "payment:cash": "yes", "payment:credit_cards": "yes", "payment:debit_cards": "yes", "shop": "butcher"}}, {"type": "node", "id": 6109031136, "lat": 46.4148952, "lon": -63.7861571, "tags": {"addr:housenumber": "470", "addr:street": "Central Street", "description": "they deliver, can give 15% discount\nSpecializing in AAA grade meat\n19027246328\n19024394176\nOwner: Kevin Wile\nwww.summersidebutchershop.com\nbutchershop@eastlink.ca\n470 Central st, Summerside, Prince Edward Island C1N-3N7", "name": "Butcher Shop", "phone": "19024394176", "shop": "butcher", "website": "www.summersidebutchershop.com"}}, {"type": "node", "id": 6114108744, "lat": 45.3543053, "lon": -75.6428365, "tags": {"addr:housenumber": "3515", "addr:street": "Albion Road South", "name": "Matar Meat Shop", "shop": "butcher"}}, {"type": "node", "id": 6120456581, "lat": 46.119024, "lon": -74.5724938, "tags": {"addr:city": "Mont-Tremblant", "addr:housenumber": "411", "addr:postcode": "J8E 2Z9", "addr:province": "Quebec", "addr:street": "Rue de Saint-Jovite", "name": "La boucherie des Mercenaire Culinaire", "shop": "butcher"}}, {"type": "node", "id": 6124973105, "lat": 49.2222795, "lon": -122.9319822, "tags": {"name": "Garcha Meat Shop", "shop": "butcher"}}, {"type": "node", "id": 6177291491, "lat": 47.3965811, "lon": -61.8016705, "tags": {"name": "fromagerie au pied de vent", "shop": "butcher"}}, {"type": "node", "id": 6188069900, "lat": 46.2488219, "lon": -63.1120734, "tags": {"addr:city": "Charlottetown", "addr:housenumber": "21", "addr:province": "PE", "addr:street": "Riverside Drive", "name": "KJL Select Meats", "opening_hours": "Mo-Fr 08:00-18:00; Sa 09:00-17:00", "payment:cash": "yes", "payment:credit_cards": "yes", "shop": "butcher", "website": "http://www.riverviewcountrymarket.com/kjl.php"}}, {"type": "node", "id": 6221180520, "lat": 49.0589451, "lon": -122.4916341, "tags": {"addr:housenumber": "26426", "addr:postcode": "V3Z 0C1", "addr:street": "Fraser Highway", "name": "The Grove's Meat spot", "shop": "butcher", "url": "https://m.facebook.com/The-Groves-Meat-Spot-125041341587660/?refsrc=http%3A%2F%2Fthegrovesmeatspot.com%2Fservicesproducts%2F", "website": "http://thegrovesmeatspot.com"}}, {"type": "node", "id": 6221941301, "lat": 43.0041863, "lon": -79.2692728, "tags": {"name": "M&M Food Market", "shop": "butcher"}}, {"type": "node", "id": 6306230100, "lat": 43.6479169, "lon": -79.5095419, "tags": {"addr:housenumber": "2978", "addr:street": "Bloor Street West", "name": "White House Meats", "phone": "+1-416-231-5004", "shop": "butcher"}}, {"type": "node", "id": 6312861815, "lat": 43.9583777, "lon": -78.3190628, "tags": {"addr:city": "Port Hope", "addr:housenumber": "121", "addr:postcode": "L1A 3S6", "addr:province": "Ontario", "addr:street": "Toronto Road", "name": "M&M Food Market", "shop": "butcher"}}, {"type": "node", "id": 6313342724, "lat": 46.9822898, "lon": -71.3672937, "tags": {"name": "Boucherie La Halle aux Viandes", "shop": "butcher"}}, {"type": "node", "id": 6313572120, "lat": 49.7648531, "lon": -125.048098, "tags": {"addr:housenumber": "6200", "addr:street": "Ledingham Road", "name": "Gunter Brothers' Meat Company", "phone": "+1 250 334-2960", "shop": "butcher"}}, {"type": "node", "id": 6313839991, "lat": 43.6484164, "lon": -79.5296411, "tags": {"name": "Medium Rare", "shop": "butcher"}}, {"type": "node", "id": 6314827451, "lat": 43.1918388, "lon": -79.5592976, "tags": {"name": "M&M Food Market", "shop": "butcher"}}, {"type": "node", "id": 6315313419, "lat": 43.6798482, "lon": -79.5456974, "tags": {"name": "Durdur Meats", "shop": "butcher"}}, {"type": "node", "id": 6324061450, "lat": 43.6832916, "lon": -79.5651728, "tags": {"name": "Mums Butcher Shop", "shop": "butcher"}}, {"type": "node", "id": 6325960674, "lat": 43.6426497, "lon": -79.4474541, "tags": {"addr:city": "Toronto", "addr:housenumber": "121", "addr:street": "Roncesvalles Avenue", "name": "The Meat Department", "shop": "butcher", "website": "http://themeatdepartment.ca/"}}, {"type": "node", "id": 6329875596, "lat": 43.7127808, "lon": -79.5635395, "tags": {"name": "Gryf Delicatessen", "shop": "butcher"}}, {"type": "node", "id": 6334374231, "lat": 43.7507497, "lon": -79.5845036, "tags": {"name": "Rowntree Meat", "shop": "butcher"}}, {"type": "node", "id": 6334409203, "lat": 43.7598968, "lon": -79.5929063, "tags": {"name": "New Kabul Halal Meat", "shop": "butcher"}}, {"type": "node", "id": 6340696119, "lat": 43.661961, "lon": -79.4263217, "tags": {"addr:city": "Toronto", "addr:housenumber": "906", "addr:street": "Bloor Street West", "name": "Macelleria Venezia Meat Market", "phone": "+1-416-531-2522", "shop": "butcher"}}, {"type": "node", "id": 6340850226, "lat": 43.6606729, "lon": -79.4321142, "tags": {"addr:city": "Toronto", "addr:housenumber": "1042", "addr:street": "Bloor Street West", "name": "Nosso Talho", "phone": "+1-416-531-7462", "shop": "butcher", "website": "http://www.nossotalho.com/"}}, {"type": "node", "id": 6340941062, "lat": 43.7031111, "lon": -79.5246039, "tags": {"name": "Allen's Scottish Butchers", "shop": "butcher"}}, {"type": "node", "id": 6341941415, "lat": 43.7721465, "lon": -79.6610521, "tags": {"name": "Gore Meat Shop", "shop": "butcher"}}, {"type": "node", "id": 6341947260, "lat": 43.771692, "lon": -79.6606093, "tags": {"name": "Quality Meat Market", "shop": "butcher"}}, {"type": "node", "id": 6348638695, "lat": 43.751286, "lon": -79.5439524, "tags": {"name": "MK Meats & West Indian Grocery", "shop": "butcher"}}, {"type": "node", "id": 6352773250, "lat": 43.7578283, "lon": -79.5698035, "tags": {"name": "Domenic's Quality Meat", "shop": "butcher"}}, {"type": "node", "id": 6352831309, "lat": 43.7592651, "lon": -79.5706978, "tags": {"name": "Cavallino Carne Equina", "shop": "butcher"}}, {"type": "node", "id": 6357407761, "lat": 43.7045619, "lon": -79.5044099, "tags": {"name": "Grande Wholesale Meats", "shop": "butcher"}}, {"type": "node", "id": 6358036507, "lat": 43.7034136, "lon": -79.5042176, "tags": {"name": "Lauri Meat Market", "shop": "butcher"}}, {"type": "node", "id": 6358489621, "lat": 43.7020936, "lon": -79.5039212, "tags": {"name": "Baksh Halal Meat", "shop": "butcher"}}, {"type": "node", "id": 6363250185, "lat": 45.520618, "lon": -73.5878547, "tags": {"addr:housenumber": "4556b", "addr:street": "Boulevard Saint-Laurent", "name": "Charcuterie Viens", "shop": "butcher"}}, {"type": "node", "id": 6366662890, "lat": 43.7241325, "lon": -79.5090095, "tags": {"name": "African King Meat Shop", "shop": "butcher"}}, {"type": "node", "id": 6369405372, "lat": 43.7433996, "lon": -79.5144893, "tags": {"name": "Sisi Meats", "shop": "butcher"}}, {"type": "node", "id": 6373409317, "lat": 49.75854, "lon": -125.05585, "tags": {"addr:housenumber": "6161", "addr:street": "Dunboyne Road", "name": "Tsolum Cutting & Processing", "phone": "+1 250 218-0327", "shop": "butcher"}}, {"type": "node", "id": 6384671281, "lat": 43.6582902, "lon": -79.453133, "tags": {"addr:city": "Toronto", "addr:housenumber": "2409", "addr:street": "Dundas Street West", "name": "Slovenija Meat & Delicatessen", "opening_hours": "Tu-We 09:00-18:00;Th-Fr 09:00-19:00;Sa 09:00-17:00;Su-Mo closed", "shop": "butcher"}}, {"type": "node", "id": 6391943059, "lat": 44.60135, "lon": -75.7041518, "tags": {"name": "M&M Food Market", "shop": "butcher"}}, {"type": "node", "id": 6425679976, "lat": 45.5973595, "lon": -76.4838408, "tags": {"addr:city": "Shawville", "addr:housenumber": "65", "addr:postcode": "J0X 2Y0", "addr:province": "Quebec", "addr:street": "Route 148", "diet:halal": "yes", "name": "Abattoir les Viandes du Pontiac", "phone": "819-647-3535", "shop": "butcher", "website": "https://abattoirlesviandesdupontiac.com"}}, {"type": "node", "id": 6444195912, "lat": 48.7819972, "lon": -123.6986174, "tags": {"name": "Moby Meats Market", "shop": "butcher"}}, {"type": "node", "id": 6463033111, "lat": 45.4305251, "lon": -75.7335093, "tags": {"addr:housenumber": "115", "addr:street": "Boulevard Saint-Joseph", "name": "Irina A&F", "shop": "butcher"}}, {"type": "node", "id": 6475614455, "lat": 43.5839708, "lon": -79.6125595, "tags": {"cuisine": "korean", "name": "Woori Meat Shop", "note": "Also has name in Korean", "shop": "butcher"}}, {"type": "node", "id": 6475750182, "lat": 45.1936012, "lon": -75.8395216, "tags": {"addr:housenumber": "6146", "addr:street": "Perth Street", "name": "Christopher's Meat Market", "opening_hours": "09:30-18:00", "shop": "butcher", "smoking": "outside"}}, {"type": "node", "id": 6481522548, "lat": 44.9744501, "lon": -75.2435093, "tags": {"name": "Whiteker Meat Market", "shop": "butcher"}}, {"type": "node", "id": 6484662641, "lat": 49.1335473, "lon": -122.3205905, "tags": {"name": "AMJ Meat Shop", "phone": "+1-604-289-2272", "shop": "butcher"}}, {"type": "node", "id": 6491357323, "lat": 43.6655523, "lon": -79.4676527, "tags": {"addr:housenumber": "2946", "addr:street": "Dundas Street West", "name": "Gourmeats", "shop": "butcher"}}, {"type": "node", "id": 6491731385, "lat": 43.6655003, "lon": -79.4628088, "tags": {"addr:housenumber": "2802", "addr:street": "Dundas Street West", "name": "Junction Meats", "shop": "butcher"}}, {"type": "node", "id": 6493338045, "lat": 43.6401445, "lon": -79.4394918, "tags": {"addr:housenumber": "1550", "addr:street": "Queen Street West", "name": "Cattleman's Meat Market", "shop": "butcher"}}, {"type": "node", "id": 6496462934, "lat": 43.1539366, "lon": -79.269156, "tags": {"name": "M&M Food Market", "shop": "butcher"}}, {"type": "node", "id": 6499817908, "lat": 43.1999319, "lon": -79.2540326, "tags": {"name": "Lakeshore Meats", "shop": "butcher"}}, {"type": "node", "id": 6501242706, "lat": 43.1824907, "lon": -79.2526212, "tags": {"name": "M&M Food Market", "shop": "butcher"}}, {"type": "node", "id": 6507571281, "lat": 43.212871, "lon": -79.2234642, "tags": {"name": "Richard's Fine Meats & Deli", "shop": "butcher"}}, {"type": "node", "id": 6510292836, "lat": 43.1873008, "lon": -79.2075562, "tags": {"name": "Country Corner Market", "shop": "butcher"}}, {"type": "node", "id": 6516905392, "lat": 43.1696988, "lon": -79.2628514, "tags": {"name": "The Valli Girls", "shop": "butcher"}}, {"type": "node", "id": 6534309902, "lat": 49.1171898, "lon": -122.6773976, "tags": {"name": "Heritage Meats", "payment:credit_cards": "yes", "payment:debit_cards": "yes", "shop": "butcher"}}, {"type": "node", "id": 6538429457, "lat": 43.71894, "lon": -79.5119022, "tags": {"name": "Juan Meat Market", "shop": "butcher"}}, {"type": "node", "id": 6546847843, "lat": 43.6728233, "lon": -79.8211771, "tags": {"name": "Royal Meats & Takeout", "shop": "butcher"}}, {"type": "node", "id": 6546847874, "lat": 43.6839588, "lon": -79.8117129, "tags": {"name": "Royal Meat Shop", "shop": "butcher"}}, {"type": "node", "id": 6546873278, "lat": 43.7025046, "lon": -79.7859737, "tags": {"name": "Best Halal Meat Shop", "shop": "butcher"}}, {"type": "node", "id": 6547820380, "lat": 43.7353279, "lon": -79.7076666, "tags": {"name": "M&M Food Market", "shop": "butcher"}}, {"type": "node", "id": 6548584932, "lat": 43.7090476, "lon": -79.4531973, "tags": {"name": "Dufferin Meat Market", "shop": "butcher"}}, {"type": "node", "id": 6549482215, "lat": 43.7075815, "lon": -79.4529947, "tags": {"name": "The Meat Store", "shop": "butcher"}}, {"type": "node", "id": 6550503668, "lat": 43.6925212, "lon": -79.44038, "tags": {"fix": "correct name", "name": "Fresh Meat", "phone": "+1-647-417-3827", "shop": "butcher"}}, {"type": "node", "id": 6550544306, "lat": 43.6876253, "lon": -79.424026, "tags": {"name": "The Friendly Butcher", "shop": "butcher"}}, {"type": "node", "id": 6554677030, "lat": 43.7440115, "lon": -79.6036331, "tags": {"name": "Albion Meats", "shop": "butcher"}}, {"type": "node", "id": 6561283520, "lat": 43.7847577, "lon": -79.5677318, "tags": {"name": "Loconte Fine Meats & Deli", "shop": "butcher"}}, {"type": "node", "id": 6578943815, "lat": 43.7050176, "lon": -79.3466422, "tags": {"name": "Overlea Halal Meats", "shop": "butcher"}}, {"type": "node", "id": 6589641233, "lat": 43.8430788, "lon": -79.408098, "tags": {"name": "M&M Food Market", "shop": "butcher"}}, {"type": "node", "id": 6589686177, "lat": 43.8764249, "lon": -79.4166596, "tags": {"name": "Kian Meat", "shop": "butcher"}}, {"type": "node", "id": 6593940952, "lat": 43.7429787, "lon": -79.2215934, "tags": {"name": "B. Halal Meat", "shop": "butcher"}}, {"type": "node", "id": 6593955533, "lat": 43.7445999, "lon": -79.2200882, "tags": {"name": "Janat Halal Meat", "shop": "butcher"}}, {"type": "node", "id": 6595225881, "lat": 49.0908113, "lon": -123.0802233, "tags": {"name": "Lux", "shop": "butcher"}}, {"type": "way", "id": 28250427, "center": {"lat": 43.6224529, "lon": -79.6016233}, "nodes": [310260585, 310260587, 310260588, 310260590, 310260592, 310260594, 310260598, 1062558691, 310260585], "tags": {"addr:city": "Mississauga", "addr:housenumber": "3661", "addr:street": "Dixie Road", "building": "retail", "building:levels": "1", "name": "Aurora Meat and Cheese", "shop": "butcher"}}, {"type": "way", "id": 52948790, "center": {"lat": 43.6628568, "lon": -79.33267}, "nodes": [670934519, 670934523, 670934520, 670934517, 670934519], "tags": {"addr:city": "Toronto", "addr:housenumber": "1160", "addr:postcode": "M4M 1L4", "addr:street": "Queen Street East", "building": "retail", "name": "Meating on Queen", "phone": "+1-416-461-7500", "shop": "butcher"}}, {"type": "way", "id": 58560476, "center": {"lat": 43.616487, "lon": -79.5691641}, "nodes": [725622679, 725622642, 725622656, 725622687, 725622618, 725622636, 725622679], "tags": {"building": "yes", "name": "Brandl Meat Products Showroom & Factory Outlet", "shop": "butcher", "source": "yahoo"}}, {"type": "way", "id": 69624599, "center": {"lat": 45.4241449, "lon": -75.4762775}, "nodes": [833168685, 833169325, 3756645783, 4648219384, 833158484, 833154236, 833168685], "tags": {"addr:housenumber": "3971", "addr:street": "Navan Road", "building": "retail", "fax": "+1-613-824-1402", "name": "Lavergne Western Beef", "phone": "+1-613-824-8175", "shop": "butcher", "website": "http://www.lavergnewesternbeef.com/"}}, {"type": "way", "id": 97992737, "center": {"lat": 49.9073765, "lon": -97.1286602}, "nodes": [1134043001, 1134043018, 1134043019, 1134043020, 1134043021, 1134043022, 1134043013, 1134043008, 1134043006, 1134043004, 1134043002, 1134043001], "tags": {"addr:housenumber": "121", "addr:street": "Euclid Avenue", "building": "yes", "butcher": "smokehouse", "name": "Metro Meats", "shop": "butcher", "source": "Bing"}}, {"type": "way", "id": 98003992, "center": {"lat": 49.9279983, "lon": -97.1233459}, "nodes": [1134141734, 1134141742, 1134141749, 1134141754, 1134141762, 1134141769, 4507116193, 1134141734], "tags": {"addr:housenumber": "1483", "addr:street": "Main Street", "building": "yes", "butcher": "smokehouse", "name": "Tenderloin Meat & Sausage", "shop": "butcher", "source": "Bing", "website": "http://www.tenderloinmeats.com/"}}, {"type": "way", "id": 98888365, "center": {"lat": 49.9289941, "lon": -97.1393317}, "nodes": [1144015417, 1144015420, 1144015422, 1144015423, 1144015417], "tags": {"addr:street": "Bannerman Avenue", "building": "yes", "butcher": "smokehouse", "name": "Karpaty Meats & Deli", "shop": "butcher", "source": "Bing"}}, {"type": "way", "id": 98890631, "center": {"lat": 49.9025862, "lon": -97.095372}, "nodes": [1144051136, 1144051139, 1144051141, 1144051147, 1144051150, 1144051164, 1144051169, 1144051171, 1144051174, 1144051176, 1144051178, 1144051180, 1144051136], "tags": {"addr:housenumber": "630", "addr:street": "Nairn Avenue", "building": "yes", "butcher": "smokehouse", "name": "Central Products & Foods", "phone": "+1-204-667-2981", "shop": "butcher", "source": "Bing"}}, {"type": "way", "id": 118537245, "center": {"lat": 49.9181875, "lon": -97.1837815}, "nodes": [1332989467, 1332989498, 1332989509, 1332989485, 1332989467], "tags": {"building": "yes", "name": "Cantor's Quality Meats", "shop": "butcher", "source": "Bing"}}, {"type": "way", "id": 126163283, "center": {"lat": 49.2447449, "lon": -122.7122227}, "nodes": [1399412583, 1399412584, 1399412582, 1399412581, 1399412583], "tags": {"building": "yes", "name": "Hopcott Premium Meats", "shop": "butcher"}}, {"type": "way", "id": 135778698, "center": {"lat": 42.980685, "lon": -81.2120115}, "nodes": [1490571072, 1490571099, 1490571018, 1490571015, 1490571003, 1490570990, 1490571041, 1490571043, 1490571072], "tags": {"addr:city": "London", "addr:housenumber": "202", "addr:street": "Egerton Street", "building": "yes", "contact:phone": "+1-519-455-5230", "name": "Kohn Meat Market", "shop": "butcher", "website": "http://kohnmeat.ca"}}, {"type": "way", "id": 159800990, "center": {"lat": 56.2387782, "lon": -120.8400233}, "nodes": [1719034469, 1719034481, 1719034283, 1719034265, 1719034321, 1719034320, 1719034469], "tags": {"building": "yes", "name": "The Butcher's Block", "shop": "butcher"}}, {"type": "way", "id": 161625241, "center": {"lat": 50.9286762, "lon": -102.8076475}, "nodes": [1736000459, 1736000457, 1736000447, 1736000449, 1736000459], "tags": {"building": "commercial", "name": "Napady Meats", "shop": "butcher"}}, {"type": "way", "id": 161716380, "center": {"lat": 49.1913113, "lon": -122.8234087}, "nodes": [1736730938, 1736730933, 1736730934, 1736730931, 1736730932, 1736730935, 1736730936, 1736730940, 1736730938], "tags": {"addr:city": "Surrey", "addr:housenumber": "14390", "addr:street": "104 Avenue", "building": "yes", "name": "Glory Meat Stop", "opening_hours": "Mo-Su 09:00-21:00", "phone": "+1-604-582-6211", "shop": "butcher", "surrey:addrid": "81846", "surrey:date": "19850924"}}, {"type": "way", "id": 161721680, "center": {"lat": 45.85202, "lon": -66.4694898}, "nodes": [1736780692, 1736780744, 1736780665, 1736780780, 1736780692], "tags": {"building": "yes", "name": "Mulder's Meats", "shop": "butcher", "source": "Bing"}}, {"type": "way", "id": 167477077, "center": {"lat": 43.9398152, "lon": -78.8518634}, "nodes": [1788684281, 1788684275, 1788684276, 1788684280, 1788684281], "tags": {"building": "yes", "name": "M&M Food Market", "shop": "butcher"}}, {"type": "way", "id": 180339539, "center": {"lat": 46.8078775, "lon": -71.317671}, "nodes": [1907758704, 1907758712, 1907758709, 1907758710, 1907758706, 1907758711, 1907758704], "tags": {"addr:housenumber": "2070", "addr:postcode": "G1P 1J4", "addr:street": "Masson", "building": "commercial", "name": "Boucherie Les Saules", "shop": "butcher", "website": "http://www.boucherielessaules.qc.ca/"}}, {"type": "way", "id": 191488989, "center": {"lat": 49.3855121, "lon": -99.2445622}, "nodes": [2020609781, 2020609778, 2020609773, 2020609777, 2020609780, 2020609775, 2020609783, 2020609784, 2020609781], "tags": {"building": "yes", "shop": "butcher", "source": "Bing"}}, {"type": "way", "id": 199904943, "center": {"lat": 45.5528877, "lon": -76.5302537}, "nodes": [2098926316, 2098926453, 2098926310, 2098926312, 2098926314, 2098926491, 2098926316], "tags": {"building": "yes", "name": "Rolling Acres Natural Beef", "shop": "butcher", "source": "Bing", "website": "http://rollingacres.biz/"}}, {"type": "way", "id": 220474601, "center": {"lat": 46.5024121, "lon": -80.989479}, "nodes": [2295868926, 2295868925, 2295868927, 2295868928, 2295868926], "tags": {"addr:city": "Sudbury", "addr:housenumber": "433", "addr:postcode": "P3C 5H9", "addr:street": "Laforest Avenue", "building": "retail", "building:levels": "2", "name": "Sunbeam", "shop": "butcher"}}, {"type": "way", "id": 231095828, "center": {"lat": 45.5943889, "lon": -73.663077}, "nodes": [2395037575, 2395037567, 2395037565, 2395037571, 2395037575], "tags": {"building": "yes", "name": "Mondo", "shop": "butcher"}}, {"type": "way", "id": 233699213, "center": {"lat": 43.4728997, "lon": -80.4362723}, "nodes": [2420449474, 2420449475, 2420449476, 2420449482, 2420449474], "tags": {"building": "retail", "name": "Victoria Street Market", "shop": "butcher", "source": "Bing", "website": "http://www.victoriastreetmarket.ca/"}}, {"type": "way", "id": 235899436, "center": {"lat": 52.7746248, "lon": -108.2993624}, "nodes": [2439792216, 2439792217, 2439792218, 2439792219, 2439792216], "tags": {"building": "yes", "name": "B&D Meats", "shop": "butcher"}}, {"type": "way", "id": 238898900, "center": {"lat": 45.6451069, "lon": -76.0138019}, "nodes": [2466984716, 2466984718, 2466984721, 2466984724, 2466984716], "tags": {"building": "yes", "name": "Boucherie M.S.", "shop": "butcher"}}, {"type": "way", "id": 251732287, "center": {"lat": 45.2758175, "lon": -75.7773469}, "nodes": [4723473654, 2579122274, 4723473653, 4723473655, 4723473654], "tags": {"addr:housenumber": "2201", "addr:postcode": "K2J 4J9", "addr:street": "Jockvale Road", "building": "retail", "name": "Pete and Gus Meat Market", "phone": "+1-613-825-6393", "shop": "butcher", "source": "City of Ottawa"}}, {"type": "way", "id": 266153305, "center": {"lat": 43.2121123, "lon": -79.8565133}, "nodes": [2717340951, 2717340952, 2717340953, 2717340954, 2717340955, 2717340956, 1936256881, 2717340951], "tags": {"building": "retail", "building:levels": "1", "diet:halal": "yes", "name": "MeatLand", "phone": "+1-905-388-6464", "shop": "butcher"}}, {"type": "way", "id": 266906071, "center": {"lat": 43.2401533, "lon": -79.8495414}, "nodes": [2724028155, 2724210739, 2724028158, 2724028161, 2724028164, 2724028155], "tags": {"building": "retail", "name": "Opies Meats", "shop": "butcher"}}, {"type": "way", "id": 274721270, "center": {"lat": 49.0497695, "lon": -122.3016497}, "nodes": [2794039950, 3189497679, 3189497680, 3189497682, 3189497681, 2794039951, 2794039952, 2794039953, 3189497683, 3189497684, 2794039950], "tags": {"addr:housenumber": "33310", "addr:postcode": "V2S 2B4", "addr:street": "South Fraser Way", "building": "retail", "name": "The Mad Butcher", "opening_hours": "Mo-Sa 07:00-18:00;Su 08:00-17:00", "phone": "+1-604-853-6300", "shop": "butcher", "website": "http://themadbutcherbc.com"}}, {"type": "way", "id": 275320570, "center": {"lat": 48.2249587, "lon": -78.9972716}, "nodes": [2799590660, 2799590661, 2799590662, 2799590663, 2799590660], "tags": {"building": "yes", "name": "Maison des viandes", "shop": "butcher"}}, {"type": "way", "id": 307096738, "center": {"lat": 45.3756291, "lon": -75.7467631}, "nodes": [3121614684, 3121614677, 3121614675, 3121614681, 3121614684], "tags": {"addr:housenumber": "1620", "addr:street": "Laperriere Avenue", "building": "commercial", "name": "Slipacoff's Premium Meats", "shop": "butcher", "source": "City of Ottawa"}}, {"type": "way", "id": 324931306, "center": {"lat": 47.3738135, "lon": -68.3282459}, "nodes": [3316041484, 3316041485, 3316041486, 5239959431, 5239959428, 3316041488, 5239959430, 3316041490, 5239959429, 3316041484], "tags": {"addr:housenumber": "329", "addr:street": "Rue Victoria", "building": "yes", "name": "Boucherie L. B\u00e9gin BBQ", "note": "Butcher, BBQ, barbecue", "phone": "+1-506-739-8850", "shop": "butcher", "source": "Esri World Imagery", "source:date": "2017"}}, {"type": "way", "id": 326818031, "center": {"lat": 46.2070426, "lon": -75.9575297}, "nodes": [3334924293, 3334924294, 3334924295, 3334924296, 3334924297, 3334924298, 3334924293], "tags": {"addr:city": "Bouchette", "addr:province": "Qu\u00e9bec", "addr:street": "Rue Principale", "building": "yes", "name": "La Boucheterie", "operator": "Guy Lacroix", "shop": "butcher"}}, {"type": "way", "id": 339745609, "center": {"lat": 44.1095205, "lon": -79.1208558}, "nodes": [3469581691, 3469581692, 3469582393, 3469582394, 3469582395, 3469581691], "tags": {"building": "yes", "name": "Meat Merchant", "shop": "butcher"}}, {"type": "way", "id": 342360453, "center": {"lat": 45.2187291, "lon": -75.1535248}, "nodes": [3493662168, 3493662171, 3493662170, 3493662169, 3493662167, 3493662166, 3493662162, 3493662160, 3493662161, 3493662155, 3493662168], "tags": {"building": "commercial", "name": "Desormeaux Meats Inc & Slaughter House", "shop": "butcher"}}, {"type": "way", "id": 346828779, "center": {"lat": 45.5355228, "lon": -73.5552926}, "nodes": [3533045110, 3533063581, 3533045109, 3533045111, 3533045107, 3533045108, 3533045106, 3533045112, 3533044075, 3533045110], "tags": {"addr:city": "Montr\u00e9al", "addr:housenumber": "2657", "addr:street": "Rue de Rouen", "building": "yes", "name": "Charcuterie saucisses polonaises inc.", "opening_hours": "09:00-18:00", "shop": "butcher"}}, {"type": "way", "id": 351428505, "center": {"lat": 45.4573065, "lon": -73.8619431}, "nodes": [3571871594, 3571871604, 3571871598, 3571871596, 3571871594], "tags": {"addr:city": "Kirkland", "addr:housenumber": "3547", "addr:postcode": "H9H 3C4", "addr:street": "Boulevard Saint-Charles", "building": "retail", "name": "Aliments M&M", "shop": "butcher"}}, {"type": "way", "id": 381303417, "center": {"lat": 45.415893, "lon": -75.6282375}, "nodes": [3845323372, 3845323373, 3845323374, 3845323375, 3845323376, 3845323377, 6384606751, 6384606754, 3845323370, 3845323371, 3845323372], "tags": {"addr:housenumber": "1437", "addr:postcode": "K1B 3R3", "addr:street": "Michael Street", "building": "retail", "name": "Adam's Sausages & Meat Products Inc", "phone": "+1-613-749-3336", "shop": "butcher", "source": "City of Ottawa"}}, {"type": "way", "id": 389990157, "center": {"lat": 45.2443472, "lon": -74.1282881}, "nodes": [3931476346, 3931476347, 4829234603, 3931476348, 3931476346], "tags": {"building": "yes", "name": "Boucherie Distinction", "shop": "butcher"}}, {"type": "way", "id": 400192625, "center": {"lat": 46.8730856, "lon": -71.331332}, "nodes": [4027992217, 4027992218, 4027992219, 4027992220, 4027992222, 4027992223, 4027992221, 4027992217], "tags": {"addr:city": "Qu\u00e9bec", "addr:housenumber": "1795", "addr:postcode": "G3E 1L1", "addr:street": "Rue de la Faune", "building": "commercial", "name": "Boucherie Jacques Beaulieu", "shop": "butcher", "website": "http://www.boucheriejbeaulieu.ca/"}}, {"type": "way", "id": 400967754, "center": {"lat": 48.5735086, "lon": -78.1314545}, "nodes": [4034525260, 4034525262, 4034525236, 4034525235, 4034525260], "tags": {"addr:city": "Amos", "building": "retail", "name": "Boucherie Julien", "shop": "butcher", "source": "Bing"}}, {"type": "way", "id": 408246373, "center": {"lat": 47.4194338, "lon": -68.3784277}, "nodes": [4102060286, 4102060287, 4102060288, 4102065089, 4102065090, 4102065091, 4102065092, 4102065093, 4102060286], "tags": {"addr:housenumber": "400", "addr:street": "Rue Principale", "building": "yes", "name": "Boucherie L Ouellette", "phone": "+1-506-739-7791", "shop": "butcher"}}, {"type": "way", "id": 427724459, "center": {"lat": 47.524493, "lon": -79.6751969}, "nodes": [4269116937, 4269116938, 4269116939, 4269116940, 4269116941, 4269116942, 4269116943, 4269116944, 4269116937], "tags": {"building": "yes", "name": "Prime Cut Meats", "shop": "butcher"}}, {"type": "way", "id": 434860284, "center": {"lat": 49.174302, "lon": -101.7960171}, "nodes": [4327780294, 4327780297, 4327780298, 4327780296, 4327780294], "tags": {"addr:city": "Carnduff", "addr:housenumber": "120", "addr:street": "Broadway Street", "building": "yes", "name": "Border Corner Meats Inc.", "shop": "butcher"}}, {"type": "way", "id": 435397028, "center": {"lat": 45.4774145, "lon": -75.4984645}, "nodes": [6223845027, 1994943345, 6223845036, 6223845035, 6223845028, 6223845027], "tags": {"addr:housenumber": "385", "addr:postcode": "K1E 3H4", "addr:street": "Tompkins Avenue", "building": "commercial", "building:levels": "1", "name": "M&M Food Market", "shop": "butcher", "website": "http://www.mmmeatshops.com"}}, {"type": "way", "id": 451800631, "center": {"lat": 49.054127, "lon": -122.3803802}, "nodes": [4486145595, 4486145596, 4486145693, 4486145597, 4486155389, 4486145694, 4486145400, 4486145598, 4486145401, 4486145599, 4486145595], "tags": {"addr:housenumber": "2844", "addr:postcode": "V4X 2N6", "addr:street": "Mount Lehman Road", "building": "retail", "name": "Davis Quality Meats", "opening_hours": "Tu-Sa 08:30-17:30", "phone": "+1-604-850-1249", "shop": "butcher", "website": "https://www.davismeats.ca/"}}, {"type": "way", "id": 465623689, "center": {"lat": 43.1699708, "lon": -80.2474534}, "nodes": [4605622769, 4605622770, 4605622771, 4605622772, 4605622769], "tags": {"building": "retail", "building:colour": "beige", "building:levels": "1", "name": "M&M Food Market", "shop": "butcher"}}, {"type": "way", "id": 468895750, "center": {"lat": 45.5796847, "lon": -73.8049666}, "nodes": [4633502379, 4633502380, 4633502381, 4633502382, 4638442857, 4638442856, 4633502379], "tags": {"building": "yes", "name": "Boucherie C\u00f4t\u00e9", "shop": "butcher"}}, {"type": "way", "id": 469799303, "center": {"lat": 45.193351, "lon": -75.8396965}, "nodes": [4640816485, 4640816420, 4640816401, 4640816399, 4677473729, 4640816407, 4640816485], "tags": {"addr:housenumber": "6152", "addr:street": "Perth Street", "amenity": "restaurant", "building": "commercial", "cuisine": "breakfast", "delivery": "no", "name": "Royals Restaurant", "opening_hours": "07:00-21:00", "shop": "butcher", "smoking": "outside", "source": "City of Ottawa"}}, {"type": "way", "id": 474819148, "center": {"lat": 45.487591, "lon": -75.6012886}, "nodes": [6292474393, 4686875797, 4686875840, 4686875860, 4686875868, 4686877606, 4686877594, 6292474393], "tags": {"addr:city": "Gatineau", "addr:country": "CA", "addr:housenumber": "894", "addr:source": "Gatineau.ca/donneesouvertes 08Aug2015", "addr:street": "Boulevard Maloney Est", "building": "yes", "name": "Les Aliments M&M", "name:en": "M&M Food Market", "shop": "butcher"}}, {"type": "way", "id": 478374546, "center": {"lat": 45.2736121, "lon": -75.7463905}, "nodes": [4716000785, 4716000787, 4716000788, 5650522779, 4716000785], "tags": {"addr:housenumber": "1581", "addr:postcode": "K2J 4Y6", "addr:street": "Greenbank Road", "addr:unit": "130", "building": "retail", "name": "M&M Food Market", "opening_hours": "Mo-We 09:00-19:00; Th-Fr 09:00-20:00; Sa 09:00-19:00; Su 10:00-18:00", "phone": "+1-613-823-8535", "shop": "butcher", "start_date": "2002", "website": "https://www.mmfoodmarket.com/"}}, {"type": "way", "id": 478630641, "center": {"lat": 45.4419835, "lon": -75.6722905}, "nodes": [4718416736, 4718416730, 4718416735, 4718416712, 4718416709, 4718416482, 4718416439, 4718416451, 4718415971, 4718415935, 4718416414, 4718416417, 4718416465, 4718416723, 4718416736], "tags": {"addr:housenumber": "127", "addr:street": "Beechwood Avenue", "building": "detached", "name": "Muckleston & Brockwell", "shop": "butcher", "source": "City of Ottawa"}}, {"type": "way", "id": 481263668, "center": {"lat": 45.4077215, "lon": -75.7044595}, "nodes": [4741974407, 4741974599, 4741971888, 4741974078, 4741975438, 4741974476, 4741973855, 4741975261, 4741973301, 4741975401, 4741974407], "tags": {"addr:housenumber": "285", "addr:street": "Cambridge Street North", "building": "yes", "mapillary": "x4Tg1TMKlEmmArLNCUJSXw", "name": "Seed to Sausage", "shop": "butcher", "source": "City of Ottawa"}}, {"type": "way", "id": 486684389, "center": {"lat": 42.1117919, "lon": -83.0967383}, "nodes": [4792581338, 4792581339, 4908526027, 4792581340, 4792581342, 4792581337, 4792581341, 4792581338], "tags": {"addr:city": "Amherstburg", "addr:housenumber": "30", "addr:postcode": "N9V 4B1", "addr:street": "Renaud Street", "building": "retail", "name": "Wigle's Gourmet Meat", "shop": "butcher"}}, {"type": "way", "id": 492917478, "center": {"lat": 52.6387751, "lon": -113.0766017}, "nodes": [4848829107, 4848829108, 4848829109, 4848829110, 4848829111, 4848829112, 4848829113, 4848829114, 4848829115, 4848829116, 4848829107], "tags": {"building": "yes", "name": "Kikel Meat Packers", "phone": "+1-780-372-2178", "shop": "butcher"}}, {"type": "way", "id": 499730014, "center": {"lat": 51.0189483, "lon": -93.8227258}, "nodes": [4909676108, 4909676107, 4909671756, 4909671759, 4909676108], "tags": {"name": "Beaudry Steak and Seafood", "shop": "butcher"}}, {"type": "way", "id": 507679283, "center": {"lat": 49.6191412, "lon": -125.0289578}, "nodes": [4971394331, 4971394330, 4971394329, 4971394328, 4971394331], "tags": {"addr:housenumber": "2718", "addr:street": "Dunsmuir Avenue", "building": "yes", "name": "Village Meats", "phone": "+1-250-336-8709", "shop": "butcher"}}, {"type": "way", "id": 537538734, "center": {"lat": 45.2685203, "lon": -75.9317639}, "nodes": [5205146906, 5205146907, 5205146899, 5205146898, 5205146906], "tags": {"addr:housenumber": "1250", "addr:postcode": "K2S 1S9", "addr:street": "Stittsville Main Street", "addr:unit": "C7", "building": "retail", "name": "M&M Food Market", "opening_hours": "Mo-Th 10:00-19:00, Fr 10:00-20:00; Sa 09:00-19:00; Su 11:00-18:00", "phone": "+1-613-831-7608", "shop": "butcher", "website": "https://www.mmfoodmarket.com/"}}, {"type": "way", "id": 559217379, "center": {"lat": 48.6363113, "lon": -93.8373935}, "nodes": [5394045766, 5394045767, 5394045768, 5394045769, 5394045770, 5394045771, 5394045772, 5394045773, 5394045766], "tags": {"building": "yes", "shop": "butcher"}}, {"type": "way", "id": 559622258, "center": {"lat": 50.6999095, "lon": -119.2908852}, "nodes": [5397484364, 5397484365, 5397484366, 5397484367, 5397484364], "tags": {"building": "yes", "name": "Windmill Meats", "shop": "butcher"}}, {"type": "way", "id": 563490666, "center": {"lat": 53.5393388, "lon": -113.8981989}, "nodes": [5430230127, 5430230128, 5430230129, 5430230130, 5430230127], "tags": {"addr:city": "Spruce Grove", "addr:housenumber": "215", "addr:province": "AB", "addr:street": "South Avenue", "building": "commercial", "building:levels": "2", "name": "Sandy View Farms", "shop": "butcher"}}, {"type": "way", "id": 570367954, "center": {"lat": 45.3289559, "lon": -75.8196675}, "nodes": [2422157757, 2422157756, 4747964100, 5483487159, 5483487157, 5483487158, 2422157757], "tags": {"addr:housenumber": "1821", "addr:street": "Robertson Road", "addr:unit": "10", "building": "retail", "building:levels": "1", "name": "The Butchery", "shop": "butcher", "source": "City of Ottawa"}}, {"type": "way", "id": 573385585, "center": {"lat": 45.4407315, "lon": -75.645607}, "nodes": [5507151587, 3336842505, 3336842506, 5507151586, 5507151587], "tags": {"addr:housenumber": "536", "addr:street": "Montr\u00e9al Road", "building": "retail", "building:colour": "red", "building:levels": "1", "building:material": "brick", "name": "M&M Food Market", "shop": "butcher"}}, {"type": "way", "id": 573799341, "center": {"lat": 45.4516105, "lon": -75.5981272}, "nodes": [4556486467, 5509888830, 5509888831, 5509888829, 5509888828, 4556486467], "tags": {"addr:housenumber": "2339", "addr:street": "Ogilvie Road", "indoor": "room", "name": "The Hill Butcher Shop", "shop": "butcher"}}, {"type": "way", "id": 574217789, "center": {"lat": 45.3527393, "lon": -75.7778441}, "nodes": [5512582853, 5512582857, 5512582856, 5512582855, 5512582853], "tags": {"addr:housenumber": "1117", "addr:street": "Cobden Road", "building": "retail", "name": "Around the Block", "shop": "butcher", "source": "City of Ottawa"}}, {"type": "way", "id": 578599194, "center": {"lat": 45.4319163, "lon": -75.6184953}, "nodes": [4754930797, 5543426995, 5543426994, 5543426996, 4754930797], "tags": {"addr:housenumber": "1439", "addr:street": "Ogilvie Road", "building": "commercial", "name": "Barwaaqo Food Centre", "shop": "butcher", "source": "City of Ottawa"}}, {"type": "way", "id": 582637989, "center": {"lat": 45.5475605, "lon": -73.6657445}, "nodes": [5571852784, 5571852785, 5571852786, 5571852787, 5571852784], "tags": {"addr:city": "Montr\u00e9al", "addr:housenumber": "55", "addr:postcode": "H3L 1T1", "addr:province": "Quebec", "addr:street": "Rue Fleury Ouest", "building": "yes", "name": "\u00c7a va barder - Boucherie", "shop": "butcher"}}, {"type": "way", "id": 582710965, "center": {"lat": 45.5459855, "lon": -73.6732265}, "nodes": [5572313630, 5572313631, 5572313632, 5572313633, 5572313630], "tags": {"addr:city": "Montr\u00e9al", "addr:housenumber": "282", "addr:postcode": "H3L 1N7", "addr:province": "Qc", "addr:street": "Boulevard Henri-Bourassa Ouest", "building": "yes", "name": "Salaison St-Andr\u00e9", "shop": "butcher"}}, {"type": "way", "id": 584710154, "center": {"lat": 45.3950504, "lon": -75.8343719}, "nodes": [5588634302, 5588634304, 5588634303, 5588634301, 5588634302], "tags": {"addr:city": "Gatineau", "addr:housenumber": "200", "addr:postcode": "J9H 6J4", "addr:source": "Gatineau.ca/donneesouvertes 08Aug2015", "addr:street": "Rue Principale", "building": "commercial", "name": "M&M Food Market", "name:fr": "Les Aliments M&M", "shop": "butcher"}}, {"type": "way", "id": 591047219, "center": {"lat": 45.4114252, "lon": -75.6383478}, "nodes": [5642201444, 5642201442, 5642201441, 5642201443, 5642201444], "tags": {"addr:housenumber": "197", "addr:street": "Trainyards Drive", "building": "retail", "name": "M&M Food Market", "shop": "butcher"}}, {"type": "way", "id": 591866056, "center": {"lat": 45.4587571, "lon": -75.4881181}, "nodes": [5649955164, 5649955161, 5649955160, 5649955165, 5649955164], "tags": {"addr:housenumber": "2026", "addr:street": "Tenth Line Road", "building": "commercial", "name": "M&M Food Market", "shop": "butcher", "source": "City of Ottawa"}}, {"type": "way", "id": 603914590, "center": {"lat": 45.2996054, "lon": -75.885047}, "nodes": [5731473478, 5731473477, 5731473476, 5731473479, 5731473478], "tags": {"addr:housenumber": "442", "addr:street": "Hazeldean Road", "building": "retail", "name": "M&M Food Market", "shop": "butcher", "source": "Bing"}}, {"type": "way", "id": 606206877, "center": {"lat": 45.2250071, "lon": -76.1938752}, "nodes": [5748215894, 5748215891, 5748215892, 5748215893, 5748215894], "tags": {"addr:housenumber": "126", "addr:street": "Mill Street", "building": "yes", "name": "Don's Meat Market", "shop": "butcher"}}, {"type": "way", "id": 606499008, "center": {"lat": 45.3160149, "lon": -75.9207005}, "nodes": [5750285502, 5750285503, 5750285505, 5750285504, 5750285502], "tags": {"addr:housenumber": "2", "addr:street": "Goldridge Drive", "building": "retail", "name": "Little Euro Deli", "shop": "butcher", "source": "City of Ottawa"}}, {"type": "way", "id": 607162708, "center": {"lat": 50.5039344, "lon": -116.0276757}, "nodes": [2317626117, 2317626116, 5754816643, 2317626105, 2317626117], "tags": {"amenity": "cafe", "building": "yes", "name": "Konig Meat and Sausage Company", "shop": "butcher", "source": "Bing"}}, {"type": "way", "id": 616340151, "center": {"lat": 45.0257351, "lon": -75.6438251}, "nodes": [5827466005, 5827466006, 3255982249, 3255982250, 5827466004, 5827466005], "tags": {"addr:housenumber": "2868", "addr:street": "County Road 43", "building": "retail", "building:levels": "1", "name": "M&M Food Market", "shop": "butcher"}}, {"type": "way", "id": 626811399, "center": {"lat": 45.3507204, "lon": -75.7937372}, "nodes": [5934676440, 5934676446, 3116967883, 3116967884, 5934676441, 5934676440], "tags": {"addr:housenumber": "2833", "addr:street": "Dumaurier Avenue", "building": "retail", "name": "Ottawa Halal Market", "shop": "butcher", "source": "CanVec 6.0 - NRCan"}}, {"type": "way", "id": 661052561, "center": {"lat": 43.2629608, "lon": -79.9013173}, "nodes": [6188915574, 6188915583, 6188915584, 6188915575, 6188915574], "tags": {"addr:city": "Hamilton", "addr:housenumber": "889", "addr:province": "Ontario", "addr:street": "King Street West", "building": "yes", "name": "Hamilton Kosher Meat Market", "shop": "butcher"}}, {"type": "way", "id": 663648192, "center": {"lat": 53.799548, "lon": -112.9283655}, "nodes": [6211684042, 6211684038, 6211684041, 6211684043, 6211684042], "tags": {"building": "yes", "shop": "butcher"}}, {"type": "way", "id": 670790818, "center": {"lat": 45.4727261, "lon": -75.7023823}, "nodes": [6281701258, 6281701260, 6281701259, 6281701257, 6281701258], "tags": {"addr:city": "Gatineau", "addr:country": "CA", "addr:housenumber": "200", "addr:postcode": "J8T 6K2", "addr:province": "Qu\u00e9bec", "addr:street": "Boulevard Gr\u00e9ber", "building": "retail", "name": "Boucherie M\u00e9dit\u00e9ran\u00e9e", "shop": "butcher", "source": "Bing"}}, {"type": "way", "id": 671002017, "center": {"lat": 45.4800157, "lon": -75.6918484}, "nodes": [6283671266, 6283671268, 6283671267, 6283671265, 6283671266], "tags": {"addr:city": "Gatineau", "addr:housenumber": "205", "addr:postcode": "J8T 8H3", "addr:source": "Gatineau.ca/donneesouvertes 08Aug2015", "addr:street": "Rue Bellehumeur", "building": "retail", "name": "Les Aliments M&M", "name:en": "M&M Food Market", "shop": "butcher", "source": "CanVec 6.0 - NRCan"}}, {"type": "way", "id": 671009192, "center": {"lat": 42.035179, "lon": -82.9221483}, "nodes": [6283737978, 6283744757, 6283744753, 6283744754, 6283737978], "tags": {"addr:housenumber": "175", "addr:street": "King Street West", "addr:unit": "D", "building": "retail", "name": "Uptown Meats & Deli", "shop": "butcher"}}, {"type": "way", "id": 673020496, "center": {"lat": 43.6404308, "lon": -79.5382247}, "nodes": [6302634267, 6302634270, 6302634271, 6302634268, 6302634267], "tags": {"addr:city": "Etobicoke", "addr:housenumber": "5230", "addr:street": "Dundas Street West", "building": "retail", "name": "M&M Food Market", "opendata:type": "115001", "shop": "butcher"}}, {"type": "way", "id": 682520561, "center": {"lat": 44.6047449, "lon": -75.71575}, "nodes": [6391808913, 6391808912, 6391808911, 6391808910, 6391808909, 6391808913], "tags": {"building": "yes", "name": "The Butcher Shop", "shop": "butcher"}}, {"type": "way", "id": 697227367, "center": {"lat": 50.2824567, "lon": -119.2604248}, "nodes": [6548441579, 6548441580, 6548441581, 6548441582, 6548441575, 6548441579], "tags": {"building": "yes", "name": "Helmut's Sausage Kitchen", "shop": "butcher"}}, {"type": "way", "id": 699152863, "center": {"lat": 48.4750696, "lon": -81.3390121}, "nodes": [6565452899, 6565452900, 6565452901, 6565452902, 6565452899], "tags": {"building": "yes", "name": "Debrowski's", "shop": "butcher"}}]}