{"version": 0.6, "generator": "Overpass API 0.7.55.7 8b86ff77", "osm3s": {"timestamp_osm_base": "2019-07-31T17:13:02Z", "timestamp_areas_base": "2019-07-31T16:22:02Z", "copyright": "The data included in this document is from www.openstreetmap.org. The data is made available under ODbL."}, "elements": [{"type": "node", "id": 289733466, "lat": 55.7390598, "lon": 12.5222432, "tags": {"fvst:navnelbnr": "100122226", "name": "Vangede Slagteren", "shop": "butcher"}}, {"type": "node", "id": 303812059, "lat": 55.4698037, "lon": 9.1021956, "tags": {"name": "Slagter Dam", "shop": "butcher"}}, {"type": "node", "id": 315362063, "lat": 55.6467521, "lon": 12.2987537, "tags": {"fvst:navnelbnr": "96040", "name": "Slagter Kruse", "shop": "butcher"}}, {"type": "node", "id": 341697316, "lat": 55.5480257, "lon": 10.4395893, "tags": {"name": "Slagtermester Bjarne Rasmussen", "shop": "butcher"}}, {"type": "node", "id": 386526348, "lat": 55.7545268, "lon": 9.852463, "tags": {"name": "Hornsyld Slagter", "shop": "butcher"}}, {"type": "node", "id": 413719119, "lat": 55.6624989, "lon": 12.5169458, "tags": {"name": "Tofteg\u00e5rds Slagteren", "shop": "butcher"}}, {"type": "node", "id": 467675611, "lat": 55.8626924, "lon": 9.8501588, "tags": {"name": "N\u00f8rregades slagterforretning", "opening_hours": "We-Fr 09:00-17:00; Sa 08:00-12:00", "shop": "butcher"}}, {"type": "node", "id": 475058135, "lat": 55.8622877, "lon": 9.8427621, "tags": {"fvst:navnelbnr": "732688", "name": "Beringsslagteren", "opening_hours": "Mo-Th 09:00-17:30; Fr 09:00-19:00; Sa 08:00-14:00", "shop": "butcher"}}, {"type": "node", "id": 494629511, "lat": 55.8602192, "lon": 9.8504027, "tags": {"fvst:navnelbnr": "71303", "name": "K\u00f8bmandsg\u00e5rden", "opening_hours": "Mo-Th 09:30-17:00; Fr 09:30-17:30", "shop": "butcher"}}, {"type": "node", "id": 496533580, "lat": 55.6989212, "lon": 12.5793326, "tags": {"description": "riginally and in essence this is a high-end organic butchery, but an ever growing popularity with locals have prompted the owners to branch out, and offer a Brunch, Lunch and a evening \"Dish of the Day\", centred around their high quality meat from organic", "fvst:navnelbnr": "511703", "name": "Gourmandiet", "opening_hours": "Mo-Th 11:00-18:00; Fr 11:00-19:00; Sa 10:00-15:00", "shop": "butcher", "website": "http://www.gourmandiet.dk/gourmandiet", "wheelchair": "no"}}, {"type": "node", "id": 565644219, "lat": 56.1725656, "lon": 10.1815778, "tags": {"shop": "butcher"}}, {"type": "node", "id": 725893740, "lat": 55.6689085, "lon": 12.5527382, "tags": {"name": "Halal Slagter Mustafa", "shop": "butcher"}}, {"type": "node", "id": 738821351, "lat": 55.6712683, "lon": 12.5448632, "tags": {"name": "Vesterbro Slagter", "shop": "butcher"}}, {"type": "node", "id": 775616897, "lat": 55.6403358, "lon": 12.0911725, "tags": {"fvst:navnelbnr": "95172", "name": "Algade Slagter", "shop": "butcher"}}, {"type": "node", "id": 792614338, "lat": 56.6146103, "lon": 8.8796088, "tags": {"name": "Slagtermesterinden Balling", "shop": "butcher"}}, {"type": "node", "id": 800684153, "lat": 55.6722123, "lon": 12.47361, "tags": {"fvst:navnelbnr": "96266", "name": "Damhusslagteren", "opening_hours": "Mo-Fr 10:00-17:30; Sa 09:00-14:00", "phone": "+45 36700218", "shop": "butcher", "website": "https://www.madmedmere-damhustorvet.dk/", "wheelchair": "no"}}, {"type": "node", "id": 814756215, "lat": 55.5336085, "lon": 11.4976598, "tags": {"name": "Mad med Mere", "operator": "Henrik Slagter", "shop": "butcher"}}, {"type": "node", "id": 835846383, "lat": 55.7848784, "lon": 12.3729864, "tags": {"name": "Slagter Lindhardt", "shop": "butcher"}}, {"type": "node", "id": 850879196, "lat": 57.5850946, "lon": 10.1893836, "tags": {"name": "Tversted Slagter", "shop": "butcher"}}, {"type": "node", "id": 859684076, "lat": 55.5940287, "lon": 12.6723321, "tags": {"name": "Den Lille Slagter", "opening_hours": "Tu-Fr 10:00-17:30; Sa 09:00-14:00", "phone": "+45 32538883", "shop": "butcher"}}, {"type": "node", "id": 1082195198, "lat": 55.7467228, "lon": 12.5408378, "tags": {"shop": "butcher"}}, {"type": "node", "id": 1116310130, "lat": 56.1466433, "lon": 10.2035361, "tags": {"fvst:navnelbnr": "47636", "name": "Slagter-riget", "shop": "butcher"}}, {"type": "node", "id": 1140715975, "lat": 55.2581115, "lon": 10.6728868, "tags": {"fvst:navnelbnr": "534065", "name": "Madv\u00e6rkstedet", "shop": "butcher", "website": "http://xn--mad-vrkstedet-7fb.dk/"}}, {"type": "node", "id": 1200039587, "lat": 55.6857186, "lon": 12.4915968, "tags": {"contact:facebook": "https://www.facebook.com/SlagterSteenKo/", "contact:website": "https://www.slagter-steen.dk/", "name": "Slagter Steen & Ko", "shop": "butcher"}}, {"type": "node", "id": 1200054274, "lat": 55.6962395, "lon": 12.5457858, "tags": {"butcher": "halal", "fvst:navnelbnr": "715375", "name": "Al Talal Slagter", "shop": "butcher"}}, {"type": "node", "id": 1224745120, "lat": 55.6724572, "lon": 12.5946262, "tags": {"fvst:navnelbnr": "500361", "name": "Thirion", "shop": "butcher", "wheelchair": "no"}}, {"type": "node", "id": 1247204435, "lat": 54.8296328, "lon": 11.1387638, "tags": {"fvst:navnelbnr": "86368", "name": "Slagter Friis", "shop": "butcher", "wheelchair": "yes"}}, {"type": "node", "id": 1316569360, "lat": 55.7147594, "lon": 10.0179225, "tags": {"name": "Juelsminde K\u00f8d", "shop": "butcher"}}, {"type": "node", "id": 1351495624, "lat": 55.7849377, "lon": 9.8533443, "tags": {"fvst:navnelbnr": "71472", "name": "Bjerre K\u00f8d", "shop": "butcher"}}, {"type": "node", "id": 1358972384, "lat": 55.664131, "lon": 12.60213, "tags": {"fvst:navnelbnr": "112731", "name": "P E Larsen", "shop": "butcher"}}, {"type": "node", "id": 1358996927, "lat": 55.66542, "lon": 12.608889, "tags": {"name": "Al Rasul Slagteri", "shop": "butcher"}}, {"type": "node", "id": 1361337896, "lat": 57.3713789, "lon": 9.7167313, "tags": {"fvst:navnelbnr": "25696", "name": "Slagter Dyrby", "phone": "+45 98991037", "shop": "butcher", "website": "https://www.slagterdyrby.dk/"}}, {"type": "node", "id": 1442599332, "lat": 55.1342695, "lon": 8.5488255, "tags": {"contact:email": "post@slagteroesta.dk", "name": "R\u00f8m\u00f8 Slagteren", "phone": "+45 29907516", "shop": "butcher", "website": "http://www.romoslagteren.dk/", "wheelchair": "no"}}, {"type": "node", "id": 1446270522, "lat": 55.846759, "lon": 12.4292576, "tags": {"email": "info@slagtermaltesen.dk", "name": "Slagter Maltesen", "payment:cash": "yes", "payment:credit_cards": "yes", "phone": "+4545851307", "shop": "butcher", "website": "https://slagtermaltesen.dk"}}, {"type": "node", "id": 1469180736, "lat": 55.6641359, "lon": 12.4402599, "tags": {"name": "Slagteren - Hos Mette og Jan", "shop": "butcher"}}, {"type": "node", "id": 1474557994, "lat": 55.6541168, "lon": 12.4013171, "tags": {"fvst:navnelbnr": "94498", "name": "Br\u00f8ndby Slagteren", "shop": "butcher"}}, {"type": "node", "id": 1489602670, "lat": 55.6829356, "lon": 12.5729885, "tags": {"name": "Slagteren I K\u00e6lderen", "shop": "butcher"}}, {"type": "node", "id": 1489608392, "lat": 55.682833, "lon": 12.57375, "tags": {"name": "Slagteren ved Kultorvet", "opening_hours": "Mo-Th 08:00-17:30; Fr 08:00-18:00; Sa 08:00-15:00; Su off", "shop": "butcher"}}, {"type": "node", "id": 1500698123, "lat": 55.3941183, "lon": 9.9677853, "tags": {"fvst:navnelbnr": "555720", "name": "Gelsted Slagteren", "opening_hours": "We-Th 09:00-17:00;Fr 09:00-18:00", "shop": "butcher", "wholesale": "yes"}}, {"type": "node", "id": 1508825648, "lat": 55.5402266, "lon": 11.2250246, "tags": {"name": "O A K\u00f8d v/O B Andersen", "shop": "butcher"}}, {"type": "node", "id": 1510686587, "lat": 55.4675319, "lon": 8.4520802, "tags": {"contact:website": "http://www.slagtertheilgaard.dk", "fvst:navnelbnr": "76507", "name": "Slagter Theilgaard", "shop": "butcher"}}, {"type": "node", "id": 1563276091, "lat": 55.6838181, "lon": 12.5690091, "tags": {"fvst:navnelbnr": "130733", "name": "Slagter Lund", "shop": "butcher", "wheelchair": "yes"}}, {"type": "node", "id": 1563276105, "lat": 55.6838573, "lon": 12.5690626, "tags": {"name": "Cleavers Meatmarket", "shop": "butcher", "wheelchair": "yes"}}, {"type": "node", "id": 1578425725, "lat": 55.4485759, "lon": 8.4060451, "tags": {"name": "Slagter Chistiansen", "shop": "butcher"}}, {"type": "node", "id": 1588219210, "lat": 56.4398769, "lon": 10.1418343, "tags": {"name": "Assentoft Slagterforretnig", "phone": "+4586494110", "shop": "butcher", "website": "https://www.assentoft-slagterforretning.dk/"}}, {"type": "node", "id": 1596392445, "lat": 56.9540801, "lon": 8.6823382, "tags": {"fvst:navnelbnr": "28437", "name": "Den Gamle Slagter", "shop": "butcher"}}, {"type": "node", "id": 1596398678, "lat": 56.957108, "lon": 8.6782371, "tags": {"name": "Slagteren p\u00e5 M\u00f8llevej", "shop": "butcher"}}, {"type": "node", "id": 1602601051, "lat": 55.9334613, "lon": 12.3196054, "tags": {"name": "ATGourmet", "shop": "butcher"}}, {"type": "node", "id": 1655794780, "lat": 55.6659032, "lon": 12.5125913, "tags": {"fvst:navnelbnr": "113882", "name": "Valby Slagteren", "shop": "butcher"}}, {"type": "node", "id": 1657465523, "lat": 55.6664851, "lon": 12.5199322, "tags": {"shop": "butcher"}}, {"type": "node", "id": 1672175138, "lat": 56.9508442, "lon": 8.370483, "tags": {"name": "Vorup\u00f8r Slagter", "shop": "butcher"}}, {"type": "node", "id": 1742780316, "lat": 55.7056007, "lon": 12.490827, "tags": {"shop": "butcher"}}, {"type": "node", "id": 1816715170, "lat": 55.5956374, "lon": 12.1756524, "tags": {"shop": "butcher"}}, {"type": "node", "id": 1842528725, "lat": 55.6676735, "lon": 11.3492478, "tags": {"fvst:navnelbnr": "761089", "name": "Bjergsted Slagteren", "shop": "butcher"}}, {"type": "node", "id": 1878049597, "lat": 55.8017633, "lon": 11.4419781, "tags": {"shop": "butcher"}}, {"type": "node", "id": 1889496298, "lat": 55.5388905, "lon": 9.7691139, "tags": {"name": "Strib Slagter", "shop": "butcher", "website": "https://www.slagteren-i-strib.dk/forside/"}}, {"type": "node", "id": 1920662976, "lat": 56.1360856, "lon": 8.9722135, "tags": {"fvst:navnelbnr": "40082", "name": "C.H.P. G\u00f8ttsche", "shop": "butcher"}}, {"type": "node", "id": 1939278500, "lat": 55.6633233, "lon": 12.4769711, "tags": {"name": "Mad med mere", "opening_hours": "Mo-Th 10:00-18:00, Fr 10:00-19:00, Sa 10:00-16:00", "phone": "+45 36 47 26 44", "shop": "butcher", "website": "https://mmm-centerslagteren.dk/"}}, {"type": "node", "id": 1991020231, "lat": 55.8706637, "lon": 12.3562929, "tags": {"fvst:navnelbnr": "90069", "name": "Mad Med Mere", "phone": "+45 48 17 22 50", "shop": "butcher", "website": "https://www.slagterrieck.dk/"}}, {"type": "node", "id": 2027829364, "lat": 55.9034091, "lon": 12.1544585, "tags": {"shop": "butcher"}}, {"type": "node", "id": 2070128468, "lat": 54.9134551, "lon": 9.7938417, "tags": {"name": "F\u00f8tex Slagteren", "shop": "butcher"}}, {"type": "node", "id": 2070129719, "lat": 54.9230098, "lon": 9.8062683, "tags": {"name": "Bilka Slagteren", "shop": "butcher"}}, {"type": "node", "id": 2149160762, "lat": 56.3902605, "lon": 9.8955607, "tags": {"name": "Bredgades Slagter i Lang\u00e5", "shop": "butcher"}}, {"type": "node", "id": 2156747358, "lat": 55.7145654, "lon": 11.7339237, "tags": {"shop": "butcher"}}, {"type": "node", "id": 2185743963, "lat": 55.6290652, "lon": 12.0777295, "tags": {"name": "Slagteriskolens udsalg", "shop": "butcher"}}, {"type": "node", "id": 2411556480, "lat": 55.9252307, "lon": 12.2186193, "tags": {"fvst:navnelbnr": "91157", "name": "Nordk\u00f8d", "phone": "+45 48 21 04 17", "shop": "butcher", "website": "http://nordkod.dk", "wholesale": "yes"}}, {"type": "node", "id": 2414314087, "lat": 56.0899028, "lon": 12.4551176, "tags": {"name": "Slagter Frederiksen", "shop": "butcher"}}, {"type": "node", "id": 2459241570, "lat": 56.4910721, "lon": 8.5788641, "tags": {"shop": "butcher", "toilets:wheelchair": "no", "wheelchair": "yes"}}, {"type": "node", "id": 2487483681, "lat": 55.6405619, "lon": 12.0753762, "tags": {"name": "Slagter Frimann", "opening_hours": "Mo off; Tu-Th 10:00-17:30; Fr 09:00-18:00; Sa 09:00-13:00", "shop": "butcher", "website": "https://www.slagterfrimann.dk/"}}, {"type": "node", "id": 2558361782, "lat": 55.3909719, "lon": 10.3937537, "tags": {"fvst:navnelbnr": "80969", "name": "All\u00e9g\u00e5rdens Slagter", "shop": "butcher"}}, {"type": "node", "id": 2610519931, "lat": 57.168278, "lon": 9.6831017, "tags": {"fvst:navnelbnr": "23424", "name": "R\u00e6vhede Naturprodukter", "shop": "butcher", "source": "Local knowledge"}}, {"type": "node", "id": 2631620593, "lat": 55.6980021, "lon": 12.5527233, "tags": {"fvst:navnelbnr": "117374", "name": "Svendsens Slagterbutik", "opening_hours": "We-Th 10:00-17:30; Fr 10:00-18:00; Sa 09:00-14:00", "shop": "butcher"}}, {"type": "node", "id": 2637881610, "lat": 55.3698022, "lon": 10.3607195, "tags": {"name": "Mesterslagteren", "shop": "butcher", "wheelchair": "no"}}, {"type": "node", "id": 2698755150, "lat": 55.6679311, "lon": 12.5794317, "tags": {"fvst:navnelbnr": "119118", "name": "Charcuteriet", "opening_hours": "Mo-Fr 11:00-18:00; Sa 10:00-14:00", "phone": "+45 32 57 06 09", "shop": "butcher", "website": "http://charcuteriet.dk"}}, {"type": "node", "id": 2732161987, "lat": 57.0880702, "lon": 9.2678326, "tags": {"fvst:navnelbnr": "734154", "name": "Slagter Palle", "shop": "butcher"}}, {"type": "node", "id": 2732412924, "lat": 55.158022, "lon": 8.769056, "tags": {"alt_name": "Mad med mere", "amenity": "deli", "fvst:navnelbnr": "125391", "name": "Peter Slawde", "shop": "butcher"}}, {"type": "node", "id": 2853515861, "lat": 55.9455772, "lon": 8.495827, "tags": {"fvst:navnelbnr": "40038", "name": "Slagter Kirkeby", "opening_hours": "Mo-Th 9:00-17:30; Fr 8:00-18:00; Sa 7:00-13:00", "phone": "+45 97 35 00 78", "shop": "butcher", "website": "https://www.slagterkirkeby.dk/"}}, {"type": "node", "id": 2906336615, "lat": 55.693693, "lon": 11.7483553, "tags": {"shop": "butcher"}}, {"type": "node", "id": 3068412558, "lat": 55.8424253, "lon": 12.0531385, "tags": {"fvst:navnelbnr": "550202", "name": "Frederikssund K\u00f8dmarked", "shop": "butcher", "website": "http://xn--frederikssundkdmarked-3fc.dk/", "wheelchair": "no"}}, {"type": "node", "id": 3072644661, "lat": 55.7790327, "lon": 8.2903915, "tags": {"name": "Slagter", "shop": "butcher"}}, {"type": "node", "id": 3179638839, "lat": 57.4448638, "lon": 10.509268, "tags": {"fvst:navnelbnr": "23734", "name": "Slagteren Suensonsvej", "shop": "butcher", "source": "survey"}}, {"type": "node", "id": 3206202076, "lat": 55.6635367, "lon": 12.3996574, "tags": {"fvst:navnelbnr": "577727", "name": "Glostrup Slagter", "shop": "butcher"}}, {"type": "node", "id": 3400078314, "lat": 57.59062, "lon": 9.955647, "tags": {"fvst:navnelbnr": "24252", "name": "Slagter Winther", "shop": "butcher"}}, {"type": "node", "id": 3402667620, "lat": 55.38721, "lon": 10.19209, "tags": {"name": "Skalleb\u00f8lle Slagterhus", "shop": "butcher"}}, {"type": "node", "id": 3402667637, "lat": 55.6241, "lon": 8.482403, "tags": {"name": "Slagteren mad med mere", "shop": "butcher"}}, {"type": "node", "id": 3402668635, "lat": 56.0946647, "lon": 9.548033, "tags": {"name": "Them Slagtermarked", "shop": "butcher"}}, {"type": "node", "id": 3402668994, "lat": 55.0477701, "lon": 10.6154579, "tags": {"name": "Vindeby Slagteren", "shop": "butcher"}}, {"type": "node", "id": 3402669033, "lat": 55.45941, "lon": 9.875401, "tags": {"name": "\u00d8stergades Slagterforretning", "shop": "butcher"}}, {"type": "node", "id": 3404321190, "lat": 55.67826, "lon": 12.4969, "tags": {"fvst:navnelbnr": "111034", "name": "Slagter Lund", "shop": "butcher", "website": "http://www.slagter-lund.dk"}}, {"type": "node", "id": 3404342740, "lat": 55.6704523, "lon": 11.7425965, "tags": {"name": "Vipper\u00f8d Slagteren", "shop": "butcher"}}, {"type": "node", "id": 3404342874, "lat": 55.67104, "lon": 12.56129, "tags": {"fvst:navnelbnr": "517509", "name": "Slagter Ali Baba", "shop": "butcher"}}, {"type": "node", "id": 3404342876, "lat": 55.71479, "lon": 11.71611, "tags": {"name": "Slagterg\u00e5rden", "shop": "butcher"}}, {"type": "node", "id": 3404449319, "lat": 56.55056, "lon": 9.109883, "tags": {"name": "H\u00f8jslev slagter", "shop": "butcher"}}, {"type": "node", "id": 3404449358, "lat": 56.6433284, "lon": 8.8080767, "tags": {"name": "Slagter", "opening_hours": "Mo-Th 08:00-17:00; Fr 08:00-18:00; Sa 08:00-12:00", "shop": "butcher"}}, {"type": "node", "id": 3452280616, "lat": 55.5555652, "lon": 8.1360424, "tags": {"fvst:navnelbnr": "504292", "name": "Slagter Theilgaard", "phone": "+45 7547 1011", "shop": "butcher", "website": "https://www.slagtertheilgaard.dk/"}}, {"type": "node", "id": 3488518168, "lat": 55.8142934, "lon": 12.379384, "tags": {"fvst:navnelbnr": "93448", "name": "Slagter Jesper", "shop": "butcher", "wheelchair": "yes"}}, {"type": "node", "id": 3643157684, "lat": 54.9523236, "lon": 9.770713, "tags": {"fvst:navnelbnr": "526625", "name": "R\u00f8nhaveslagteren", "opening_hours": "Tu-Fr 08:30-17:00, Sa 09:00-13:00", "operator": "Sune Hansen", "shop": "butcher"}}, {"type": "node", "id": 3649652929, "lat": 54.9635799, "lon": 8.6941313, "tags": {"fvst:navnelbnr": "77906", "name": "Marsk P\u00f8lser", "note": "Sausages", "opening_hours": "Tu-Fr 8:00-17:30; Sa 8:00-12:00", "phone": "+45 7478 2221", "shop": "butcher", "website": "http://marskpolser.dk/"}}, {"type": "node", "id": 3659148935, "lat": 55.693349, "lon": 12.5553178, "tags": {"fvst:navnelbnr": "129708", "name": "Guldberg Slagter", "opening_hours": "Tu-Th 11:00-18:00; Fr 11:00-19:00; Sa 10:00-15:00; Su-Mo off", "shop": "butcher"}}, {"type": "node", "id": 3723048602, "lat": 55.5845721, "lon": 12.6537787, "tags": {"shop": "butcher"}}, {"type": "node", "id": 3758888511, "lat": 54.689253, "lon": 11.9656349, "tags": {"fvst:navnelbnr": "87050", "name": "Schou's", "opening_hours": "Mo-Sa 09:00-18:00; Su 09:00-14:00", "phone": "+45 54136271", "shop": "butcher"}}, {"type": "node", "id": 3802593257, "lat": 56.7043728, "lon": 8.2176323, "tags": {"name": "Byskov K\u00f8d", "phone": "+45 97831020", "shop": "butcher"}}, {"type": "node", "id": 3825324957, "lat": 55.308139, "lon": 12.2018784, "tags": {"name": "Livsnyder og Bonder\u00f8v", "phone": "+45 31601338", "shop": "butcher"}}, {"type": "node", "id": 3872239937, "lat": 55.0737529, "lon": 10.6095687, "tags": {"access": "private", "fvst:name": "SVENDBORG SLAGTEHUS A/S, slagteri", "fvst:navnelbnr": "79435", "name": "Svendborg Slagtehus", "shop": "butcher"}}, {"type": "node", "id": 3927603705, "lat": 55.383085, "lon": 10.4276678, "tags": {"name": "Slagteren", "shop": "butcher"}}, {"type": "node", "id": 3950763449, "lat": 55.4864106, "lon": 9.476854, "tags": {"fvst:fixme": "fvst:no_pos", "fvst:navnelbnr": "571122", "name": "Christian Vollstedt", "shop": "butcher"}}, {"type": "node", "id": 4010772287, "lat": 55.6488898, "lon": 12.0904777, "tags": {"name": "Kongebakkens Slagter", "shop": "butcher"}}, {"type": "node", "id": 4066459337, "lat": 55.7174196, "lon": 12.4885587, "tags": {"butcher": "halal", "shop": "butcher"}}, {"type": "node", "id": 4115228534, "lat": 56.5736952, "lon": 8.1386612, "tags": {"fvst:navnelbnr": "40204", "name": "Vejlby Klit Supermarked Slagter", "shop": "butcher"}}, {"type": "node", "id": 4150774195, "lat": 57.03604, "lon": 9.883468, "tags": {"name": "Slagteren Hasseris", "shop": "butcher"}}, {"type": "node", "id": 4180963290, "lat": 55.6971251, "lon": 12.5443766, "tags": {"butcher": "halal", "name": "Alhoda Slagter", "opening_hours": "Mo-Th 09:00-17:30; Fr 09:00-18:00; Sa 09:00-14:30", "shop": "butcher"}}, {"type": "node", "id": 4278250593, "lat": 54.9106109, "lon": 9.790876, "tags": {"fvst:navnelbnr": "77816", "name": "Slagter Franke", "phone": "+45 74422403", "shop": "butcher"}}, {"type": "node", "id": 4317398096, "lat": 56.1718418, "lon": 10.2142, "tags": {"fvst:navnelbnr": "532151", "name": "K\u00f8dstaden", "opening_hours": "09:00-17:30; Sa 09:00-13:00; Su,PH off", "shop": "butcher", "website": "http://k\u00f8dstaden.dk"}}, {"type": "node", "id": 4321444132, "lat": 55.2393613, "lon": 10.4804615, "tags": {"name": "Ringe Slagter", "shop": "butcher"}}, {"type": "node", "id": 4387037188, "lat": 55.7010839, "lon": 12.540592, "tags": {"fvst:navnelbnr": "635013", "name": "Orientens Islamiske Slagter", "opening_hours": "Mo-Fr 09:00-18:00; Sa 09:00-17:00", "phone": "+45 35838926", "shop": "butcher"}}, {"type": "node", "id": 4394442989, "lat": 55.5122013, "lon": 12.1378034, "tags": {"shop": "butcher"}}, {"type": "node", "id": 4403633189, "lat": 55.7050887, "lon": 12.475031, "tags": {"email": "Ronny.westgaard@icloud.com", "internet_access": "wlan", "name": "Home", "opening_hours": "Sa 14:00-20:00", "phone": "+45 50286635", "shop": "butcher"}}, {"type": "node", "id": 4425397410, "lat": 55.6698786, "lon": 12.5553678, "tags": {"butcher": "halal", "fvst:navnelbnr": "117016", "name": "Demirhan Slagter", "shop": "butcher"}}, {"type": "node", "id": 4428859444, "lat": 54.9250562, "lon": 9.9042841, "tags": {"fvst:navnelbnr": "77824", "name": "Als P\u00f8lser", "shop": "butcher", "website": "http://alspolser.dk/"}}, {"type": "node", "id": 4530917715, "lat": 56.1465513, "lon": 10.2106649, "tags": {"fvst:navnelbnr": "43510", "name": "\u00c5rhus Slagtehus A/S", "shop": "butcher", "wholesale": "yes"}}, {"type": "node", "id": 4535478664, "lat": 55.6376216, "lon": 12.0839952, "tags": {"fvst:name": "Sultan Restaurant Slagter", "fvst:navnelbnr": "665729", "name": "Sultan", "shop": "butcher"}}, {"type": "node", "id": 4554070624, "lat": 55.007305, "lon": 9.441282, "tags": {"fvst:navnelbnr": "558127", "name": "Slagter Hilbig", "shop": "butcher"}}, {"type": "node", "id": 4616711800, "lat": 55.4564479, "lon": 12.1823606, "tags": {"fvst:navnelbnr": "97785", "name": "Torveslagteren Stade K\u00f8ge Torv", "shop": "butcher"}}, {"type": "node", "id": 4646133527, "lat": 56.0373725, "lon": 12.6012496, "tags": {"name": "Artic food", "phone": "+45 21563610", "shop": "butcher", "website": "http://arcticfood.dk/"}}, {"type": "node", "id": 4665416721, "lat": 56.1050904, "lon": 8.9797839, "tags": {"fvst:navnelbnr": "721755", "name": "Slagter Bjerg", "shop": "butcher", "website": "http://www.slagterbjerg.dk/"}}, {"type": "node", "id": 4684926995, "lat": 56.342906, "lon": 8.343675, "tags": {"fvst:navnelbnr": "39960", "name": "Vemb Slagter", "shop": "butcher"}}, {"type": "node", "id": 4693523354, "lat": 55.7531953, "lon": 12.5721062, "tags": {"craft": "caterer", "fvst:navnelbnr": "96697", "name": "Le Buffet", "opening_hours": "Mo-Su,PH 11:00-20:00", "shop": "butcher", "website": "http://www.lebuffet.dk/"}}, {"type": "node", "id": 4704334787, "lat": 55.5088537, "lon": 8.4068888, "tags": {"fvst:navnelbnr": "565131", "name": "Erik jensen slagterforretning Kantine", "shop": "butcher"}}, {"type": "node", "id": 4705262120, "lat": 56.145133, "lon": 10.2012954, "tags": {"name": "Odensegades Sm\u00f8rrebr\u00f8d", "opening_hours": "Mo-Th 06:00-15:00; Fr 06:00-13:30", "phone": "+45 86123970", "shop": "butcher"}}, {"type": "node", "id": 4730470757, "lat": 55.5848125, "lon": 11.3260128, "tags": {"fvst:navnelbnr": "88182", "name": "Selchausdal Gods", "shop": "butcher", "website": "http://www.selchausdal.dk/", "wholesale": "yes"}}, {"type": "node", "id": 4730956587, "lat": 55.3941073, "lon": 9.9677749, "tags": {"fvst:navnelbnr": "552811", "name": "Gelsted Slagteren", "opening_hours": "We-Th 09:00-17:00;Fr 09:00-18:00", "shop": "butcher"}}, {"type": "node", "id": 4735659497, "lat": 55.2306336, "lon": 11.7626738, "tags": {"bazar": "chinese", "fvst:name": "N\u00e6stved-Bazar IVS", "fvst:navnelbnr": "745599", "name": "N\u00e6stved Bazar", "shop": "butcher"}}, {"type": "node", "id": 4783212021, "lat": 55.6691055, "lon": 12.5587033, "tags": {"amenity": "restaurant", "fvst:navnelbnr": "565197", "name": "Fleisch", "opening_hours": "Mo-Th 11:30-00:00; Fr-Sa 11:30-01:00; Su 10:00-23:00", "shop": "butcher", "website": "http://fleisch.dk"}}, {"type": "node", "id": 4786923937, "lat": 55.1914438, "lon": 9.0640228, "tags": {"alt_name": "Slagter Pop", "fvst:navnelbnr": "77933", "name": "Mad med mere", "shop": "butcher"}}, {"type": "node", "id": 4802376810, "lat": 55.4722507, "lon": 8.4703878, "tags": {"facebook": "https://www.facebook.com/SlagterErikJensen/", "name": "Slagter Erik Jensen", "shop": "butcher"}}, {"type": "node", "id": 4831787023, "lat": 55.2971218, "lon": 10.2303387, "tags": {"name": "Verningelund", "shop": "butcher", "website": "http://verningelund.dk"}}, {"type": "node", "id": 4871978819, "lat": 55.7095524, "lon": 9.6075099, "tags": {"shop": "butcher"}}, {"type": "node", "id": 4878387275, "lat": 57.0809052, "lon": 10.2559157, "tags": {"fvst:navnelbnr": "740040", "name": "net slagter ulsted", "shop": "butcher"}}, {"type": "node", "id": 4886198253, "lat": 55.6818731, "lon": 12.5497582, "tags": {"name": "Slagter Lars", "shop": "butcher"}}, {"type": "node", "id": 4886867570, "lat": 57.2752246, "lon": 9.6986755, "tags": {"fvst:navnelbnr": "26709", "name": "Mesterslagteren", "shop": "butcher", "source": "Kaart Ground Survey 2017"}}, {"type": "node", "id": 4888541453, "lat": 55.7626764, "lon": 12.5766611, "tags": {"name": "Slagteren", "shop": "butcher", "source": "Kaart Ground Survey 2017"}}, {"type": "node", "id": 4960520025, "lat": 55.6805944, "lon": 11.0882701, "tags": {"name": "Slagter Jacob", "opening_hours": "Tu-Th 09:30-17:30; Fr 09:30-18:00; Sa 09:00-14:00", "shop": "butcher"}}, {"type": "node", "id": 5270748586, "lat": 55.8589419, "lon": 9.8428401, "tags": {"fvst:name": "Horsens mini bazar slagter", "fvst:navnelbnr": "698068", "name": "Horsens Mini Bazar", "shop": "butcher"}}, {"type": "node", "id": 5299058431, "lat": 56.4227008, "lon": 10.9029786, "tags": {"fvst:navnelbnr": "45928", "name": "Gren\u00e5 Slagtehus", "shop": "butcher", "wholesale": "yes"}}, {"type": "node", "id": 5304917896, "lat": 55.1219362, "lon": 12.0386176, "tags": {"fvst:name": "Meny Pr\u00e6st\u00f8 Slagter", "fvst:navnelbnr": "732308", "name": "Meny Pr\u00e6st\u00f8 Slagter", "operator": "MENY", "shop": "butcher"}}, {"type": "node", "id": 5338683120, "lat": 55.4478477, "lon": 12.1659028, "tags": {"fvst:navnelbnr": "737792", "name": "Boholte Slagter", "shop": "butcher"}}, {"type": "node", "id": 5356812905, "lat": 55.5162104, "lon": 8.4630467, "tags": {"fvst:name": "Slagter Theilgaard Bod", "fvst:navnelbnr": "571778", "name": "Slagter Theilgaard", "shop": "butcher"}}, {"type": "node", "id": 5418830354, "lat": 57.095903, "lon": 9.523937, "tags": {"fvst:navnelbnr": "700758", "name": "Slagter br\u00f8ndum", "shop": "butcher"}}, {"type": "node", "id": 5546190580, "lat": 55.3795149, "lon": 10.048497, "tags": {"addr:city": "Aarup", "addr:housenumber": "57", "addr:postcode": "5560", "addr:street": "Bredgade", "facebook": "https://www.facebook.com/FynsGourmetkoed/", "fvst:navnelbnr": "738259", "name": "Fyns Gourmetk\u00f8d", "phone": "+45 61 55 60 99", "shop": "butcher"}}, {"type": "node", "id": 5628383086, "lat": 55.6215171, "lon": 12.4223839, "tags": {"name": "Vestegnens Bazar Halal-Slagter", "shop": "butcher"}}, {"type": "node", "id": 5678435729, "lat": 56.1481585, "lon": 10.2032911, "tags": {"name": "Slagter Theilgaard", "shop": "butcher"}}, {"type": "node", "id": 5698694988, "lat": 56.1582198, "lon": 10.19773, "tags": {"fvst:navnelbnr": "560267", "name": "Vesterbroslagter", "shop": "butcher"}}, {"type": "node", "id": 5753958422, "lat": 56.0888668, "lon": 8.2458985, "tags": {"name": "Iversen & S\u00f8n", "shop": "butcher"}}, {"type": "node", "id": 5842457720, "lat": 55.5817775, "lon": 12.294674, "tags": {"name": "Centerslagteren", "opening_hours": "Mo-Th 10:00-18:00; Fr 10:00-19:00; Sa 10:00-15:00", "shop": "butcher", "website": "https://www.centerslagteren-greve.dk", "wheelchair": "yes"}}, {"type": "node", "id": 5910101322, "lat": 55.6677226, "lon": 11.3491626, "tags": {"fvst:navnelbnr": "762830", "name": "Bjergsted Slagteren", "shop": "butcher", "wholesale": "yes"}}, {"type": "node", "id": 5922409684, "lat": 57.1829904, "lon": 10.1601514, "tags": {"fvst:navnelbnr": "21554", "name": "Hjallerup Slagtehus", "phone": "+45 40403754", "shop": "butcher", "wholesale": "yes"}}, {"type": "node", "id": 5938980721, "lat": 56.4227777, "lon": 10.9028926, "tags": {"fvst:navnelbnr": "43892", "name": "Gren\u00e5 Slagtehus - detail", "shop": "butcher"}}, {"type": "node", "id": 5962643850, "lat": 57.4753159, "lon": 10.4830196, "tags": {"shop": "butcher"}}, {"type": "node", "id": 5962643867, "lat": 56.3611491, "lon": 8.6131069, "tags": {"shop": "butcher"}}, {"type": "node", "id": 6070565037, "lat": 57.3868765, "lon": 10.1118673, "tags": {"fvst:navnelbnr": "763889", "name": "T\u00e5rs Slagtehus", "phone": "+45 98961095", "shop": "butcher", "website": "http://taarsslagtehus.dk/"}}, {"type": "node", "id": 6176378585, "lat": 55.7932301, "lon": 12.5123267, "tags": {"name": "JM K\u00f8d", "opening_hours": "We-Fr 07:00-17:00", "shop": "butcher", "website": "http://www.jmmeat.dk/"}}, {"type": "node", "id": 6179459127, "lat": 55.7565176, "lon": 12.4918378, "tags": {"name": "K\u00f8dbilen", "shop": "butcher", "website": "https://www.kodbilen.dk/"}}, {"type": "node", "id": 6246362109, "lat": 56.9677388, "lon": 9.252516, "tags": {"name": "Mesterslagteren", "shop": "butcher"}}, {"type": "node", "id": 6309272178, "lat": 55.6745402, "lon": 12.6175042, "tags": {"name": "BUTCHER\u2019S MANIFESTO", "shop": "butcher", "website": "http://butchersmanifesto.com/"}}, {"type": "node", "id": 6402344492, "lat": 55.942026, "lon": 11.752973, "tags": {"name": "R\u00f8rvig slagteren", "shop": "butcher"}}, {"type": "node", "id": 6558109663, "lat": 55.6678578, "lon": 12.5446942, "tags": {"name": "Slagter deli", "shop": "butcher"}}, {"type": "node", "id": 6619231388, "lat": 55.5055947, "lon": 9.7307402, "tags": {"level": "0", "name": "Mad med mere", "opening_hours": "Tu-Th 09:30-17:30; Fr 09:30-18:00; Sa 07:30-13:00; PH closed", "shop": "butcher", "wheelchair": "no"}}, {"type": "node", "id": 6634222126, "lat": 56.0570573, "lon": 12.1548428, "tags": {"addr:housenumber": "14", "addr:postcode": "3210", "addr:street": "Farverg\u00e5rdsvej", "name": "K\u00f8dsnedkeren", "shop": "butcher", "website": "http://www.koedsnedkeren.dk/"}}, {"type": "node", "id": 279690428, "lat": 55.6753288, "lon": 12.5458365, "tags": {"fvst:navnelbnr": "635381", "name": "Meyer's Deli", "opening_hours": "08:00-22:00", "phone": "+45 33254595", "shop": "deli", "takeaway": "yes", "website": "https://www.meyersmad.dk/spis-ude/deli/gl.-kongevej/", "wheelchair": "no"}}, {"type": "node", "id": 1299399904, "lat": 55.4888564, "lon": 9.4730236, "tags": {"name": "The Huset", "shop": "deli"}}, {"type": "node", "id": 1416112760, "lat": 55.8616583, "lon": 9.8454004, "tags": {"cuisine": "italian", "name": "Made in Italy", "shop": "deli"}}, {"type": "node", "id": 1437277172, "lat": 55.7121416, "lon": 12.5596905, "tags": {"diet:kosher": "only", "name": "Copenhagen Kosher & Deli", "shop": "deli", "source": "local_knowledge"}}, {"type": "node", "id": 1630106071, "lat": 55.677993, "lon": 12.588585, "tags": {"cuisine": "sm\u00f8rrebr\u00f8d", "fvst:navnelbnr": "659464", "name": "Le Sm\u00f8rrebr\u00f8d", "shop": "deli"}}, {"type": "node", "id": 1671556103, "lat": 55.6876064, "lon": 9.5516467, "tags": {"name": "Vindingg\u00e5rd mad og vin", "opening_hours": "Mo-Th 09:00-17:30; Fr 09:00-18:00; Sa 09:00-13:00", "shop": "deli", "website": "http://www.vindinggaardmadogvin.dk/"}}, {"type": "node", "id": 2374770193, "lat": 55.8548741, "lon": 11.9955429, "tags": {"cuisine": "sm\u00f8rrebr\u00f8d", "fvst:navnelbnr": "108874", "name": "Sm\u00f8rrebrodsbixen", "shop": "deli", "website": "http://www.smorrebrodsbixen.dk/", "wheelchair": "no"}}, {"type": "node", "id": 2877214938, "lat": 56.1198862, "lon": 10.1911814, "tags": {"name": "Mr Mums", "shop": "deli"}}, {"type": "node", "id": 2900299317, "lat": 56.1606334, "lon": 8.1231793, "tags": {"email": "hounsgrd@yahoo.dk", "fixme": "Hjemmesiden virker til at v\u00e6re overtaget af folk helt uden relevante interesser. Eksisterer stedet stadig?", "name": "Vestkystens G\u00e5rdbutik", "opening_hours": "Mo-Su 10:00-18:00", "phone": "+45 97331599", "shop": "deli", "website": "https://www.vestkystensgaardbutik.dk/"}}, {"type": "node", "id": 2969568696, "lat": 55.3114703, "lon": 10.7906478, "tags": {"name": "Fru Hansen", "shop": "deli"}}, {"type": "node", "id": 3404342540, "lat": 54.98323, "lon": 12.28426, "tags": {"name": "M\u00f8ns Handelshus", "opening_hours": "Tu-Fr 10:00-17:00; Sa 10:00 - 13:00", "shop": "deli"}}, {"type": "node", "id": 3464969549, "lat": 55.8272605, "lon": 12.4304881, "tags": {"alt_name": "Bistrup Sm\u00f8rrebr\u00f8d", "cuisine": "Dansk_mad", "fvst:navnelbnr": "523389", "name": "Connies K\u00f8kken", "opening_hours": "Mo-Fr 06:30-19:00; Su,PH 12:00-19:00", "phone": "+45 22236699", "shop": "deli", "takeaway": "yes", "website": "http://www.connies-mad.dk/"}}, {"type": "node", "id": 3649652934, "lat": 54.9346551, "lon": 8.866526, "tags": {"name": "L\u00e6kkeriet", "shop": "deli"}}, {"type": "node", "id": 3666065992, "lat": 55.6548541, "lon": 12.411892, "tags": {"alt_name": "Sm\u00f8rrebr\u00f8d v/Susanne Larsen", "cuisine": "sm\u00f8rrebr\u00f8d", "fvst:navnelbnr": "566062", "name": "Sanne\u00b4s Sm\u00f8rrebr\u00f8d", "phone": "+4521292088", "shop": "deli", "source": "survey"}}, {"type": "node", "id": 3706380301, "lat": 55.3198739, "lon": 15.1852856, "tags": {"name": "Ruths Sild", "shop": "deli"}}, {"type": "node", "id": 3792169666, "lat": 55.6953473, "lon": 12.5438961, "tags": {"amenity": "fast_food", "fvst:navnelbnr": "116291", "name": "Stefanos Delikatesser", "phone": "+45 36906058", "shop": "deli", "wheelchair": "no"}}, {"type": "node", "id": 3801045202, "lat": 55.973619, "lon": 11.3601833, "tags": {"fvst:name": "SOF-ODDEN CAVIAR R\u00f8geri", "fvst:navnelbnr": "713873", "name": "Odden R\u00f8geri Detail", "opening_hours": "Jun-Aug", "shop": "deli"}}, {"type": "node", "id": 3872240463, "lat": 55.6962502, "lon": 12.5802407, "tags": {"cuisine": "italian", "fvst:navnelbnr": "112439", "name": "Spaghetti Martelli", "phone": "\u200b+45 35438080", "shop": "deli", "website": "https://www.spaghetti-martelli.dk/"}}, {"type": "node", "id": 3872240464, "lat": 55.7006099, "lon": 12.5796947, "tags": {"fvst:navnelbnr": "755850", "name": "Rosetta Delikatesser", "opening_hours": "Mo-Th 10:30-21:00, Sa 10:30-19:00, Su 11:30-21:00", "shop": "deli", "wheelchair": "no"}}, {"type": "node", "id": 3946846859, "lat": 55.060695, "lon": 10.612048, "tags": {"fvst:navnelbnr": "575699", "name": "Madmarked Svendborg", "shop": "deli", "website": "http://www.madmarked.net/butikker/svendborg/"}}, {"type": "node", "id": 3957253550, "lat": 56.155182, "lon": 10.1986677, "tags": {"cuisine": "caviar", "fvst:navnelbnr": "572012", "name": "Caviar & Co", "shop": "deli", "website": "https://www.caviarco.dk/"}}, {"type": "node", "id": 3987166036, "lat": 55.7223138, "lon": 12.5778485, "tags": {"fvst:navnelbnr": "552049", "name": "Cph Deli", "shop": "deli"}}, {"type": "node", "id": 3989110701, "lat": 55.70868, "lon": 12.538998, "tags": {"cuisine": "italian", "fvst:navnelbnr": "117119", "name": "Fabios Delikatesse", "shop": "deli", "takeaway": "yes"}}, {"type": "node", "id": 3998934133, "lat": 55.6523113, "lon": 12.6114232, "tags": {"cuisine": "sm\u00f8rrebr\u00f8d", "fvst:navnelbnr": "569024", "name": "Frokostcafeen IVS", "shop": "deli", "takeaway": "yes", "website": "http://www.frokostcafeen.dk/"}}, {"type": "node", "id": 4005008464, "lat": 55.695913, "lon": 12.5805415, "tags": {"fvst:navnelbnr": "564756", "name": "Homemate Lille Trianglen", "shop": "deli", "website": "http://www.homemate.dk/"}}, {"type": "node", "id": 4007924193, "lat": 55.6790642, "lon": 12.5290844, "tags": {"cuisine": "sm\u00f8rrebr\u00f8d", "fvst:navnelbnr": "564009", "name": "Caf\u00e9 Smallegade", "opening_hours": "Mo-Fr 09:00-18:00; Sa 08:00-18:00; Su 09:00-16:00; We off", "phone": "+45 91626243", "shop": "deli"}}, {"type": "node", "id": 4010329498, "lat": 55.6819112, "lon": 12.5497831, "tags": {"fvst:navnelbnr": "547037", "name": "Evergreens Deli", "opening_hours": "Mo-Fr 10:00-18:00; Sa-Su off", "phone": "+45 35358535", "shop": "deli", "website": "http://www.evergreensdeli.dk/"}}, {"type": "node", "id": 4012790868, "lat": 55.6722969, "lon": 12.5561298, "tags": {"fvst:navnelbnr": "559855", "name": "Fredcos Deli", "opening_hours": "10:30-20:00; Sa 11:00-17:00; Su off", "shop": "deli", "website": "http://www.fredco.dk/", "wheelchair": "no"}}, {"type": "node", "id": 4018777299, "lat": 55.6766816, "lon": 12.5745801, "tags": {"fvst:navnelbnr": "790872", "name": "Mums Deli", "opening_hours": "mo-fr 09:00-16:30; sa 11:00-16:00", "shop": "deli", "takeaway": "yes"}}, {"type": "node", "id": 4022822866, "lat": 55.564765, "lon": 9.756839, "tags": {"fvst:navnelbnr": "569242", "name": "Ingen dikke dar", "opening_hours": "09:00-16:00,Fr 09:00-16:00,21:00-04:00, Sa 10:00-15:00,21:00-04:00", "phone": "+45 27210183", "shop": "deli"}}, {"type": "node", "id": 4023566811, "lat": 55.4429287, "lon": 8.4018062, "tags": {"amenity": "cafe", "fvst:navnelbnr": "717618", "name": "Rudbecks I/S", "opening_hours": "10:00-17:30; Sa 10:00-15:00; We,Su,PH off", "phone": "+45 24938505", "shop": "deli", "website": "http://www.rudbecks.dk/"}}, {"type": "node", "id": 4078021206, "lat": 56.134653, "lon": 8.979839, "tags": {"fvst:navnelbnr": "710239", "name": "Aroma", "shop": "deli", "website": "http://www.aromaherning.dk/"}}, {"type": "node", "id": 4286123311, "lat": 56.215271, "lon": 10.281919, "tags": {"fvst:navnelbnr": "653708", "name": "Things Deli & Takeaway", "shop": "deli", "takeaway": "yes"}}, {"type": "node", "id": 4333065203, "lat": 55.6730855, "lon": 12.5498817, "tags": {"cuisine": "sandwich", "fvst:navnelbnr": "114790", "name": "Le Gourmand", "opening_hours": "11:00-18:00; Fr 11:00-16:30; Sa 10:00-15:00; Su off", "phone": "+45 33262025", "shop": "deli", "website": "http://www.legourmand.dk/", "wheelchair": "no"}}, {"type": "node", "id": 4333192575, "lat": 55.6833853, "lon": 12.536701, "tags": {"cuisine": "spanish", "drink:wine": "retail", "fvst:navnelbnr": "576748", "name": "Por Qu\u00e9 No", "phone": "+45 26205540", "shop": "deli"}}, {"type": "node", "id": 4338574986, "lat": 55.6838797, "lon": 12.569019, "tags": {"fvst:navnelbnr": "111027645", "name": "Del Toro", "shop": "deli", "wheelchair": "yes"}}, {"type": "node", "id": 4346513131, "lat": 55.4657497, "lon": 11.9433806, "tags": {"name": "Mosehuset", "phone": "+45 57526242", "shop": "deli", "source": "Bing", "website": "http://www.mosehuset.dk/"}}, {"type": "node", "id": 4347327930, "lat": 55.9731148, "lon": 9.6117188, "tags": {"name": "Fru Skov", "shop": "deli"}}, {"type": "node", "id": 4381274439, "lat": 54.910094, "lon": 9.7903082, "tags": {"alt_name": "Alverdens oste", "name": "Osten", "phone": "+45 74434211", "shop": "deli"}}, {"type": "node", "id": 4396172780, "lat": 55.6283872, "lon": 12.6481235, "tags": {"name": "FineFood", "shop": "deli"}}, {"type": "node", "id": 4396172781, "lat": 55.6289596, "lon": 12.6458571, "tags": {"name": "FineFood", "shop": "deli"}}, {"type": "node", "id": 4441343517, "lat": 56.2011657, "lon": 10.6806621, "tags": {"fvst:navnelbnr": "547388", "name": "Caf\u00e9 Walter", "phone": "+45 86344331", "shop": "deli", "website": "https://hos-walter.dk/"}}, {"type": "node", "id": 4462369395, "lat": 55.2735798, "lon": 8.539096, "tags": {"fvst:name": "Mand\u00f8 Event Dagligvarer", "fvst:navnelbnr": "547710", "name": "Mand\u00f8 Landhandel", "office": "guide", "shop": "deli", "website": "http://mandoevent.dk/mandoe-landhandel/"}}, {"type": "node", "id": 4475049126, "lat": 57.0883433, "lon": 9.2657252, "tags": {"amenity": "ice_cream", "fvst:navnelbnr": "647485", "name": "L\u00e6kkerier", "shop": "deli", "website": "http://www.xn--lkkerier-fjerritslev-i0b.dk/"}}, {"type": "node", "id": 4479105879, "lat": 55.7676339, "lon": 12.5024963, "tags": {"fvst:fixme": "wrong location in fvst", "fvst:navnelbnr": "540434", "name": "Gordion Sm\u00f8rrebr\u00f8d & Delikatesse", "shop": "deli", "website": "https://www.gordions.dk/smrrebrd"}}, {"type": "node", "id": 4489858274, "lat": 57.592558, "lon": 10.41241, "tags": {"fvst:navnelbnr": "666498", "name": "Borups L\u00e6kkerier", "shop": "deli", "website": "http://www.borupsaalbaek.dk/"}}, {"type": "node", "id": 4503162947, "lat": 55.6663479, "lon": 12.5546254, "tags": {"email": "info@ankerchokolade.dk", "facebook": "https://www.facebook.com/ankerchokolade/", "name": "Anker Chokolade", "phone": "+45 28864188", "shop": "deli", "website": "https://www.ankerchokolade.dk/"}}, {"type": "node", "id": 4516207655, "lat": 55.5134157, "lon": 10.3996306, "tags": {"fvst:navnelbnr": "634913", "name": "Meny Delikatesse", "shop": "deli"}}, {"type": "node", "id": 4516653659, "lat": 55.3907892, "lon": 10.3877934, "tags": {"cuisine": "sm\u00f8rrebr\u00f8d", "fvst:navnelbnr": "574728", "name": "AC Deli", "shop": "deli"}}, {"type": "node", "id": 4530910247, "lat": 55.7954325, "lon": 12.4745896, "tags": {"fvst:navnelbnr": "714580", "name": "MENY Virum Delikatesse", "shop": "deli"}}, {"type": "node", "id": 4538345392, "lat": 55.6898582, "lon": 12.5750133, "tags": {"cuisine": "sm\u00f8rrebr\u00f8d", "fvst:navnelbnr": "761689", "name": "Aamanns", "shop": "deli", "website": "https://aamanns.dk/"}}, {"type": "node", "id": 4540246443, "lat": 56.1582013, "lon": 10.2121386, "tags": {"fvst:navnelbnr": "43707", "name": "IL Mercatino", "shop": "deli"}}, {"type": "node", "id": 4549175775, "lat": 55.710192, "lon": 12.4675681, "tags": {"fvst:navnelbnr": "116666", "name": "Sandwich B\u00f8rsen", "shop": "deli"}}, {"type": "node", "id": 4553049103, "lat": 57.0473571, "lon": 9.9202329, "tags": {"cuisine": "regional", "fvst:navnelbnr": "662397", "name": "Peace Takeaway", "shop": "deli", "website": "https://cafepeace.dk/"}}, {"type": "node", "id": 4556095085, "lat": 57.446325, "lon": 9.9953778, "tags": {"amenity": "fast_food", "cuisine": "sm\u00f8rrebr\u00f8d", "fvst:fixme": "fvst position missing, fixed from Nominatim", "fvst:navnelbnr": "535847", "name": "Hj\u00f8rring Sm\u00f8rrebr\u00f8d", "phone": "+45 81911191", "shop": "deli"}}, {"type": "node", "id": 4562806428, "lat": 55.679071, "lon": 12.529086, "tags": {"fvst:fixme": "fvst position missing, fixed from Nominatim", "fvst:navnelbnr": "662405", "name": "Smallegade Sm\u00f8rrebr\u00f8dsbar", "opening_hours": "09:00-21:00; Fr-Sa 09:00-22:00", "shop": "deli", "website": "http://smallegade.dk/"}}, {"type": "node", "id": 4564195838, "lat": 55.6855776, "lon": 12.5379428, "tags": {"cuisine": "cakes", "fvst:navnelbnr": "668931", "name": "Ms Smageri", "phone": "+45 48420087", "shop": "deli"}}, {"type": "node", "id": 4573286063, "lat": 55.6241075, "lon": 12.5919982, "tags": {"cuisine": "sm\u00f8rrebr\u00f8d", "fvst:navnelbnr": "561662", "name": "Lille Lunds", "phone": "+45 28994470", "shop": "deli"}}, {"type": "node", "id": 4573658129, "lat": 54.8976846, "lon": 11.8801974, "tags": {"fvst:navnelbnr": "653702", "name": "Nass", "phone": "+45 42993055", "shop": "deli"}}, {"type": "node", "id": 4582790778, "lat": 54.9122287, "lon": 9.7933225, "tags": {"cuisine": "sm\u00f8rrebr\u00f8d", "fvst:navnelbnr": "79379", "name": "Byens Sm\u00f8rrebr\u00f8d", "note": "Deler tilsyneladende husnummer 48 med nogle p\u00e5 g\u00e5gadesiden.", "opening_hours": "Mo-Th 08:00-18:00; Fr 08:00-18:30; Sa 09:00-14:00", "operator": "Cecilie Fine", "phone": "+45 74432830", "shop": "deli", "website": "http://byenssmoerrebroed.dk/"}}, {"type": "node", "id": 4591488023, "lat": 57.256824, "lon": 10.97693, "tags": {"fvst:navnelbnr": "635351", "name": "L\u00e6s\u00f8 antik & retro", "phone": "+45 26217087", "shop": "deli"}}, {"type": "node", "id": 4594438175, "lat": 56.301177, "lon": 8.339478, "tags": {"fvst:navnelbnr": "757422", "name": "Hedekaffe", "phone": "+45 28711643", "shop": "deli"}}, {"type": "node", "id": 4680892567, "lat": 55.710848, "lon": 8.302362, "tags": {"fvst:navnelbnr": "541945", "name": "Strandvejen 82", "phone": "+45 31563132", "shop": "deli", "website": "http://www.strandvejen82.dk/"}}, {"type": "node", "id": 4682368781, "lat": 56.1347538, "lon": 8.9884368, "tags": {"amenity": "fast_food", "fvst:navnelbnr": "696929", "name": "Pedersb\u00e6k , k\u00f8kken", "phone": "+45 97125262", "shop": "deli", "takeaway": "only", "website": "http://pedersbaek.com/"}}, {"type": "node", "id": 4683898230, "lat": 56.188497, "lon": 10.2385226, "tags": {"fvst:navnelbnr": "46406", "name": "Lisager Delikatesse", "shop": "deli"}}, {"type": "node", "id": 4709601599, "lat": 55.7187478, "lon": 9.6083462, "tags": {"fvst:navnelbnr": "71662", "name": "Storgaard Delikatesser", "shop": "deli"}}, {"type": "node", "id": 4715693645, "lat": 55.853023, "lon": 12.564142, "tags": {"fvst:navnelbnr": "668408", "name": "Homemate Vedb\u00e6k", "shop": "deli"}}, {"type": "node", "id": 4723236253, "lat": 54.8314583, "lon": 11.1416265, "tags": {"fvst:fixme": "fvst position missing, fixed from overpassturbo/osak", "fvst:navnelbnr": "671987", "name": "Fru B", "shop": "deli"}}, {"type": "node", "id": 4723236621, "lat": 56.152662, "lon": 9.903363, "tags": {"fvst:fixme": "fvst position missing, fixed from overpassturbo/osak", "fvst:navnelbnr": "131026", "name": "Frk. Laura", "shop": "deli", "website": "http://www.frk-laura.dk/"}}, {"type": "node", "id": 4723308848, "lat": 56.034362, "lon": 12.611952, "tags": {"cuisine": "sm\u00f8rrebr\u00f8d", "fvst:fixme": "fvst position missing, fixed from overpassturbo/osak", "fvst:name": "Hyacint 2015", "fvst:navnelbnr": "638810", "phone": "+45 49216977", "shop": "deli"}}, {"type": "node", "id": 4723308851, "lat": 55.9394908, "lon": 12.276902, "tags": {"fvst:fixme": "fvst position missing, fixed from overpassturbo/osak", "fvst:navnelbnr": "577556", "name": "Hiller\u00f8d Sm\u00f8rrebr\u00f8d", "shop": "deli"}}, {"type": "node", "id": 4724894849, "lat": 55.3952289, "lon": 10.3839766, "tags": {"fvst:navnelbnr": "551528", "name": "Olivia", "shop": "deli"}}, {"type": "node", "id": 4735154707, "lat": 56.5499137, "lon": 8.3062742, "tags": {"fvst:navnelbnr": "508896", "name": "Caf\u00e9 Larsen", "opening_hours": "09:00-21:00", "phone": "+45 97820830", "shop": "deli"}}, {"type": "node", "id": 4735675879, "lat": 54.9090217, "lon": 9.7888714, "tags": {"fvst:navnelbnr": "78612", "microbrewery": "yes", "name": "Br\u00f8ggeriet", "opening_hours": "Mo-We 10:00-24:00, Th 10:00-02:00,Fr-Sa 10:00-03:00, Su 10:00+, Dec 24 off", "phone": "+45 74431012", "shop": "deli", "website": "https://broeggeriet.dk/"}}, {"type": "node", "id": 4745832121, "lat": 56.4325848, "lon": 9.3913378, "tags": {"fvst:navnelbnr": "558614", "name": "Fr\u00f8ken Ost", "shop": "deli"}}, {"type": "node", "id": 4765253187, "lat": 55.755496, "lon": 12.565393, "tags": {"fvst:navnelbnr": "95680", "name": "Amandus", "phone": "+45 39637791", "shop": "deli", "takeaway": "only", "website": "http://www.amandusost.dk/"}}, {"type": "node", "id": 4823499109, "lat": 55.9644805, "lon": 10.5515053, "tags": {"fvst:navnelbnr": "700282", "name": "Tante TUT", "shop": "deli"}}, {"type": "node", "id": 4829117295, "lat": 55.664701, "lon": 11.4240669, "tags": {"cuisine": "italian", "fvst:navnelbnr": "645793", "name": "Maurizios", "opening_hours": "11:00-16:30; We,Fr 11:00-18:00, Su,Mo off", "phone": "+45 23977188", "shop": "deli", "takeaway": "yes", "website": "https://maurizios.dk/"}}, {"type": "node", "id": 4868153031, "lat": 56.374605, "lon": 9.657905, "tags": {"fvst:navnelbnr": "740293", "name": "Delicia", "shop": "deli"}}, {"type": "node", "id": 4878963193, "lat": 55.859967, "lon": 9.844768, "tags": {"fvst:navnelbnr": "701465", "name": "Polish Goods 4u", "shop": "deli"}}, {"type": "node", "id": 4878990069, "lat": 55.6407869, "lon": 12.0786848, "tags": {"fvst:navnelbnr": "653665", "name": "MENY Delikatesse", "shop": "deli"}}, {"type": "node", "id": 4886867591, "lat": 57.2710951, "lon": 9.6978775, "tags": {"name": "Den Gamle Brugskunst", "shop": "deli", "source": "Kaart Ground Survey 2017"}}, {"type": "node", "id": 4899769493, "lat": 55.4736154, "lon": 8.4324367, "tags": {"facebook": "https://www.facebook.com/pages/Ingers-ost-og-vin-Esbjerg-skibsproviantering/228236260644726", "name": "Inger's Ost & Vin", "shop": "deli", "source": "Kaart Ground Survey 2017", "website": "https://www.esb-proviant.dk/"}}, {"type": "node", "id": 4919287064, "lat": 55.6902748, "lon": 12.5995575, "tags": {"contact:email": "salg@loegismose.dk", "facebook": "https://www.facebook.com/L\u00f8gismose-1898194277116087/", "fvst:navnelbnr": "110283624", "name": "L\u00f8gismose", "opening_hours": "mo-fr 10:00-19:00; sa 10:00-15:00", "phone": "+45 33329332", "shop": "deli", "website": "https://www.loegismose.dk/"}}, {"type": "node", "id": 5095439333, "lat": 55.6792179, "lon": 12.5806072, "tags": {"fvst:navnelbnr": "714359", "name": "L\u00f8gismose Vin & Delikatesser", "shop": "deli", "wheelchair": "yes"}}, {"type": "node", "id": 5141094700, "lat": 55.7027814, "lon": 12.584727, "tags": {"fvst:navnelbnr": "713928", "name": "Aliva foods", "shop": "deli", "website": "https://www.alivafoods.dk/"}}, {"type": "node", "id": 5268079292, "lat": 55.092584, "lon": 10.407561, "tags": {"name": "Gundestrup Mejeri", "opening_hours": "Tu-Fr 14:00-17:00; Sa 10:00-13:00", "shop": "deli", "website": "http://mejeri-bryg.dk/butikkenny.html"}}, {"type": "node", "id": 5292840667, "lat": 55.468362, "lon": 8.4525118, "tags": {"facebook": "https://www.facebook.com/Madeinspain.dk", "name": "Made in Spain", "shop": "deli", "website": "https://www.madeinspain.dk/"}}, {"type": "node", "id": 5372157844, "lat": 55.0486247, "lon": 10.6145392, "tags": {"cafe": "yes", "cuisine": "italian", "name": "Il Chiosco", "shop": "deli"}}, {"type": "node", "id": 5633544339, "lat": 56.131013, "lon": 10.166856, "tags": {"fvst:navnelbnr": "733198", "name": "Viby sm\u00f8rrebr\u00f8d", "shop": "deli"}}, {"type": "node", "id": 5714274604, "lat": 55.5565145, "lon": 8.1391519, "tags": {"amenity": "cafe", "fvst:navnelbnr": "76135", "name": "Hr Skov", "phone": "+45 75278500", "shop": "deli", "website": "https://www.hrskov.dk/"}}, {"type": "node", "id": 5900438260, "lat": 55.6866323, "lon": 12.5333442, "tags": {"amenity": "cafe", "cuisine": "coffee_shop", "fvst:navnelbnr": "749640", "name": "Vores Marked Frederiksberg", "outdoor_seating": "yes", "phone": "+45 42225782", "shop": "deli"}}, {"type": "node", "id": 5900441303, "lat": 55.5905492, "lon": 12.3362832, "tags": {"fvst:navnelbnr": "733989", "name": "\u00d8kohytten", "shop": "deli"}}, {"type": "node", "id": 5909679233, "lat": 56.153486, "lon": 10.113219, "tags": {"fvst:navnelbnr": "737785", "name": "Boho delikatesser", "shop": "deli"}}, {"type": "node", "id": 6148293038, "lat": 55.7694005, "lon": 12.5047087, "tags": {"facebook": "https://www.facebook.com/DaBasso-1481725051960622/", "name": "Da Basso", "opening_hours": "Mo-Fr 10:00-18:00; Sa10:00-14:00", "shop": "deli"}}, {"type": "node", "id": 6407692267, "lat": 55.0603874, "lon": 10.604623, "tags": {"cuisine": "italian", "email": "mail@appetito.dk", "name": "Appetito", "opening_hours": "Tu-Fr 10:00-18:00; Sa 10:00-16:00; Su 10:00-13:00", "phone": "+45 62214904", "shop": "deli", "website": "https://appetito.dk"}}, {"type": "node", "id": 6434536870, "lat": 55.8400868, "lon": 12.4306401, "tags": {"name": "Spisekurven", "shop": "deli", "website": "https://spisekurven.dk/"}}, {"type": "node", "id": 6480093115, "lat": 55.964901, "lon": 12.2828064, "tags": {"alt_name": "Jordn\u00e6r Gadevang K\u00f8bmandscafe", "amenity": "cafe", "cuisine": "organic;ice_cream", "fvst:navnelbnr": "572800", "internet_access:ssid": "16-20", "name": "Jordn\u00e6r", "shop": "deli", "website": "http://www.koebmandjordnaer.dk/"}}, {"type": "node", "id": 6578061817, "lat": 55.7954725, "lon": 12.4712524, "tags": {"name": "Madbutikken", "opening_hours": "Mo-Su 16:00-20:00", "shop": "deli", "website": "https://www.facebook.com/MadButikken-450085509072003/"}}, {"type": "node", "id": 484082425, "lat": 55.8628203, "lon": 9.8482295, "tags": {"name": "Juta Ost", "opening_hours": "Mo-Th 09:30-17:00; Fr 09:30-18:00; Sa 09:00-13:00", "shop": "cheese"}}, {"type": "node", "id": 496304584, "lat": 55.6665214, "lon": 12.5161583, "tags": {"name": "Valby Ostelager", "opening_hours": "Mo-Th 09:30-18:00; Fr 09:30-19:00; Sa 08:30-14:00", "shop": "cheese"}}, {"type": "node", "id": 1939278524, "lat": 55.6633112, "lon": 12.4765849, "tags": {"name": "Lano Ost", "shop": "cheese", "wheelchair": "yes"}}, {"type": "node", "id": 2109337123, "lat": 56.4448825, "lon": 9.3897892, "tags": {"name": "Viborg Ost", "shop": "cheese"}}, {"type": "node", "id": 2505724421, "lat": 55.4162878, "lon": 9.1548514, "tags": {"name": "Ostebutik", "opening_hours": "We-Fr 10:00-17:00", "shop": "cheese"}}, {"type": "node", "id": 2627210804, "lat": 57.3143623, "lon": 9.7096409, "tags": {"check_date": "2019-07-11", "name": "Ingstrup Mejeri", "shop": "cheese", "wheelchair": "no"}}, {"type": "node", "id": 2969567723, "lat": 55.3114793, "lon": 10.790543, "tags": {"name": "Osteboden", "shop": "cheese"}}, {"type": "node", "id": 3258164653, "lat": 55.393987, "lon": 10.3800628, "tags": {"name": "Klingenberg Ost", "shop": "cheese"}}, {"type": "node", "id": 3500851845, "lat": 55.8382448, "lon": 12.0634895, "tags": {"name": "Den Glade Ost", "shop": "cheese", "website": "https://www.dengladeost.dk/"}}, {"type": "node", "id": 3634361469, "lat": 54.8870328, "lon": 12.1754009, "tags": {"shop": "cheese"}}, {"type": "node", "id": 4208932889, "lat": 56.1825908, "lon": 9.5374255, "tags": {"cuisine": "cheese", "fvst:name": "Ostebutikken Lading Mejeri", "fvst:navnelbnr": "566013", "name": "Silkeborg Ost", "operator": "Lading Ost", "phone": "+45 86870097", "shop": "cheese", "website": "https://ladingost.dk/"}}, {"type": "node", "id": 4408134216, "lat": 55.488961, "lon": 9.473982, "tags": {"fvst:navnelbnr": "709839", "name": "Osten Kolding", "shop": "cheese", "website": "http://ostenkolding.dk/"}}, {"type": "node", "id": 4607658363, "lat": 55.7336967, "lon": 12.5151005, "tags": {"name": "Ostedelikatessen", "opening_hours": "Tu-Th 10:00-17:30; Fr 10:00-18:00; Sa 09:00-13:00; Su,Mo off", "phone": "+45 39 56 15 82", "shop": "cheese", "website": "http://www.ostedelikatessen.dk"}}, {"type": "node", "id": 5483630464, "lat": 55.6409235, "lon": 12.0797853, "tags": {"level": "-1", "name": "Caseus Ost & Delikatesser", "shop": "cheese", "website": "http://caseus.dk/", "wheelchair": "no"}}, {"type": "node", "id": 5663806628, "lat": 57.0445469, "lon": 9.9212018, "tags": {"name": "Ostemanden fra Grindsted", "shop": "cheese"}}, {"type": "node", "id": 5734941899, "lat": 55.7950259, "lon": 12.4748602, "tags": {"name": "Helges Ost", "shop": "cheese"}}, {"type": "node", "id": 5824745277, "lat": 55.7203903, "lon": 8.6120417, "tags": {"name": "Tistrup Mejeri Ostebutik", "shop": "cheese"}}, {"type": "node", "id": 5873989458, "lat": 56.690265, "lon": 9.339289, "tags": {"amenity": "cafe", "fvst:navnelbnr": "751039", "name": "Den Gamle Foderstof", "phone": "+45 61622325", "shop": "cheese", "website": "http://dengamlefoderstof.dk/"}}, {"type": "node", "id": 6095247219, "lat": 56.3123341, "lon": 9.7565997, "tags": {"name": "Ostebutikken \u2013 Dr\u00f8sbro", "opening_hours": "Th-Sa", "operator": "Mammen Mejerierne A/S", "shop": "cheese"}}, {"type": "node", "id": 6095247220, "lat": 56.4124829, "lon": 9.6759939, "tags": {"name": "Ostebutikken \u2013 Taul", "operator": "Mammen Mejerierne A/S", "shop": "cheese"}}, {"type": "node", "id": 6239632562, "lat": 55.0999959, "lon": 14.7021638, "tags": {"name": "Ostehj\u00f8rnet", "shop": "cheese"}}, {"type": "node", "id": 6452479473, "lat": 55.677422, "lon": 12.5368519, "tags": {"name": "Ostspecialisten", "opening_hours": "Tu-Fr 09:30-17:30; Sa 09:30-14:00", "shop": "cheese"}}, {"type": "node", "id": 4758029802, "lat": 55.6844051, "lon": 8.8335288, "tags": {"facebook": "https://www.facebook.com/nygaardismejeri/", "name": "Nyg\u00e5rd Ismejeri og G\u00e5rdbutik", "shop": "dairy", "source": "http://www.jv.dk/billund/Familie-starter-ismejeri-Isen-laves-med-maelk-fra-egne-koeer/artikel/2491173", "source:url": "http://ugeavisen.dk/midtjyskugeavis/Gaardbutik-saelger-hjemmelavet-is/artikel/312977"}}, {"type": "node", "id": 4889921678, "lat": 55.4167044, "lon": 8.785296, "tags": {"name": "Jernved Mejeri", "opening_hours": "Th,Fr 10:00-17:30;Sa 09:00-13:00", "shop": "dairy"}}, {"type": "node", "id": 444741543, "lat": 55.2040092, "lon": 9.608158, "tags": {"organic": "only", "shop": "farm"}}, {"type": "node", "id": 834101162, "lat": 55.5934381, "lon": 8.3192468, "tags": {"name": "Enghaveg\u00e5rd Ost", "opening_hours": "Th,Fr 14:00-17:00; Jun 15 - Sep 15: Sa 10:00-13:00", "operator": "Lone og Martin Hansen", "phone": "+45 21 44 12 45", "shop": "farm", "website": "https://www.enghavegaard-hobugt.dk"}}, {"type": "node", "id": 846358980, "lat": 55.0291103, "lon": 14.9681701, "tags": {"name": "Lille Gadeg\u00e5rd", "shop": "farm"}}, {"type": "node", "id": 899648310, "lat": 56.109797, "lon": 8.1983409, "tags": {"shop": "farm"}}, {"type": "node", "id": 1072721240, "lat": 56.8333895, "lon": 10.0270066, "tags": {"contact:website": "http://www.frugtogmost.dk/", "fvst:navnelbnr": "21884", "name": "Frugthaven", "shop": "farm"}}, {"type": "node", "id": 1312447334, "lat": 55.3580817, "lon": 12.3126505, "tags": {"name": "Klippingeg\u00e5rd", "shop": "farm", "source": "Fugro_2005"}}, {"type": "node", "id": 1470119076, "lat": 55.1012683, "lon": 8.5423312, "tags": {"product": "firewood", "shop": "farm"}}, {"type": "node", "id": 1719188247, "lat": 55.2588572, "lon": 9.7525299, "tags": {"int_name": "Aaroe Galloway Farmshop", "name": "\u00c5r\u00f8 Galloway G\u00e5rdbutik", "shop": "farm", "source": "local_knowledge"}}, {"type": "node", "id": 2064984370, "lat": 55.212505, "lon": 11.1882873, "tags": {"name": "Agers\u00f8 Farm", "shop": "farm", "source": "local knowledge", "website": "http://www.agersoe-farm.dk/"}}, {"type": "node", "id": 2431880421, "lat": 55.2967574, "lon": 9.0590684, "tags": {"fvst:name": "Gram & Nyb\u00f8l Godser A/S, Dagligvarer", "name": "Gram Slots G\u00e5rdbutik", "opening_hours": "Mo-Th 08:15-16:00; Fr 08:15-23:00; Sa 10:00-23:00; Su 10:00-16:00; week 27-32 Su-Th 08:00-20:00, Fr-Sa 08:00-23:00", "shop": "farm", "website": "https://gramslot.dk/", "wheelchair": "yes"}}, {"type": "node", "id": 2608822059, "lat": 55.8374908, "lon": 11.6455053, "tags": {"contact:email": "sidinge@sidinge.dk", "fvst:navnelbnr": "85915", "name": "Sidinge G\u00e5rdbutik", "opening_hours": "10:00-17:30; Sa 10:00-14:00; PH 10:00-14:00; Mo off; Jun-Aug Su 10:00-14:00", "phone": "+45 59328206", "produce": "fruits;mustard;juice;oil;marmelade", "shop": "farm", "website": "http://sidinge.dk/gaardbutik.html"}}, {"type": "node", "id": 2613826426, "lat": 55.7784641, "lon": 12.1445606, "tags": {"name": "Svanholm", "produce": "egg;potato", "shop": "farm"}}, {"type": "node", "id": 2908062253, "lat": 55.5133453, "lon": 11.7315381, "tags": {"berries": "strawberry", "name": "Gerdesgaard Jordb\u00e6r", "payment:bitcoin": "yes", "produce": "berries", "shop": "farm", "website": "http://www.gerdesgaard.dk"}}, {"type": "node", "id": 3186456682, "lat": 56.1102913, "lon": 9.819467, "tags": {"name": "Jaungyde G\u00e5rdbutik", "organic": "yes", "shop": "farm", "website": "http://www.jaungydegaardbutik.dk/"}}, {"type": "node", "id": 3356201313, "lat": 55.7761365, "lon": 12.2344462, "tags": {"fvst:navnelbnr": "719514", "name": "M\u00f8lleh\u00f8j", "shop": "farm"}}, {"type": "node", "id": 3402668680, "lat": 55.5984888, "lon": 8.4255475, "tags": {"contact:phone": "+45 23 45 40 28", "facebook": "https://facebook.com/259271920755775", "fvst:navnelbnr": "123319", "meat": "lamb;pork", "name": "Varde \u00c5dal Lam", "opening_hours": "Th-Fr 14:00-17:00; Sa 10:00-12:00", "organic": "yes", "produce": "vegetable;meat;egg", "shop": "farm", "website": "http://vardeaadallam.dk/"}}, {"type": "node", "id": 3523526649, "lat": 55.2677559, "lon": 9.7268449, "tags": {"name": "Aar\u00f8 70", "shop": "farm"}}, {"type": "node", "id": 3618280828, "lat": 54.9456399, "lon": 9.7788488, "tags": {"fvst:navnelbnr": "78947", "name": "Hestehaveg\u00e5rd Frugtplantage", "opening_hours": "Mo-Fr 08:30-17:00; Sa 08:30-12:00", "operator": "Henrik Petersen", "shop": "farm"}}, {"type": "node", "id": 3678630636, "lat": 55.8433902, "lon": 11.4918722, "tags": {"produce": "vegetables;fruit;potatoes", "shop": "farm"}}, {"type": "node", "id": 3712072519, "lat": 55.3506678, "lon": 8.4670813, "tags": {"organic": "yes", "shop": "farm"}}, {"type": "node", "id": 3732244023, "lat": 55.079686, "lon": 8.8105027, "tags": {"name": "Vollum Hjorteg\u00e5rd G\u00e5rdbutik", "phone": "+45 74711180", "produce": "venison", "shop": "farm", "website": "http://www.hjortegaard.dk/"}}, {"type": "node", "id": 3732250910, "lat": 54.9874369, "lon": 8.6643692, "tags": {"name": "H\u00f8jer Hjortefarm & G\u00e5rdbutik", "opening_hours": "Mo-Th 15:30-17:00; Fr 15:30+; Sa 12:00+; Nov-Mar Su off", "produce": "venison", "shop": "farm", "website": "http://www.xn--hjer-hjortefarm-5tb.dk/index.php/gardbutikken"}}, {"type": "node", "id": 3740133179, "lat": 54.8306965, "lon": 11.447918, "tags": {"name": "Bandholm Frugtplantage G\u00e5rdbutik", "produce": "apples", "shop": "farm"}}, {"type": "node", "id": 3740140274, "lat": 54.8818646, "lon": 11.9350823, "tags": {"fvst:navnelbnr": "86286", "name": "Kirkeh\u00f8jens Limousine", "opening_hours": "Mo 09:00-17:00; We-Fr 09:00-17:00; Sa-Su 10:00-16:00", "phone": "+45 54433551", "produce": "meat", "shop": "farm", "website": "http://godt-koed.dk/"}}, {"type": "node", "id": 3745403088, "lat": 54.8248381, "lon": 11.656782, "tags": {"fvst:navnelbnr": "709142", "name": "Lolle Frugt", "opening_hours": "Mo-Fr 12:00-17:00; Sa 10:00-14:00", "phone": "+45 21706424", "produce": "fruit;honey", "shop": "farm", "website": "https://lollefrugt.dk/"}}, {"type": "node", "id": 3757124537, "lat": 55.151658, "lon": 8.767279, "tags": {"delivery": "yes", "phone": "+45 74750808", "produce": "lamb", "shop": "farm", "website": "http://vadehavslam.dk/"}}, {"type": "node", "id": 3758841699, "lat": 54.6938205, "lon": 11.573304, "tags": {"name": "Dalbakkegaard", "opening_hours": "Mo-Fr 08:00-18:00; Sa-Su 09:00-15:00 \"produce\" || Fr 15:00-17:00; Sa 10:00-13:00; PH off \"sale of free range chicken\"", "phone": "+45 21266693", "produce": "chicken;egg;vegetables", "shop": "farm", "website": "http://www.dalbakkegaard.dk/"}}, {"type": "node", "id": 3758869657, "lat": 54.7172223, "lon": 11.7812883, "tags": {"name": "Kildevejens Frugt", "opening_hours": "07:00-19:00", "produce": "fruit;berries", "shop": "farm"}}, {"type": "node", "id": 3760560262, "lat": 56.0838746, "lon": 12.3873988, "tags": {"contact:facebook": "BirkelyGroentsager", "description": "G\u00e5rdsbutik", "description:da": "G\u00e5rdbutik", "description:de": "Hofladen", "description:en": "Farm Shop", "description:no": "G\u00e5rdsbutikk", "name": "Birkely Gr\u00f8ntsager", "phone": "+45 28239229", "produce": "cabbage;vegetables;potatoes", "shop": "farm"}}, {"type": "node", "id": 3765165687, "lat": 55.9781797, "lon": 11.8756464, "tags": {"fvst:navnelbnr": "94206", "name": "Kik-forbi G\u00e5rdbutik", "opening_hours": "Apr-Sep Th-Fr 11:00-18:00; Sa 10:00-16:00 \"season approximate\"", "phone": "+45 46902662", "shop": "farm", "website": "http://kik-forbi.dk/gardbutik/"}}, {"type": "node", "id": 3776583087, "lat": 55.6847747, "lon": 11.7586574, "tags": {"amenity": "events_venue", "fvst:navnelbnr": "557345", "name": "Muld", "phone": "+45 61663611", "shop": "farm", "website": "http://muldpaanettet.dk/"}}, {"type": "node", "id": 3808198148, "lat": 54.991038, "lon": 9.388918, "tags": {"fvst:navnelbnr": "78454", "name": "Gaardbutikken R\u00f8llumgaard", "opening_hours": "We-Fr 09:00-17:00; Sa 09:00-13:00; PH off", "produce": "meat;vegetables;egg;jam", "shop": "farm"}}, {"type": "node", "id": 3884848313, "lat": 54.8451918, "lon": 10.7520791, "tags": {"amenity": "events_venue", "bike_friend": "yes", "name": "Ny Skovsgaard Madmarked", "shop": "farm"}}, {"type": "node", "id": 3884848322, "lat": 55.3296826, "lon": 10.4316997, "tags": {"fvst:navnelbnr": "84007", "name": "H\u00f8jbyhus G\u00e5rdbutik", "opening_hours": "Tu-Fr 10:00-17:30; Sa 08:00-13:00", "phone": "+45 66174340", "shop": "farm", "website": "https://www.hojbyhus.dk/"}}, {"type": "node", "id": 3885138370, "lat": 54.884933, "lon": 10.369584, "tags": {"fvst:navnelbnr": "81980", "name": "Sofienlund G\u00e5rdbutik", "phone": "+45 61757507", "shop": "farm"}}, {"type": "node", "id": 3905669688, "lat": 55.398549, "lon": 10.3880741, "tags": {"cuisine": "organic;duck", "fvst:navnelbnr": "571131", "name": "Gastroteket", "shop": "farm", "website": "http://www.caroline-online.dk/"}}, {"type": "node", "id": 3935763608, "lat": 55.8382467, "lon": 12.3783918, "tags": {"description": "Salg af \u00f8kologiske og biodynamisk produkter. K\u00f8d, fjerkr\u00e6 og gr\u00f8ntsager af egen avl. Samt andre kolonialvare.", "fvst:navnelbnr": "91273", "name": "Steng\u00e5rden", "opening_hours": "Mo-Fr 12:00-18:00; Su 10:00-16:00; Sa 10:00-16:00; Su,PH 12:00-16:00", "produce": "organic;vegetables", "shop": "farm", "source": "Bing", "website": "https://www.stengaardenoko.dk/"}}, {"type": "node", "id": 4047696756, "lat": 55.75719, "lon": 10.2744653, "tags": {"fvst:navnelbnr": "566997", "name": "Endelave L\u00e6geurtehave", "produce": "organic", "shop": "farm", "website": "http://endelave-laegeurtehave.dk/"}}, {"type": "node", "id": 4072694153, "lat": 55.1420697, "lon": 10.324404, "tags": {"cuisine": "aronia", "fvst:navnelbnr": "638745", "name": "Aroniahaven Cafe", "phone": "+45 53639763", "shop": "farm", "website": "https://www.aroniahaven.dk/"}}, {"type": "node", "id": 4073426751, "lat": 55.9587565, "lon": 10.2055026, "tags": {"fvst:navnelbnr": "541780", "name": "Fru M\u00f8llers M\u00f8lleri", "phone": "+45 21782760", "produce": "flour; butter; bread", "shop": "farm", "source": "Bing", "website": "http://frumollersmolleri.dk/"}}, {"type": "node", "id": 4076927187, "lat": 56.1008998, "lon": 9.5388573, "tags": {"amenity": "events_venue", "fvst:navnelbnr": "521096", "name": "Gothenborg Landk\u00f8kken", "phone": "+45 20438014", "shop": "farm", "website": "https://gothenborg.dk/landkoekken"}}, {"type": "node", "id": 4077380759, "lat": 56.0103234, "lon": 9.8188355, "tags": {"fvst:navnelbnr": "659507", "name": "Almas G\u00e5rdbutik", "phone": "+45 40403065", "shop": "farm", "website": "http://almagroup.dk/"}}, {"type": "node", "id": 4090531749, "lat": 55.7979421, "lon": 8.5768222, "tags": {"contact:phone": "+45 21 78 41 68", "email": "info@hedeager.info", "facebook": "https://www.facebook.com/Hedeagergaard/", "name": "Hedeagergaard", "shop": "farm", "website": "http://www.hedeager.info/"}}, {"type": "node", "id": 4093361300, "lat": 55.9011625, "lon": 10.0529278, "tags": {"description": "\u00d8kologisk gedek\u00f8d, gedeost mm", "name": "\u00d8ko Ged & Gr\u00f8nt", "opening_hours": "Tu 14:00-16:00, Th 14:00-16:00; Sa 08:00-12:00", "organic": "yes", "shop": "farm", "website": "https://www.ged-gront.dk/"}}, {"type": "node", "id": 4207840844, "lat": 57.456397, "lon": 9.81583, "tags": {"cuisine": "steak", "fvst:navnelbnr": "533304", "name": "Lophave hereford", "phone": "+45 50950641", "produce": "beef", "shop": "farm", "website": "https://lophave.dk/"}}, {"type": "node", "id": 4228502454, "lat": 55.5751567, "lon": 11.6571291, "tags": {"delivery": "yes", "name": "Kiselg\u00e5rden G\u00e5rdbutik", "opening_hours": "10:00-18:00", "organic": "yes", "payment:cash": "yes", "payment:credit_cards": "no", "payment:mobilepay": "yes", "shop": "farm", "website": "https://kiselgaarden.dk/gaardbutik/"}}, {"type": "node", "id": 4231047294, "lat": 57.31769, "lon": 9.695333, "tags": {"fvst:navnelbnr": "19777", "name": "Camping Rolighed G\u00e5rdbutik", "produce": "meat", "shop": "farm", "website": "https://camping-rolighed.dk/gaardbutik/"}}, {"type": "node", "id": 4289513914, "lat": 56.277871, "lon": 9.823772, "tags": {"fvst:navnelbnr": "127979", "name": "Viktualia", "phone": "+45 26841130", "shop": "farm", "website": "https://viktualia.dk/"}}, {"type": "node", "id": 4307532792, "lat": 56.71592, "lon": 9.380804, "tags": {"amenity": "cafe", "fvst:navnelbnr": "27841", "name": "Drivhuset", "opening_hours": "\"some weekends\"", "phone": "+45 98645655", "shop": "farm", "website": "http://www.drivhuset-eva.dk/"}}, {"type": "node", "id": 4354800850, "lat": 55.8252934, "lon": 12.3737003, "tags": {"name": "Solg\u00e5rden", "phone": "+45 44992127", "produce": "fruits", "shop": "farm"}}, {"type": "node", "id": 4354802333, "lat": 55.8125934, "lon": 12.334789, "tags": {"comment": "organic", "description": "Selvpluk af adskillige sorter af \u00f8kologiske \u00e6bler, blommer & p\u00e6rer", "name": "Hesselkildegaard", "produce": "fruits", "shop": "farm", "website": "http://www.hesselkildegaard.dk/"}}, {"type": "node", "id": 4354812975, "lat": 55.7822207, "lon": 12.2294944, "tags": {"name": "Per's Griseri", "phone": "+45 20636733", "produce": "meat", "shop": "farm", "website": "http://pers-griseri.dk/"}}, {"type": "node", "id": 4354824455, "lat": 56.0319866, "lon": 12.2332647, "tags": {"name": "Tolykkeg\u00e5rd", "shop": "farm", "website": "http://tolykkegaard.dk/"}}, {"type": "node", "id": 4354825476, "lat": 55.8400858, "lon": 12.2128268, "tags": {"name": "Hegnstrup", "opening_hours": "Fr 14:00-18:00", "produce": "organic", "shop": "farm", "website": "http://hegnstrup.dk.linux50.unoeuro-server.com/"}}, {"type": "node", "id": 4354845688, "lat": 55.8322033, "lon": 12.2043193, "tags": {"name": "Bures\u00f8dal", "phone": "+45 20137521", "produce": "vegetables", "shop": "farm", "website": "http://www.buresodal.dk/"}}, {"type": "node", "id": 4354864407, "lat": 55.6280502, "lon": 9.5027163, "tags": {"name": "R\u00f8dmose", "phone": "+45 51242207", "shop": "farm", "website": "https://www.roedmose.dk/"}}, {"type": "node", "id": 4387935179, "lat": 54.7012749, "lon": 11.9372306, "tags": {"fvst:navnelbnr": "90912", "name": "Strandg\u00e5rens G\u00e5rdbutik", "shop": "farm"}}, {"type": "node", "id": 4390789459, "lat": 55.7350281, "lon": 12.276272, "tags": {"cuisine": "organic", "name": "Spireriget", "operator": "Catja Kirkegaard", "phone": "+45 27692791", "shop": "farm"}}, {"type": "node", "id": 4394714265, "lat": 54.886338, "lon": 10.41093, "tags": {"amenity": "cafe", "fvst:navnelbnr": "659472", "name": "Bl\u00e5b\u00e6r G\u00e5rdbutik & caf\u00e9", "shop": "farm", "website": "https://blaabaer.dk/content/14-om-blaabaer"}}, {"type": "node", "id": 4396290138, "lat": 55.8756459, "lon": 11.5951882, "tags": {"name": "Gartnerg\u00e5rden", "opening_hours": "08:00-17:30; Fr 08:00-18:00; Sa,Su,PH 09:00-16:00", "payment:cash": "yes", "payment:mobilepay": "yes", "phone": "+45 21269667", "shop": "farm", "website": "http://www.gartnerg\u00e5rdenodsherred.dk/"}}, {"type": "node", "id": 4417553691, "lat": 55.2592846, "lon": 11.9052008, "tags": {"name": "Landevejens Blomster & Gr\u00f8nt", "shop": "farm"}}, {"type": "node", "id": 4421226640, "lat": 56.1260207, "lon": 12.3021922, "tags": {"fvst:navnelbnr": "95775", "name": "Fredbog\u00e5rdbutikken", "opening_hours": "11:00-17:30; Fr 11:00-18:00; Sa 10:00-14:00; Dec,Jul Su 11:00-15:00", "produce": "beef", "shop": "farm", "website": "http://www.fredbogaard.dk/"}}, {"type": "node", "id": 4421229696, "lat": 55.6667562, "lon": 12.2892025, "tags": {"name": "Grennessmindes \u00f8kologiske Gartneri", "phone": "+45 43990470", "shop": "farm"}}, {"type": "node", "id": 4421231011, "lat": 55.8595604, "lon": 12.1741228, "tags": {"name": "Jensens \u00d8kologiske", "phone": "+45 20152312", "shop": "farm"}}, {"type": "node", "id": 4421234974, "lat": 54.9469392, "lon": 11.4638321, "tags": {"name": "Fej\u00f8 Cider", "phone": "+45 61681657", "produce": "cider;apples", "shop": "farm"}}, {"type": "node", "id": 4421249681, "lat": 55.95669, "lon": 12.4925618, "tags": {"fvst:navnelbnr": "561227", "name": "Sorte Hane", "opening_hours": "Fr-Su 12:00-14:00", "phone": "+45 20221459", "shop": "farm", "website": "http://www.sortehane.dk/"}}, {"type": "node", "id": 4421256948, "lat": 55.71046, "lon": 11.8711502, "tags": {"contact:facebook": "https://www.facebook.com/Stensbolgaard/", "name": "Stensb\u00f8lg\u00e5rd", "opening_hours:shop": "12:00-14:00; Sa 11:00-15:00", "phone": "+45 42967125", "produce": "organic;beef;vegetables", "shop": "farm", "website": "http://stensbolgaard.dk/"}}, {"type": "node", "id": 4421268004, "lat": 55.4741648, "lon": 11.663568, "tags": {"fvst:navnelbnr": "88064", "name": "Krogagerg\u00e5rd", "phone": "+45 57809457", "produce": "beef;vegetables", "shop": "farm", "website": "https://xn--krogagergrd-58a.dk/"}}, {"type": "node", "id": 4421271215, "lat": 55.4781918, "lon": 11.6823793, "tags": {"name": "Bakkeg\u00e5rden", "phone": "+45 57844046", "shop": "farm"}}, {"type": "node", "id": 4421274571, "lat": 55.3817789, "lon": 11.4787519, "tags": {"name": "Birkemosehus", "opening_hours": "10:00-19:00", "phone": "+45 51326016", "shop": "farm", "website": "http://birkemosehus.dk/"}}, {"type": "node", "id": 4421276755, "lat": 55.6577221, "lon": 11.2453713, "tags": {"name": "Mejnerts", "opening_hours": "Mo-We 09:00-13:30; Th 09:00-17:00", "shop": "farm", "website": "https://www.mejnerts.dk/da/webshop.html"}}, {"type": "node", "id": 4421278387, "lat": 55.2271919, "lon": 12.0630272, "tags": {"fvst:navnelbnr": "86328", "name": "B\u00e6kvang", "shop": "farm", "website": "https://baekvangoekologi.dk/"}}, {"type": "node", "id": 4421283706, "lat": 55.3607571, "lon": 11.826872, "tags": {"name": "Klintemarksg\u00e5rd", "produce": "meat;wool", "shop": "farm", "website": "http://www.klintemarksgaard.dk/"}}, {"type": "node", "id": 4421287782, "lat": 55.7104916, "lon": 9.0935286, "tags": {"name": "G\u00e5rdbutikken", "phone": "+45 75338139", "shop": "farm"}}, {"type": "node", "id": 4421294635, "lat": 55.2767093, "lon": 10.2305181, "tags": {"name": "Pr\u00e6steskovg\u00e5rd", "phone": "+45 20237514", "shop": "farm", "website": "http://praesteskovgaard.dk/"}}, {"type": "node", "id": 4421295470, "lat": 55.3318348, "lon": 10.7943971, "tags": {"name": "Butik Gr\u00f8nt og Sager", "operator": "Center for D\u00f8ve", "phone": "+45 44391339", "shop": "farm"}}, {"type": "node", "id": 4422934635, "lat": 56.5275388, "lon": 10.1382688, "tags": {"fvst:navnelbnr": "665467", "name": "Lindbjergg\u00e5rd", "phone": "+45 86442282", "shop": "farm", "website": "https://www.lindbjerggaard.dk/"}}, {"type": "node", "id": 4422935957, "lat": 56.4634863, "lon": 9.9228356, "tags": {"fvst:navnelbnr": "48526", "name": "Korsmedergaard", "opening_hours": "10:00-18:00", "phone": "+45 40347730", "shop": "farm", "website": "http://www.korsmedergaard.dk/"}}, {"type": "node", "id": 4422951637, "lat": 56.145647, "lon": 10.1403461, "tags": {"fvst:navnelbnr": "46816", "name": "Natursamarbejdet", "shop": "farm"}}, {"type": "node", "id": 4422958480, "lat": 56.1464671, "lon": 10.7114034, "tags": {"name": "Lille Raneladeg\u00e5rd", "phone": "+45 61164732", "shop": "farm"}}, {"type": "node", "id": 4422965554, "lat": 55.1411707, "lon": 10.1832013, "tags": {"fvst:navnelbnr": "521072", "name": "Steensgaard", "phone": "+45 62619452", "shop": "farm", "website": "https://www.steensgaard.dk/gaardbutik/"}}, {"type": "node", "id": 4422966379, "lat": 54.9043165, "lon": 10.6179268, "tags": {"fvst:navnelbnr": "505879", "name": "Stryn\u00f8 Gaardbutik og Caf\u00e9", "shop": "farm"}}, {"type": "node", "id": 4443560933, "lat": 55.4809889, "lon": 8.8879285, "tags": {"amenity": "cafe", "fvst:navnelbnr": "565019", "name": "Voddersminde Cafe og G\u00e5rdbutik", "opening_hours": "17:00-20:00; Sa 10:00-16:00; Su off", "outdoor_seating": "yes", "phone": "+45 61683635", "shop": "farm", "website": "http://www.voddersminde.dk/"}}, {"type": "node", "id": 4448478916, "lat": 54.832168, "lon": 11.87333, "tags": {"fvst:navnelbnr": "505726", "name": "Sommerg\u00e5rden", "shop": "farm", "website": "http://bruntofte.dk/"}}, {"type": "node", "id": 4455804614, "lat": 56.438572, "lon": 10.181939, "tags": {"amenity": "cafe", "fvst:navnelbnr": "570972", "name": "Fru Hansens", "opening_hours": "10:00-17:30; Sa-Su 10:00-16:00; Mo off", "phone": "+45 60224836", "shop": "farm", "website": "http://www.fru.dk/hansens/"}}, {"type": "node", "id": 4456636023, "lat": 55.152607, "lon": 9.4010364, "tags": {"amenity": "cafe", "cuisine": "tapas", "fvst:navnelbnr": "77776", "name": "Stampenborg", "opening_hours": "Th,Su 14:00-17:00; Oct off", "produce": "goat_meat", "shop": "farm", "website": "http://www.stampenborg.dk/"}}, {"type": "node", "id": 4458282767, "lat": 56.2660728, "lon": 8.7976794, "tags": {"fvst:name": "Lifestyle Cafe", "fvst:navnelbnr": "716538", "mapillary": "HDlQFCeJEmw5rr7dkPHW1g", "name": "Lifestyle Cafe", "opening_hours": "14:00-17:30; Sa 10:00-13:00; Su-We off", "operator": "Herreg\u00e5rdens madbutik M\u00f8ltrup", "phone": "+45 97131800", "shop": "farm", "website": "http://moltrup.dk/herregardensmadbutik/"}}, {"type": "node", "id": 4462469305, "lat": 55.7391766, "lon": 9.6133071, "tags": {"fvst:name": "Heddahgaarden V./ Heddah Nanet Franzmann", "fvst:navnelbnr": "70845", "name": "Heddahgaarden", "shop": "farm", "tourism": "guest_house", "website": "http://heddahgaarden.dk/"}}, {"type": "node", "id": 4477569031, "lat": 55.530541, "lon": 9.284466, "tags": {"fvst:navnelbnr": "131123", "name": "Egholt Staldd\u00f8rssalg", "opening_hours": "Mo 10:00-17:30; Fr 15:00-17:30; Sa 10:00-17:30", "phone": "+45 27850585", "shop": "farm", "website": "http://www.egholt-stalddoerssalg.dk/"}}, {"type": "node", "id": 4484035734, "lat": 56.870249, "lon": 8.586032, "tags": {"fvst:navnelbnr": "26519", "name": "Thy Bondeg\u00e5rdsferie & G\u00e5rdbutik", "phone": "+45 97931528", "shop": "farm", "tourism": "guest_house", "website": "http://www.buen49.dk/"}}, {"type": "node", "id": 4484035746, "lat": 57.25007, "lon": 10.988636, "tags": {"description": "G\u00e5rdsbutik", "description:da": "G\u00e5rdbutik", "description:de": "Hofladen", "description:en": "Farm Shop", "description:no": "G\u00e5rdsbutikk", "fvst:navnelbnr": "566902", "name": "Storhaven", "phone": "+45 98491500", "shop": "farm", "website": "http://www.storhaven.dk/"}}, {"type": "node", "id": 4536678550, "lat": 55.60273, "lon": 12.024362, "tags": {"fvst:navnelbnr": "545424", "name": "Olsens", "phone": "+45 22329743", "produce": "apples", "shop": "farm", "website": "http://www.olsenfrugt.dk/"}}, {"type": "node", "id": 4537739768, "lat": 56.373436, "lon": 10.872513, "tags": {"amenity": "cafe", "fvst:navnelbnr": "661629", "name": "H\u00f8bjerg Cafe & G\u00e5rdbutik", "phone": "+45 60241686", "shop": "farm"}}, {"type": "node", "id": 4578363667, "lat": 55.5784036, "lon": 12.5776993, "tags": {"description": "G\u00e5rdsbutik", "description:da": "G\u00e5rdbutik", "description:de": "Hofladen", "description:en": "Farm Shop", "description:no": "G\u00e5rdsbutikk", "fvst:navnelbnr": "534711", "name": "Kongelundgaard", "opening_hours": "Sa,Su,PH 10:00-16:00", "phone": "+45 51596669", "produce": "cheese", "shop": "farm", "website": "https://kongelundgaard.dk/"}}, {"type": "node", "id": 4660305748, "lat": 56.1155299, "lon": 8.9800236, "tags": {"fvst:navnelbnr": "524617", "name": "Maileg", "shop": "farm"}}, {"type": "node", "id": 4684150579, "lat": 54.800393, "lon": 11.636, "tags": {"amenity": "cafe", "fvst:navnelbnr": "660789", "name": "Saksk\u00f8bing Madhus,", "opening_hours": "11:00-17:00; Fr 11:00-18:00; Sa 11:00-14:00; Su off", "shop": "farm", "website": "https://sakskobingmadhus.dk/"}}, {"type": "node", "id": 4717336084, "lat": 55.0367052, "lon": 11.372566, "tags": {"fvst:navnelbnr": "121798", "name": "Vejr\u00f8 G\u00e5rdbutik", "shop": "farm"}}, {"type": "node", "id": 4721223823, "lat": 56.245099, "lon": 8.3842647, "tags": {"fvst:navnelbnr": "518250", "name": "Lystb\u00e6kgaard G\u00e5rdbutik", "shop": "farm", "website": "http://www.lystbaekgaard.dk/"}}, {"type": "node", "id": 4737180289, "lat": 54.9635163, "lon": 11.4421372, "tags": {"fvst:navnelbnr": "87456", "name": "Kernegaarden", "shop": "farm", "website": "https://www.kernegaarden.dk/gardbutik"}}, {"type": "node", "id": 4759574611, "lat": 55.5748701, "lon": 8.4916818, "tags": {"contact:phone": "+45 61 36 65 10", "contact:website": "http://www.forumlund.dk/", "meat": "beef", "name": "Formlund - \u00d8kologiske Jersey Gr\u00e6skalve", "organic": "only", "product": "meat", "shop": "farm"}}, {"type": "node", "id": 4823306034, "lat": 54.9711726, "lon": 8.741994, "tags": {"amenity": "restaurant", "fvst:fixme": "fvst position missing, fixed from overpassturbo/osak", "fvst:navnelbnr": "699903", "name": "\u00c6 Kalgo", "phone": "+45 42420921", "shop": "farm", "start_date": "2017-05-01"}}, {"type": "node", "id": 4876270103, "lat": 55.7899715, "lon": 11.4607893, "tags": {"fvst:navnelbnr": "86957", "name": "Lammefjordens Spisekammer", "shop": "farm"}}, {"type": "node", "id": 4892539137, "lat": 55.6750138, "lon": 12.521263, "tags": {"fvst:navnelbnr": "701033", "name": "M\u00e5ltiderne Fasangaarden", "shop": "farm"}}, {"type": "node", "id": 4895559295, "lat": 55.441068, "lon": 9.544838, "tags": {"fvst:name": "G\u00c5RDEJER KIM BONDE PETERSEN Emmashave .", "fvst:navnelbnr": "708212", "name": "Emmas Have", "shop": "farm"}}, {"type": "node", "id": 4951209688, "lat": 54.9466417, "lon": 10.723753, "tags": {"bike_friend": "yes", "name": "Strandlyst Frugtplantage", "shop": "farm"}}, {"type": "node", "id": 4996765812, "lat": 55.1401275, "lon": 10.186013, "tags": {"shop": "farm"}}, {"type": "node", "id": 4998291361, "lat": 55.4375965, "lon": 9.0866167, "tags": {"fvst:navnelbnr": "553133", "name": "Konge\u00e5 Kylling", "opening_hours": "Th 15:00-18:00", "shop": "farm", "website": "https://www.kongeaakylling.dk/gaardbutik/"}}, {"type": "node", "id": 5012629201, "lat": 55.1287653, "lon": 10.6430685, "tags": {"name": "Madkassen", "shop": "farm"}}, {"type": "node", "id": 5017934285, "lat": 56.056121, "lon": 12.242698, "tags": {"fvst:navnelbnr": "95505", "name": "Fuglebjerggaard G\u00e5rdbutik", "shop": "farm", "website": "http://www.fuglebjerggaard.dk/"}}, {"type": "node", "id": 5084570939, "lat": 56.9374346, "lon": 9.8138568, "tags": {"fvst:navnelbnr": "513211", "name": "Caf\u00e9 Guldb\u00e6k Ving\u00e5rd", "shop": "farm", "website": "http://guldbaekvingaard.dk/"}}, {"type": "node", "id": 5094159285, "lat": 55.6120366, "lon": 12.0253269, "tags": {"fvst:navnelbnr": "719708", "name": "Valn\u00f8dlund", "opening_hours": "Th 16:00-18:00; Fr 15:00-18:00; Sa 10:00-15:00", "phone": "+45 46480183", "produce": "organic;vegetables;fruit", "shop": "farm"}}, {"type": "node", "id": 5094194821, "lat": 55.5811458, "lon": 11.986392, "tags": {"name": "S\u00f8bjerggaard", "opening_hours": "We 15:00-18:00; Sa 09:30-13:00", "phone": "+45 31103910", "produce": "meat;fruit", "shop": "farm", "website": "http://soebjerggaard.dk/"}}, {"type": "node", "id": 5155531334, "lat": 55.5046125, "lon": 11.7416986, "tags": {"fvst:navnelbnr": "125479", "name": "Husmandsstedet", "produce": "lamb;vegetables;chicken", "shop": "farm"}}, {"type": "node", "id": 5258341127, "lat": 55.657823, "lon": 11.659932, "tags": {"fvst:navnelbnr": "565885", "name": "Den lille g\u00e5rdbutik", "phone": "+45 61991522", "shop": "farm", "website": "https://www.denlillegardbutik.dk/"}}, {"type": "node", "id": 5419127838, "lat": 55.942266, "lon": 9.1782498, "tags": {"amenity": "cafe", "fvst:fixme": "fvst position missing, fixed from overpassturbo/osak", "fvst:navnelbnr": "733701", "name": "G\u00e5rdcaf\u00e9en M\u00e5nsson", "phone": "+45 97182221", "shop": "farm", "website": "https://www.maanssons.dk/"}}, {"type": "node", "id": 5450912941, "lat": 56.5566257, "lon": 8.3850277, "tags": {"fvst:navnelbnr": "708445", "name": "Nr. Nissum H\u00e5ndbryg G\u00e5rdbutik", "shop": "farm"}}, {"type": "node", "id": 5494703741, "lat": 55.183843, "lon": 8.7174181, "tags": {"shop": "farm"}}, {"type": "node", "id": 5581362394, "lat": 55.1119198, "lon": 14.8137969, "tags": {"name": "Montage & Gr\u00f8nt", "shop": "farm", "source": "https://datacvr.virk.dk/data/visenhed?enhedstype=virksomhed&id=33761724"}}, {"type": "node", "id": 5631224542, "lat": 56.030658, "lon": 12.1751291, "tags": {"amenity": "cafe", "fvst:navnelbnr": "738429", "name": "H\u00f8jbog\u00e5rds cafe", "opening_hours": "Fr 11:00-18:00; Sa 11:00-17:00", "phone": "+45 24890951", "shop": "farm"}}, {"type": "node", "id": 5633383123, "lat": 57.484872, "lon": 9.89938, "tags": {"fvst:navnelbnr": "745321", "name": "Nordisk Smag", "produce": "rabbits", "shop": "farm", "website": "http://nordisksmag.dk/"}}, {"type": "node", "id": 5633455629, "lat": 56.072757, "lon": 9.511901, "tags": {"fvst:navnelbnr": "635827", "name": "Silkeborg Rovfugleshow og Bisonfarm", "phone": "+45 20657620", "produce": "bison", "shop": "farm"}}, {"type": "node", "id": 5743758628, "lat": 56.0712276, "lon": 12.3462685, "tags": {"fvst:navnelbnr": "96769", "name": "HP Landhandel", "produce": "vegetables; egg", "shop": "farm"}}, {"type": "node", "id": 5744438288, "lat": 56.0121647, "lon": 12.4819886, "tags": {"description": "organic beef and pork", "fvst:navnelbnr": "124677", "name": "Kurt's \u00d8ko-K\u00f8d", "opening_hours": "\"by appoitment\"", "phone": "+45 49758726", "product": "meat", "shop": "farm", "website": "http://www.krogelund.dk/"}}, {"type": "node", "id": 5748754671, "lat": 56.0099625, "lon": 12.4642213, "tags": {"name": "Katrinelund G\u00e5rdbutik", "shop": "farm"}}, {"type": "node", "id": 5750089815, "lat": 56.0582577, "lon": 12.3390546, "tags": {"name": "Jytte og Jens Jakob Hindhede", "produce": "vegetables", "shop": "farm"}}, {"type": "node", "id": 5750090050, "lat": 56.0404867, "lon": 12.3954481, "tags": {"name": "Esromgaard", "shop": "farm", "website": "http://esromgaard.dk/"}}, {"type": "node", "id": 5872969989, "lat": 55.6643278, "lon": 11.420052, "tags": {"fvst:navnelbnr": "762052", "name": "Pr\u00e6steg\u00e5rden Jyderup", "shop": "farm", "website": "https://www.jyderuppraestegaard.com/"}}, {"type": "node", "id": 5873101673, "lat": 55.466519, "lon": 11.222023, "tags": {"fvst:navnelbnr": "760379", "name": "\u00c6bleg\u00e5rden S\u00f8bo", "shop": "farm"}}, {"type": "node", "id": 5873786624, "lat": 56.431612, "lon": 8.3386311, "tags": {"amenity": "cafe", "fvst:navnelbnr": "758158", "name": "Sdr. Gr\u00f8nk\u00e6r Landk\u00f8kken", "opening_hours": "09:00-18:00", "phone": "+45 2016 0676", "shop": "farm"}}, {"type": "node", "id": 5874072410, "lat": 55.6721031, "lon": 11.7750361, "tags": {"fvst:navnelbnr": "732278", "name": "Birthesminde", "opening_hours": "Su 10:00-15:00", "phone": "+45 24200483", "product": "meat", "shop": "farm"}}, {"type": "node", "id": 5879596199, "lat": 55.059094, "lon": 10.60373, "tags": {"amenity": "cafe", "fvst:fixme": "fvst position missing, fixed from overpassturbo/osak", "fvst:navnelbnr": "755652", "name": "Byens G\u00e5rdbutik Cafe", "phone": "+45 40642924", "shop": "farm", "website": "http://byensgaardbutik.dk/"}}, {"type": "node", "id": 5904947759, "lat": 56.018944, "lon": 12.061477, "tags": {"amenity": "cafe", "fvst:navnelbnr": "756998", "name": "Landhandelen", "opening_hours": "12:00-18:00; Mo-Tu off; week 42 off", "shop": "farm", "website": "https://tinggarden.dk/landhandel/"}}, {"type": "node", "id": 5908102704, "lat": 55.8732478, "lon": 11.5899137, "tags": {"fvst:navnelbnr": "86801", "name": "Butik Viek\u00e6rgaard", "phone": "+45 59312032", "shop": "farm", "website": "https://www.viekaergaard.dk/"}}, {"type": "node", "id": 5929572090, "lat": 55.0740708, "lon": 9.1792944, "tags": {"fvst:navnelbnr": "78605", "name": "Hellevad Vandm\u00f8lle", "operator": "Elsebeth Junker & Bjarne Boesen", "phone": "+45 74669344", "shop": "farm", "tourism": "guest_house"}}, {"type": "node", "id": 5936299114, "lat": 55.581871, "lon": 12.623427, "tags": {"fvst:fixme": "fvst position missing, fixed from overpassturbo/osak", "fvst:navnelbnr": "763774", "name": "Seerupgaards Landk\u00f8kken", "phone": "+45 28867435", "shop": "farm", "website": "https://seerupgaard.dk/"}}, {"type": "node", "id": 5998092601, "lat": 55.3138951, "lon": 9.8079628, "tags": {"name": "G\u00e5rdbutik", "shop": "farm"}}, {"type": "node", "id": 6068337141, "lat": 55.4881763, "lon": 10.0880724, "tags": {"fvst:navnelbnr": "561374", "name": "Farsb\u00f8llegaard", "phone": "+45 30316468", "shop": "farm", "tourism": "guest_house"}}, {"type": "node", "id": 6139289392, "lat": 55.542041, "lon": 10.6635691, "tags": {"addr:city": "Martofte", "addr:housenumber": "30", "addr:postcode": "5390", "addr:street": "\u00c6blehaven", "fvst:navnelbnr": "544600", "name": "Hindsholmgrisen", "opening_hours": "Fr-Sa 10:00-16:00", "phone": "+45 23241818", "product": "pork", "shop": "farm", "website": "https://www.hindsholmgrisen.dk/"}}, {"type": "node", "id": 6381636894, "lat": 56.2703381, "lon": 10.1327882, "tags": {"name": "Slagter Lund G\u00e5rdbutik", "shop": "farm", "website": "https://www.gaardslagter.dk/"}}, {"type": "node", "id": 6446688417, "lat": 55.5325921, "lon": 8.3810864, "tags": {"facebook": "https://www.facebook.com/KathrinelundGaardbutik/", "name": "Kathrinelund G\u00e5rdbutik", "shop": "farm", "source": "https://www.ugeavisen-esbjerg.dk/esbjerg/Nyaabning-Gaardbutik-paa-kanten-af-byen/artikel/395438;http://hjertingposten.dk/landets-foerste-drive-in-gaardbutik-paa-vej-i-guldager/"}}, {"type": "node", "id": 6578144336, "lat": 54.9931992, "lon": 12.4900292, "tags": {"shop": "farm", "url": "http://www.havehoejegaard-bed-and-breakfast.dk/"}}, {"type": "node", "id": 6598383327, "lat": 55.9613442, "lon": 11.3865027, "tags": {"name": "Birkemoseg\u00e5rden", "opening_hours": "Mo-Th 10:00-17:00; Fr 10:00-18:00; Sa 09:00-18:00; Su 09:00-17:00", "phone": "+45 26 23 82 33", "shop": "farm", "website": "https://birkemosegaarden.dk/"}}, {"type": "node", "id": 3826754451, "lat": 55.3948474, "lon": 10.3834491, "tags": {"name": "Winthers Kaffe", "shop": "coffee"}}, {"type": "node", "id": 4316775503, "lat": 55.3813285, "lon": 10.0507623, "tags": {"name": "Holy Bean Coffee Roasters", "shop": "coffee", "website": "https://holybean.dk/"}}, {"type": "node", "id": 4398357563, "lat": 56.1589535, "lon": 10.2120817, "tags": {"fvst:name": "La Cabra ApS Kafferisteri", "fvst:navnelbnr": "710403", "name": "La Cabra", "shop": "coffee", "website": "https://www.lacabra.dk/"}}, {"type": "node", "id": 4408134212, "lat": 55.490485, "lon": 9.479492, "tags": {"fvst:navnelbnr": "571119", "name": "Bella Norma", "shop": "coffee"}}, {"type": "node", "id": 5044337738, "lat": 55.4342426, "lon": 11.5571827, "tags": {"name": "Kaffebar", "shop": "coffee"}}, {"type": "node", "id": 5158616153, "lat": 56.2082373, "lon": 10.2364596, "tags": {"email": "info@mokkahouse.dk", "name": "MokkaHouse", "opening_hours": "Mo-Fr 10:00-17:00; Sa 10:00-15:00", "phone": "+45 71 99 54 05", "shop": "coffee", "website": "https://www.mokkahouse.dk/", "wheelchair": "yes"}}, {"type": "node", "id": 5618426747, "lat": 56.484159, "lon": 10.0321542, "tags": {"email": "salg@kaffeagenterne.dk", "facebook": "https://www.facebook.com/kaffeagenterne/", "name": "Kaffeagenterne", "opening_hours": "Mo-Fr 10:00-14:00", "phone": "+45 70267039", "shop": "coffee", "website": "https://kaffeagenterne.dk"}}, {"type": "node", "id": 5664656495, "lat": 56.1579311, "lon": 10.2071479, "tags": {"name": "Hans & Grete Kaffe & The", "shop": "coffee"}}, {"type": "node", "id": 5678435728, "lat": 56.1481072, "lon": 10.2025157, "tags": {"name": "Friis Kaffe & Te", "shop": "coffee"}}, {"type": "node", "id": 6434735012, "lat": 55.8412332, "lon": 12.4317861, "tags": {"name": "Birker\u00f8d Kaffe & The", "shop": "coffee"}}, {"type": "node", "id": 6619231385, "lat": 55.5055757, "lon": 9.7308299, "tags": {"level": "0", "name": "Alwilda's", "opening_hours": "Mo-Fr 09:30-17:30; Sa 09:30-14:00; PH closed", "shop": "coffee", "wheelchair": "no"}}, {"type": "node", "id": 6652748616, "lat": 54.9077993, "lon": 9.7871294, "tags": {"name": "Als Risteri", "organic": "yes", "shop": "coffee", "website": "https://alsristeri.dk/"}}, {"type": "node", "id": 279715915, "lat": 55.6859945, "lon": 12.5362006, "tags": {"name": "California Frugt & Gr\u00f8nt", "shop": "greengrocer"}}, {"type": "node", "id": 654111869, "lat": 55.3750871, "lon": 10.3957627, "tags": {"name": "Frugt & Blomster", "shop": "greengrocer"}}, {"type": "node", "id": 835815869, "lat": 55.7841437, "lon": 12.373675, "tags": {"alt_name": "Det Gr\u00f8nne Hj\u00f8rne", "name": "V\u00e6rl\u00f8se Minimarked", "shop": "greengrocer"}}, {"type": "node", "id": 893933467, "lat": 55.6677198, "lon": 12.548009, "tags": {"name": "Radisen", "shop": "greengrocer"}}, {"type": "node", "id": 899170181, "lat": 55.6655623, "lon": 12.5783215, "tags": {"name": "Frugtk\u00e6lderen", "shop": "greengrocer"}}, {"type": "node", "id": 902893335, "lat": 55.6597023, "lon": 12.6042446, "tags": {"name": "Ting Marked", "shop": "greengrocer", "source": "http://cvr.dk/Site/Forms/PublicService/DisplayCompany.aspx?cvrnr=31648432"}}, {"type": "node", "id": 902968998, "lat": 55.6579437, "lon": 12.6074294, "tags": {"name": "Polat Bazar", "shop": "greengrocer"}}, {"type": "node", "id": 952062324, "lat": 55.4912109, "lon": 9.4718199, "tags": {"name": "Frugtb\u00f8rsen", "shop": "greengrocer"}}, {"type": "node", "id": 1080851648, "lat": 55.6948367, "lon": 12.5434255, "tags": {"name": "Stefanos Gr\u00f8nne Hj\u00f8rne", "shop": "greengrocer", "wheelchair": "no"}}, {"type": "node", "id": 1109570653, "lat": 55.6948942, "lon": 12.548193, "tags": {"name": "Al-Basrha Marked", "shop": "greengrocer"}}, {"type": "node", "id": 1109570732, "lat": 55.6947203, "lon": 12.5495918, "tags": {"name": "Top Star Mix", "opening_hours:signed": "no", "shop": "greengrocer"}}, {"type": "node", "id": 1109570761, "lat": 55.6949463, "lon": 12.5476915, "tags": {"name": "Al-Kawther Minimarked", "shop": "greengrocer"}}, {"type": "node", "id": 1114445236, "lat": 55.7676498, "lon": 12.5024092, "tags": {"name": "Lyngby Frugt & Gr\u00f8nt", "shop": "greengrocer"}}, {"type": "node", "id": 1216069878, "lat": 55.6892134, "lon": 12.5552352, "tags": {"shop": "greengrocer"}}, {"type": "node", "id": 1306239498, "lat": 55.6639455, "lon": 12.5157258, "tags": {"shop": "greengrocer"}}, {"type": "node", "id": 1369024324, "lat": 55.7026963, "lon": 12.5471135, "tags": {"name": "Asia Bazar", "opening_hours": "08:00-22:00", "post_office": "yes", "shop": "greengrocer"}}, {"type": "node", "id": 1497191038, "lat": 55.6832031, "lon": 12.5869178, "tags": {"name": "Kongens Frugt & Gr\u00f8nt", "shop": "greengrocer"}}, {"type": "node", "id": 1596173228, "lat": 55.4157052, "lon": 11.3542131, "tags": {"shop": "greengrocer"}}, {"type": "node", "id": 1602614277, "lat": 56.9641888, "lon": 8.7079357, "tags": {"name": "Frugtlageret", "shop": "greengrocer"}}, {"type": "node", "id": 1745915942, "lat": 55.6174649, "lon": 12.5719602, "tags": {"name": "Kervan", "opening_hours": "08:00-20:00", "shop": "greengrocer", "website": "http://www.kervan-8tallet.dk"}}, {"type": "node", "id": 1768128486, "lat": 55.7798982, "lon": 12.3231561, "tags": {"name": "Rokedysseg\u00e5rd", "shop": "greengrocer"}}, {"type": "node", "id": 1777389736, "lat": 55.6656628, "lon": 12.4383117, "tags": {"shop": "greengrocer"}}, {"type": "node", "id": 1778965106, "lat": 55.7207321, "lon": 12.531493, "tags": {"shop": "greengrocer"}}, {"type": "node", "id": 1787169799, "lat": 55.3928321, "lon": 10.398093, "tags": {"name": "El-Soussi", "shop": "greengrocer", "source": "http://www.nelso.dk/dk/place/220004/"}}, {"type": "node", "id": 1787624617, "lat": 55.6995686, "lon": 12.5380658, "tags": {"shop": "greengrocer"}}, {"type": "node", "id": 1803669965, "lat": 55.4906223, "lon": 9.4732676, "tags": {"name": "Michellas Frugt & Gront", "shop": "greengrocer", "source": "Kaart Ground Survey 2017"}}, {"type": "node", "id": 1837425276, "lat": 55.686845, "lon": 12.5489831, "tags": {"name": "Corner Shop", "shop": "greengrocer"}}, {"type": "node", "id": 1841845842, "lat": 55.6784803, "lon": 12.5019503, "tags": {"shop": "greengrocer"}}, {"type": "node", "id": 1880187485, "lat": 55.7239599, "lon": 12.4393143, "tags": {"name": "Frugtkurven", "note": "May be mostly flowers now", "shop": "greengrocer"}}, {"type": "node", "id": 2152541968, "lat": 56.1587979, "lon": 10.2068397, "tags": {"name": "Klostergr\u00f8nt", "shop": "greengrocer"}}, {"type": "node", "id": 2373141927, "lat": 55.7033993, "lon": 12.5297949, "tags": {"name": "Jerusalem Gr\u00f8nt & Frugt", "shop": "greengrocer"}}, {"type": "node", "id": 2510361350, "lat": 55.6657605, "lon": 12.5102457, "tags": {"name": "Valby Gr\u00f8nne Hj\u00f8rne 93", "shop": "greengrocer", "source": "Kaart Ground Survey 2017"}}, {"type": "node", "id": 2533735972, "lat": 56.170339, "lon": 10.2161508, "tags": {"name": "Ana Frugt & Gr\u00f8nt", "shop": "greengrocer"}}, {"type": "node", "id": 2554125902, "lat": 55.869375, "lon": 12.3561365, "tags": {"shop": "greengrocer"}}, {"type": "node", "id": 3287971361, "lat": 55.6878556, "lon": 12.559714, "tags": {"shop": "greengrocer"}}, {"type": "node", "id": 3287971363, "lat": 55.6875504, "lon": 12.5593477, "tags": {"shop": "greengrocer"}}, {"type": "node", "id": 3319890449, "lat": 55.3290638, "lon": 10.327088, "tags": {"shop": "greengrocer"}}, {"type": "node", "id": 3404320497, "lat": 55.72902, "lon": 12.35994, "tags": {"name": "Byens Frugt & Gr\u00f8nt", "shop": "greengrocer"}}, {"type": "node", "id": 3488518174, "lat": 55.8143991, "lon": 12.3792823, "tags": {"shop": "greengrocer"}}, {"type": "node", "id": 3672094025, "lat": 55.6980675, "lon": 12.5527859, "tags": {"name": "Onur Frugt", "phone": "+45 35 82 49 33", "shop": "greengrocer"}}, {"type": "node", "id": 3739469258, "lat": 55.6597529, "lon": 12.6060525, "tags": {"name": "Mondila Market", "shop": "greengrocer"}}, {"type": "node", "id": 4009393508, "lat": 55.6677093, "lon": 12.5479436, "tags": {"fvst:navnelbnr": "111022", "name": "Frugt Gr\u00f8nt Radisen", "shop": "greengrocer"}}, {"type": "node", "id": 4105345691, "lat": 55.68002, "lon": 12.5824014, "tags": {"name": "F\u00f8tex foods", "opening_hours": "Mo-Su 09:00-22:00", "shop": "greengrocer"}}, {"type": "node", "id": 4163123989, "lat": 55.6965161, "lon": 12.5457834, "tags": {"name": "Aeiat Marked", "shop": "greengrocer"}}, {"type": "node", "id": 4192989724, "lat": 55.1827434, "lon": 14.9655117, "tags": {"name": "kobbevang", "opening_hours": "Mo-Su 10:00-20:00", "shop": "greengrocer"}}, {"type": "node", "id": 4206006797, "lat": 55.4708119, "lon": 8.4537506, "tags": {"facebook": "https://www.facebook.com/Regnbuen-467119773452051/", "name": "Regnbuen", "shop": "greengrocer"}}, {"type": "node", "id": 4227147202, "lat": 55.39381, "lon": 10.375581, "tags": {"fvst:navnelbnr": "563074", "name": "Vesterbro Marked", "shop": "greengrocer"}}, {"type": "node", "id": 4321444130, "lat": 55.2392924, "lon": 10.4803245, "tags": {"name": "Lille Bazar", "shop": "greengrocer"}}, {"type": "node", "id": 4352620780, "lat": 55.6409402, "lon": 12.0800764, "tags": {"fvst:navnelbnr": "735275", "name": "Persillepigen", "shop": "greengrocer"}}, {"type": "node", "id": 4356669791, "lat": 55.6560306, "lon": 12.3543307, "tags": {"fvst:navnelbnr": "562274", "layer": "-1", "name": "Bonita", "shop": "greengrocer"}}, {"type": "node", "id": 4387037348, "lat": 55.7005912, "lon": 12.5384731, "tags": {"name": "Al Zahraa Marked", "shop": "greengrocer"}}, {"type": "node", "id": 4387037513, "lat": 55.699766, "lon": 12.5408235, "tags": {"name": "10 Plus", "shop": "greengrocer"}}, {"type": "node", "id": 4408160854, "lat": 55.46628, "lon": 8.450542, "tags": {"fvst:navnelbnr": "76872", "name": "K P Frugt", "shop": "greengrocer"}}, {"type": "node", "id": 4540353946, "lat": 56.1942461, "lon": 10.234342, "tags": {"fvst:navnelbnr": "503908", "name": "Frugt og Gr\u00f8nt Plantagen", "shop": "greengrocer"}}, {"type": "node", "id": 4629397523, "lat": 56.1594964, "lon": 10.2017955, "tags": {"name": "Hos Tyrkeren", "opening_hours": "09:00-18:30", "operator": "Memet Kocak", "shop": "greengrocer", "website": "https://www.facebook.com/tyrkerenaarhus/"}}, {"type": "node", "id": 4677457038, "lat": 55.7027698, "lon": 12.5846912, "tags": {"fvst:name": "Living Earth Market", "fvst:navnelbnr": "765767", "name": "Kervan", "shop": "greengrocer"}}, {"type": "node", "id": 4705146757, "lat": 55.746415, "lon": 12.541876, "tags": {"fvst:navnelbnr": "96657", "name": "Den Nye Gr\u00f8nne", "shop": "greengrocer", "website": "http://www.dnggentofte.dk/"}}, {"type": "node", "id": 4802376788, "lat": 55.4715415, "lon": 8.4667192, "tags": {"facebook": "https://www.facebook.com/BazarSham1", "name": "Bazar Sham", "shop": "greengrocer"}}, {"type": "node", "id": 4854239673, "lat": 55.6237531, "lon": 12.3882564, "tags": {"name": "Lassefars Gr\u00f8nthandel", "shop": "greengrocer"}}, {"type": "node", "id": 4885994331, "lat": 55.7120664, "lon": 12.4723463, "tags": {"name": "Kiwi & Mango", "shop": "greengrocer", "source": "Kaart Ground Survey 2017"}}, {"type": "node", "id": 4886334449, "lat": 55.6866219, "lon": 12.5323499, "tags": {"fixme": "name", "shop": "greengrocer", "source": "Kaart Ground Survey 2017"}}, {"type": "node", "id": 5155844062, "lat": 55.6847377, "lon": 12.5695606, "tags": {"fvst:navnelbnr": "715469", "name": "Uganic by Hm Foods", "shop": "greengrocer"}}, {"type": "node", "id": 5163797145, "lat": 56.1589757, "lon": 10.2093267, "tags": {"fvst:navnelbnr": "42126", "name": "Ganefryd", "shop": "greengrocer", "website": "https://www.ganefryd.dk/"}}, {"type": "node", "id": 5163911204, "lat": 55.6568314, "lon": 12.6117791, "tags": {"fvst:navnelbnr": "717151", "name": "Magnatum", "shop": "greengrocer"}}, {"type": "node", "id": 5338683115, "lat": 55.4478675, "lon": 12.1657931, "tags": {"name": "Boholte Frugt og Gr\u00f8nt", "shop": "greengrocer"}}, {"type": "node", "id": 5420205923, "lat": 55.7117442, "lon": 12.5772203, "tags": {"name": "Tropicano", "post_office": "yes", "shop": "greengrocer"}}, {"type": "node", "id": 5741920812, "lat": 54.9824529, "lon": 12.2830819, "tags": {"fvst:navnelbnr": "746190", "name": "M\u00f8n\u00f8ko Balance Gr\u00f8nt", "shop": "greengrocer"}}, {"type": "node", "id": 5933674359, "lat": 55.6853753, "lon": 12.569038, "tags": {"name": "Ecoego", "opening_hours": "Sa 11:00-15:00; Mo-Fr 11:00-18:00", "shop": "greengrocer", "website": "http://ecoego.dk/"}}, {"type": "node", "id": 5961513167, "lat": 55.7160162, "lon": 11.7175023, "tags": {"shop": "greengrocer"}}, {"type": "node", "id": 6058913886, "lat": 56.7174116, "lon": 10.1150021, "tags": {"shop": "greengrocer"}}, {"type": "node", "id": 6274940592, "lat": 55.6790613, "lon": 12.4556642, "tags": {"addr:city": "R\u00f8dovre", "addr:housenumber": "71", "addr:postcode": "2610", "addr:street": "R\u00f8dovre Centrum", "name": "La Rose", "opening_hours": "Mo-Fr 10:00-19:00; Sa-Su 10:00-17:00", "shop": "greengrocer"}}, {"type": "node", "id": 6434746731, "lat": 55.8412717, "lon": 12.4318103, "tags": {"name": "Frugthuset", "shop": "greengrocer"}}, {"type": "node", "id": 6484474276, "lat": 55.7225241, "lon": 12.438719, "tags": {"level": "-1", "name": "Frugtkurven Bazar", "note": "Also has some other convenience store items", "shop": "greengrocer"}}, {"type": "node", "id": 3287796631, "lat": 55.6828962, "lon": 12.5704171, "tags": {"contact:email": "butik@osterlandsk.dk", "contact:phone": "+45 3313 1000", "contact:website": "http://osterlandskthehus.dk", "name": "\u00d8sterlandsk Thehus", "opening_hours": "Mo-Th 10:00-18:00; Fr 10:00-19:00; Sa 10:00-17:00; Su 11:00-16:00", "shop": "tea"}}, {"type": "node", "id": 3802593302, "lat": 55.6765509, "lon": 12.5738404, "tags": {"amenity": "cafe", "fvst:navnelbnr": "572792", "name": "Sing Tehus", "shop": "tea", "wheelchair": "limited"}}, {"type": "node", "id": 4138675870, "lat": 55.2807268, "lon": 12.4363154, "tags": {"name": "Teadrops", "shop": "tea"}}, {"type": "node", "id": 4328446366, "lat": 55.6806565, "lon": 12.5788677, "tags": {"fvst:navnelbnr": "115395", "name": "Perchs Tea Room", "shop": "tea", "website": "http://www.perchstearoom.dk/"}}, {"type": "node", "id": 4807563384, "lat": 55.7418015, "lon": 12.4947199, "tags": {"name": "Te, Kaffe og Helse", "shop": "tea"}}, {"type": "node", "id": 4924724639, "lat": 55.0438586, "lon": 9.4190222, "tags": {"name": "Fam. Carstensens Tehandel", "shop": "tea"}}, {"type": "node", "id": 6488133553, "lat": 55.7727872, "lon": 12.5015206, "tags": {"name": "Chaya", "shop": "tea", "website": "https://www.chaya.dk/"}}, {"type": "node", "id": 4530955586, "lat": 57.0516365, "lon": 9.9154562, "tags": {"fvst:name": "ROSITAS IVS Engros", "fvst:navnelbnr": "574199", "name": "Rositas Engros", "shop": "spices", "wholesale": "yes"}}, {"type": "node", "id": 266138266, "lat": 55.3942134, "lon": 10.3939169, "tags": {"name": "Fisk & Vildt", "shop": "seafood"}}, {"type": "node", "id": 762154879, "lat": 55.3944462, "lon": 10.3861869, "tags": {"name": "Hilbert Christiansen", "shop": "seafood"}}, {"type": "node", "id": 977313673, "lat": 55.4889983, "lon": 9.476474, "tags": {"name": "Byens Fiskehus", "shop": "seafood"}}, {"type": "node", "id": 1029634783, "lat": 55.686591, "lon": 12.5877919, "tags": {"name": "Fiskehuset Bolan", "shop": "seafood"}}, {"type": "node", "id": 1183390671, "lat": 55.2514214, "lon": 11.2896963, "tags": {"name": "Nielsens Fiskehus", "shop": "seafood"}}, {"type": "node", "id": 1217456817, "lat": 55.8629268, "lon": 9.8452512, "tags": {"contact:mobile": "+45 28195488", "name": "Leos Fisk & Vildt", "opening_hours": "We-Th 08:00-17:00; Fr 08:00-18:00; Sa 08:00-12:30", "phone": "+45 75625488", "shop": "seafood"}}, {"type": "node", "id": 1279200249, "lat": 55.8696071, "lon": 12.3538205, "tags": {"level": "0", "name": "Kvickly Aller\u00f8d Fisk", "opening_hours": "Tu-Th 08:00-18:00; Fr 08:00-19:00; Sa 08:00-16:00", "operator": "Kvickly", "payment:cash": "yes", "payment:credit_cards": "yes", "phone": "+4548165152", "shop": "seafood", "website": "http://www.kvickly-alleroed.dk/om-kvickly/fiskebutik/"}}, {"type": "node", "id": 1316569387, "lat": 55.7144107, "lon": 10.0172102, "tags": {"name": "Fiskebutik", "shop": "seafood"}}, {"type": "node", "id": 1455011164, "lat": 56.1357387, "lon": 8.9709172, "tags": {"name": "Lilletorvs Fisk", "shop": "seafood"}}, {"type": "node", "id": 1470585391, "lat": 54.9393632, "lon": 10.7087704, "tags": {"name": "Rudk\u00f8bing R\u00f8geri", "shop": "seafood"}}, {"type": "node", "id": 1487195939, "lat": 55.9990985, "lon": 8.1252463, "tags": {"name": "Havnens R\u00f8geri", "shop": "seafood"}}, {"type": "node", "id": 1524692773, "lat": 55.5126243, "lon": 9.6297841, "tags": {"name": "Ruths Fisk", "shop": "seafood"}}, {"type": "node", "id": 1562502167, "lat": 55.8530413, "lon": 12.5628918, "tags": {"alt_name": "Skaldyrsklubben", "name": "Gourmanden & Konen", "shop": "seafood", "website": "http://www.gourmandenogkonen.dk/"}}, {"type": "node", "id": 1563276092, "lat": 55.6840434, "lon": 12.5692934, "tags": {"name": "Fiskerikajen", "shop": "seafood"}}, {"type": "node", "id": 1563290094, "lat": 55.6840041, "lon": 12.5692478, "tags": {"name": "Hav.dk", "shop": "seafood"}}, {"type": "node", "id": 1574274968, "lat": 55.644622, "lon": 12.6148049, "tags": {"shop": "seafood"}}, {"type": "node", "id": 1596576332, "lat": 56.7779023, "lon": 8.2547247, "tags": {"name": "Agger Fiskebil", "shop": "seafood"}}, {"type": "node", "id": 1602426952, "lat": 56.9531476, "lon": 8.6945349, "tags": {"name": "Fiskehuset", "shop": "seafood"}}, {"type": "node", "id": 1612768078, "lat": 56.9587929, "lon": 8.3686225, "tags": {"name": "R\u00f8geri", "shop": "seafood"}}, {"type": "node", "id": 1632889796, "lat": 55.7198704, "lon": 11.7108728, "tags": {"shop": "seafood"}}, {"type": "node", "id": 1640391592, "lat": 55.678572, "lon": 12.5048203, "tags": {"name": "Winsor Fisk", "shop": "seafood"}}, {"type": "node", "id": 1652597912, "lat": 55.2412184, "lon": 9.5546009, "tags": {"name": "finns fisk", "shop": "seafood"}}, {"type": "node", "id": 1652699318, "lat": 55.9723349, "lon": 11.3666217, "tags": {"amenity": "fast_food", "cuisine": "fish_and_chips", "fvst:name": "Odden Fisk, detail", "fvst:navnelbnr": "86429", "name": "Odden Fisk", "shop": "seafood"}}, {"type": "node", "id": 1655789384, "lat": 55.6658774, "lon": 12.5121143, "tags": {"name": "Valby Fisk", "opening_hours": "Mo-Th 10:00-17:30, Fr 10:00-18:00, Sa 10:00-14:00", "shop": "seafood"}}, {"type": "node", "id": 1704850795, "lat": 55.5933513, "lon": 12.6769527, "tags": {"name": "Drag\u00f8r R\u00f8geri", "shop": "seafood"}}, {"type": "node", "id": 1880187488, "lat": 55.7237513, "lon": 12.4393667, "tags": {"shop": "seafood"}}, {"type": "node", "id": 1968406024, "lat": 56.9585947, "lon": 8.3679799, "tags": {"name": "Fiskebutik og R\u00f8geri", "shop": "seafood"}}, {"type": "node", "id": 2125138877, "lat": 55.618499, "lon": 12.4063268, "tags": {"name": "Holmstads Fisk og Skaldyr", "shop": "seafood"}}, {"type": "node", "id": 2244471167, "lat": 55.7550913, "lon": 12.5667033, "tags": {"name": "Fiskeriet", "shop": "seafood"}}, {"type": "node", "id": 2370990961, "lat": 55.9437004, "lon": 11.8634379, "tags": {"name": "Lyn\u00e6s Fiskehus", "shop": "seafood"}}, {"type": "node", "id": 2426020458, "lat": 57.1116865, "lon": 9.1349612, "tags": {"name": "Vesterhavsfisk", "shop": "seafood"}}, {"type": "node", "id": 2537887472, "lat": 55.709572, "lon": 12.5599926, "tags": {"name": "Haralds Fisk", "shop": "seafood"}}, {"type": "node", "id": 2611916613, "lat": 55.999607, "lon": 8.1254736, "tags": {"shop": "seafood"}}, {"type": "node", "id": 2698755139, "lat": 55.6679065, "lon": 12.5794015, "tags": {"name": "Fiskeb\u00f8rsen", "opening_hours": "Mo-Fr 11:00-18:00; Sa 10:00-14:00", "phone": "+45 32 57 06 09", "shop": "seafood", "website": "http://fiskeboersen.dk"}}, {"type": "node", "id": 2774840974, "lat": 55.7074038, "lon": 9.5433722, "tags": {"name": "Havnens Fiskehandler", "shop": "seafood"}}, {"type": "node", "id": 3019662735, "lat": 55.8158544, "lon": 10.6385002, "tags": {"addr:housenumber": "3", "addr:street": "Havnevej", "amenity": "restaurant", "cuisine": "seafood", "fvst:navnelbnr": "560523", "name": "R\u00f8geriet", "opening_hours": "summer", "outdoor_seating": "yes", "shop": "seafood"}}, {"type": "node", "id": 3227897570, "lat": 56.5500497, "lon": 8.3049755, "tags": {"name": "Bjarnes Fisk", "shop": "seafood"}}, {"type": "node", "id": 3265696037, "lat": 55.6221739, "lon": 12.423237, "tags": {"name": "Maja's Fiskebiler", "opening_hours": "Fr 10:00-14:00", "phone": "+45 28 82 78 29", "shop": "seafood", "source": "Maja's Fiskebiler"}}, {"type": "node", "id": 3275052807, "lat": 55.622965, "lon": 12.3882568, "tags": {"name": "Maja's Fiskebiler", "opening_hours": "Tu 14:00-17:00", "phone": "+45 28 82 78 29", "shop": "seafood"}}, {"type": "node", "id": 3400753678, "lat": 56.8050549, "lon": 10.2815363, "tags": {"amenity": "cafe", "cuisine": "seafood", "fvst:name": "Udsigten", "fvst:navnelbnr": "706729", "name": "Havnens Fisk", "shop": "seafood"}}, {"type": "node", "id": 3404320648, "lat": 55.5949318, "lon": 12.3275306, "tags": {"name": "Gersagerparkens akvarie forening", "shop": "seafood"}}, {"type": "node", "id": 3488518187, "lat": 55.8144595, "lon": 12.3793952, "tags": {"name": "Farum Fisk & Vildt", "shop": "seafood"}}, {"type": "node", "id": 3499959736, "lat": 56.12668, "lon": 12.30846, "tags": {"name": "Adamsen's", "opening_hours": "Mo-Th 9:00-17:30; Fr 9:00-18:00; Sa 9:00-16:00; Su 10:00-16:00", "phone": "+45 48 30 09 27", "shop": "seafood", "website": "http://www.adamsensfisk.dk"}}, {"type": "node", "id": 3499959749, "lat": 56.12691, "lon": 12.30842, "tags": {"addr:city": "Gilleleje", "addr:housenumber": "4", "addr:postcode": "3250", "addr:street": "Havnen", "name": "Fiskehuset", "opening_hours": "Mo-Th 09:00-17:30; Fr 09:00-18:00; Sa-Su 09:00-16:00", "payment:cash": "yes", "payment:credit_cards": "yes", "phone": "+45 48 30 01 10", "shop": "seafood", "website": "https://www.fiskehuset-gilleleje.dk/"}}, {"type": "node", "id": 3770177649, "lat": 55.5559611, "lon": 8.1352441, "tags": {"name": "Bl\u00e5vand Fisk", "shop": "seafood", "website": "https://www.blaavandfisk.dk/"}}, {"type": "node", "id": 3857295284, "lat": 57.1393958, "lon": 9.1254349, "tags": {"name": "Thorup Strand - Fiskernes fiskebutik", "opening_hours": "Fr-Sa 10:00-18:00; Su 10:00-16:00", "shop": "seafood", "website": "http://www.thorupstrandfisk.dk/koeb-fisk/fiskernes-fiskebutik/"}}, {"type": "node", "id": 3874650373, "lat": 56.8909643, "lon": 9.1660605, "tags": {"name": "R\u00f8nbjerg Fiskehus", "operator": "Kent Larsen", "phone": "+45 40 387 058", "shop": "seafood", "website": "http://www.ronbjergfiskehus.dk/"}}, {"type": "node", "id": 4060724658, "lat": 55.2541965, "lon": 12.3757653, "tags": {"name": "R\u00f8dvig Fisk", "shop": "seafood"}}, {"type": "node", "id": 4204761590, "lat": 55.6978536, "lon": 12.5525559, "tags": {"name": "Frisk Fisk", "opening_hours": "Tu-Fr 10:30-18:00; Sa 10:00-14:00", "phone": "+45 35 85 35 86", "shop": "seafood", "website": "http://tosk.dk/"}}, {"type": "node", "id": 4285320527, "lat": 56.4088722, "lon": 10.920817, "tags": {"amenity": "restaurant", "cuisine": "seafood", "fvst:navnelbnr": "577513", "name": "FriskFisken", "phone": "+45 86321470", "shop": "seafood", "website": "http://www.friskfisken.dk/restaurant"}}, {"type": "node", "id": 4286893891, "lat": 55.5670481, "lon": 12.2853683, "tags": {"amenity": "cafe", "cuisine": "danish", "fvst:navnelbnr": "575596", "name": "Cille R\u00f8geriet's Sandwich Caf\u00e9", "opening_hours": "11:00-17:00; Fr-Su 11:00-18:00; Mo off", "phone": "+45 21694706", "shop": "seafood"}}, {"type": "node", "id": 4286924472, "lat": 55.5671396, "lon": 12.2861489, "tags": {"name": "Det Ny R\u00f8geri", "opening_hours": "10:00-17:30; Sa-Su 10:00-15:00; Mo off", "shop": "seafood", "website": "http://www.detnyroegeri.dk/"}}, {"type": "node", "id": 4328186509, "lat": 56.1266021, "lon": 12.3080378, "tags": {"name": "Adamsen", "shop": "seafood"}}, {"type": "node", "id": 4404603535, "lat": 56.3716519, "lon": 8.1234996, "tags": {"shop": "seafood"}}, {"type": "node", "id": 4406220596, "lat": 55.6785857, "lon": 12.5046631, "tags": {"shop": "seafood"}}, {"type": "node", "id": 4408094070, "lat": 56.1266671, "lon": 12.3083176, "tags": {"fvst:name": "Adamsens Fisk ApS", "fvst:navnelbnr": "734484", "name": "Adamsens Fisk", "shop": "seafood", "website": "http://adamsensfisk.dk/fastfood"}}, {"type": "node", "id": 4514040851, "lat": 57.7193094, "lon": 10.5881008, "tags": {"alt_name": "\u00c5vangs Fiskehus", "fvst:navnelbnr": "24996", "name": "Aavangs fiskehus", "opening_hours": "Mo-Fr 09:30-17:30; Sa 09:00-14:00", "phone": "+45 98441433", "shop": "seafood", "website": "http://www.aavangsfiskehus.dk/"}}, {"type": "node", "id": 4516106702, "lat": 56.4570512, "lon": 9.3909221, "tags": {"name": "Fiskemanden", "phone": "+45 86654046", "shop": "seafood"}}, {"type": "node", "id": 4516116801, "lat": 55.9227978, "lon": 11.6717574, "tags": {"fvst:navnelbnr": "87386", "name": "Kuberts Fisk", "shop": "seafood"}}, {"type": "node", "id": 4549258433, "lat": 57.5916157, "lon": 9.9555933, "tags": {"fvst:name": "Hirtshals Fiskehus ApS Engros med behandling", "fvst:navnelbnr": "545140", "name": "Hirtshals Fiskehus", "shop": "seafood", "wholesale": "yes"}}, {"type": "node", "id": 4556095414, "lat": 56.0138638, "lon": 9.6928533, "tags": {"amenity": "restaurant", "cuisine": "seafood", "fvst:fixme": "fvst position missing, fixed from Nominatim", "fvst:navnelbnr": "538282", "name": "Det Lille R\u00f8geri", "phone": "+45 75782885", "shop": "seafood", "website": "http://www.detlillerogeri.dk/"}}, {"type": "node", "id": 4578467053, "lat": 56.0050042, "lon": 8.1268093, "tags": {"cuisine": "seafood", "fvst:navnelbnr": "40281", "name": "Hvide Sande R\u00f8geri", "phone": "+45 97311899", "shop": "seafood", "website": "https://hvidesanderogeri.dk/"}}, {"type": "node", "id": 4584405828, "lat": 57.2949799, "lon": 10.9232916, "tags": {"name": "Mortens Fiskehandel", "shop": "seafood"}}, {"type": "node", "id": 4610180831, "lat": 55.6746247, "lon": 12.5864941, "tags": {"description": "Fisk fra Torup strand fiskerne.", "name": "Kutteren HM800 Jammerbugt", "opening_hours": "Tu-Fr 11:30-18:00; Sa 11:30-16:00", "phone": "+45 26 35 45 57", "shop": "seafood", "website": "http://www.thorupstrandfisk.dk/koeb-fisk/kutteren-hm800/"}}, {"type": "node", "id": 4705518124, "lat": 54.6927648, "lon": 11.9620551, "tags": {"name": "Carlos Fisk", "opening_hours": "Fr-Sa 10:00-13:00", "shop": "seafood"}}, {"type": "node", "id": 4723364146, "lat": 55.2758479, "lon": 14.8054165, "tags": {"amenity": "restaurant", "fvst:navnelbnr": "119233", "name": "Nordbornholms R\u00f8geri Fiskebutik", "phone": "+45 56480730", "shop": "seafood"}}, {"type": "node", "id": 4728390819, "lat": 57.33436, "lon": 10.529675, "tags": {"fvst:navnelbnr": "699182", "name": "Jacobs fiskebix", "shop": "seafood"}}, {"type": "node", "id": 4735675875, "lat": 57.2472704, "lon": 9.6199502, "tags": {"fvst:name": "Klausen Fisk Og Handelskompagni V/Mogens Klausen AK 52 996", "fvst:navnelbnr": "560750", "name": "Klausen Fisk", "phone": "+45 98248872", "shop": "seafood", "website": "https://www.klausenfiskogskaldyr.dk/"}}, {"type": "node", "id": 4736814527, "lat": 55.9447977, "lon": 11.7663032, "tags": {"name": "R\u00f8rvig Fisk og Fisker\u00f8geri", "shop": "seafood"}}, {"type": "node", "id": 4738713077, "lat": 57.2472363, "lon": 9.6199509, "tags": {"fvst:name": "Klausenfisk og skaldyr Aps SP 96 383", "fvst:navnelbnr": "699261", "name": "Klausen Fisk", "phone": "+45 98248872", "shop": "seafood", "website": "https://www.klausenfiskogskaldyr.dk/"}}, {"type": "node", "id": 4743920563, "lat": 55.4460267, "lon": 8.4055123, "tags": {"shop": "seafood"}}, {"type": "node", "id": 4823613794, "lat": 55.6730153, "lon": 12.5498574, "tags": {"fvst:navnelbnr": "698719", "name": "Viben Fiskehus", "shop": "seafood"}}, {"type": "node", "id": 4846975798, "lat": 55.4646317, "lon": 12.1834832, "tags": {"name": "Fiskemanden", "shop": "seafood", "website": "http://www.fiskemanden.com/"}}, {"type": "node", "id": 4885984589, "lat": 55.6926859, "lon": 12.5131915, "tags": {"name": "Gr\u00f8ndals Fiskehus", "shop": "seafood"}}, {"type": "node", "id": 4888946812, "lat": 57.1200056, "lon": 8.6025405, "tags": {"alt_name": "Frisk Hanstholm Fisk A/S", "name": "Frisk Hanstholm Fisk", "shop": "seafood", "source": "Kaart Ground Survey 2017", "website": "http://www.friskhanstholmfisk.dk/"}}, {"type": "node", "id": 4890427962, "lat": 55.4855675, "lon": 9.471682, "tags": {"name": "Fisk Med Mere", "shop": "seafood", "source": "Kaart Ground Survey 2017"}}, {"type": "node", "id": 4898393988, "lat": 55.4748047, "lon": 8.4262252, "tags": {"name": "Havnens Fiskehus", "shop": "seafood", "source": "Kaart Ground Survey 2017"}}, {"type": "node", "id": 4898393989, "lat": 55.4747113, "lon": 8.4263199, "tags": {"name": "Winther Laks", "shop": "seafood", "source": "Kaart Ground Survey 2017"}}, {"type": "node", "id": 4898576929, "lat": 55.4721742, "lon": 8.428791, "tags": {"name": "Sydvestjysk Fiskeriforening", "shop": "seafood", "source": "Kaart Ground Survey 2017"}}, {"type": "node", "id": 5062413925, "lat": 55.8416882, "lon": 12.4313522, "tags": {"addr:city": "Birker\u00f8d", "addr:housenumber": "30A", "addr:postcode": "3460", "addr:street": "Hovedgaden", "cuisine": "fish", "fvst:navnelbnr": "91751", "name": "Birker\u00f8d Fiskehus", "opening_hours": "Mo-Fr 09:30-17:30", "shop": "seafood", "website": "http://www.birkerodfiskehus.dk/"}}, {"type": "node", "id": 5141693513, "lat": 55.6641962, "lon": 12.6013438, "tags": {"fvst:name": "Amager Fiskehus ApS Engros", "fvst:navnelbnr": "113855", "name": "Amager Fiskehus", "opening_hours": "Tu-Th 08:30-17:30; Fr 08:30-18:00; Sa 08:00-13:00", "shop": "seafood", "website": "https://amagerfiskehus.dk/", "wholesale": "yes"}}, {"type": "node", "id": 5152045851, "lat": 55.933441, "lon": 9.3392868, "tags": {"contact:website": "http://www.vestermollefisk.dk/", "fee": "yes", "leisure": "fishing", "name": "Vester M\u00f8lle R\u00f8geri", "shop": "seafood", "website": "http://www.vestermollefisk.dk/"}}, {"type": "node", "id": 5224906074, "lat": 55.5560803, "lon": 8.1353644, "tags": {"shop": "seafood"}}, {"type": "node", "id": 5583124575, "lat": 55.6860551, "lon": 12.4906254, "tags": {"contact:facebook": "https://www.facebook.com/fiskehus", "contact:website": "http://www.fiskehus.nu/", "name": "Vanl\u00f8se Fiskehus", "shop": "seafood"}}, {"type": "node", "id": 5627577525, "lat": 55.545371, "lon": 8.1340161, "tags": {"name": "Fiskehj\u00f8rnet", "phone": "+45 27 80 32 72", "shop": "seafood"}}, {"type": "node", "id": 5638382658, "lat": 55.7358571, "lon": 12.5746026, "tags": {"name": "Strandvejens Fisk", "shop": "seafood"}}, {"type": "node", "id": 5644403095, "lat": 55.7811591, "lon": 12.4825969, "tags": {"name": "Sorgenfri Fisk", "opening_hours": "Mo-Th 09:30-17:30; Fr 09:30-18:00; Sa 09:00-13:00", "shop": "seafood", "website": "https://www.facebook.com/kimsfisk"}}, {"type": "node", "id": 5673344730, "lat": 56.1649295, "lon": 10.2188656, "tags": {"name": "P. Clausens Fiskehandel", "shop": "seafood"}}, {"type": "node", "id": 5673344731, "lat": 56.1652573, "lon": 10.2191789, "tags": {"name": "Havnens Fiskerhus", "shop": "seafood"}}, {"type": "node", "id": 5704485595, "lat": 55.507075, "lon": 9.8963991, "tags": {"name": "M\u00f8llers Fiskehus", "shop": "seafood"}}, {"type": "node", "id": 5766241054, "lat": 57.0582131, "lon": 10.3709834, "tags": {"name": "Tom's Fiskebod", "shop": "seafood"}}, {"type": "node", "id": 5774833353, "lat": 54.9344377, "lon": 10.8331602, "tags": {"name": "Kutterfisk", "opening_hours": "Tu-Su 10:30-14:00, 16:00-20:00", "shop": "seafood"}}, {"type": "node", "id": 5787614176, "lat": 56.533764, "lon": 10.7120516, "tags": {"name": "M\u00f8lle Fisk Havnens R\u00f8geri", "phone": "+45 70262210", "shop": "seafood"}}, {"type": "node", "id": 5894579380, "lat": 56.0016529, "lon": 8.1327903, "tags": {"name": "Slusen's Fiskehal", "shop": "seafood"}}, {"type": "node", "id": 5909797037, "lat": 57.2472245, "lon": 9.6199425, "tags": {"fvst:navnelbnr": "745441", "name": "Klausen Fisk", "phone": "+45 98248872", "shop": "seafood", "website": "https://www.klausenfiskogskaldyr.dk/", "wholesale": "yes"}}, {"type": "node", "id": 5922059753, "lat": 55.6641868, "lon": 12.6013586, "tags": {"fvst:name": "Amager Fiskehus, detail", "fvst:navnelbnr": "113895", "name": "Amager Fiskehus", "opening_hours": "Tu-Th 08:30-17:30; Fr 08:30-18:00; Sa 08:00-13:00", "shop": "seafood", "website": "https://amagerfiskehus.dk/", "wholesale": "no"}}, {"type": "node", "id": 5922586724, "lat": 56.6996876, "lon": 9.1916648, "tags": {"fvst:navnelbnr": "757098", "name": "Havnens R\u00f8geri", "shop": "seafood"}}, {"type": "node", "id": 5941388085, "lat": 57.2472974, "lon": 9.6199653, "tags": {"fvst:name": "Klausenfisk og skaldyr Aps Fiskebutik", "fvst:navnelbnr": "699263", "name": "Klausenfisk og skaldyr", "phone": "+45 98248872", "shop": "seafood", "website": "https://www.klausenfiskogskaldyr.dk/"}}, {"type": "node", "id": 6274940591, "lat": 55.6791287, "lon": 12.4556687, "tags": {"addr:city": "R\u00f8dovre", "addr:housenumber": "73", "addr:postcode": "2610", "addr:street": "R\u00f8dovre Centrum", "name": "Centrum Fisk", "opening_hours": "Mo-Fr 10:00-19:00; Sa-Su 10:00-17:00", "phone": "+45 36 70 23 93", "shop": "seafood"}}, {"type": "node", "id": 6332391362, "lat": 57.3343618, "lon": 10.5275053, "tags": {"name": "Klostergydens Fisk", "shop": "seafood"}}, {"type": "node", "id": 6551042735, "lat": 55.7089073, "lon": 12.5777094, "tags": {"name": "Dagens Fisk", "opening_hours": "Tu-Th 10:00-17:30; Fr 10:00-18:00; Sa 09:00-14:00", "shop": "seafood", "website": "https://www.dagensfisk.dk"}}, {"type": "node", "id": 6635500802, "lat": 55.6386786, "lon": 9.7031048, "tags": {"shop": "seafood"}}, {"type": "node", "id": 6540784800, "lat": 55.9664497, "lon": 11.9999906, "tags": {"name": "Frederiksv\u00e6rk R\u00f8geri", "shop": "fishmonger"}}]}