{"version": 0.6, "generator": "Overpass API 0.7.55.7 8b86ff77", "osm3s": {"timestamp_osm_base": "2019-07-31T12:14:02Z", "timestamp_areas_base": "2019-07-31T11:17:03Z", "copyright": "The data included in this document is from www.openstreetmap.org. The data is made available under ODbL."}, "elements": [{"type": "node", "id": 808698691, "lat": 59.579382, "lon": 25.7242309, "tags": {"name": "Lihapood", "opening_hours": "Fr-Sa 07:30-13:00", "shop": "butcher"}}, {"type": "node", "id": 1047107821, "lat": 58.3745241, "lon": 24.5363354, "tags": {"shop": "butcher"}}, {"type": "node", "id": 1757352440, "lat": 58.3666999, "lon": 25.5918485, "tags": {"shop": "butcher"}}, {"type": "node", "id": 1900919379, "lat": 58.3581222, "lon": 26.6758881, "tags": {"level": "0", "name": "Talutooted", "opening_hours": "Mo-Su 10:00-21:00", "phone": "+372 3220516", "shop": "butcher"}}, {"type": "node", "id": 2408042158, "lat": 59.3338876, "lon": 25.3337541, "tags": {"shop": "butcher"}}, {"type": "node", "id": 2676859859, "lat": 59.430126, "lon": 24.766025, "tags": {"shop": "butcher"}}, {"type": "node", "id": 2709327301, "lat": 59.3070811, "lon": 24.4142661, "tags": {"name": "Kolm P\u00f5rsakest", "shop": "butcher"}}, {"type": "node", "id": 4321615146, "lat": 59.3533437, "lon": 24.0603797, "tags": {"shop": "butcher"}}, {"type": "node", "id": 4750501743, "lat": 59.4295807, "lon": 24.5533159, "tags": {"name": "Oma P\u00f5rsas", "shop": "butcher"}}, {"type": "node", "id": 5041161318, "lat": 59.4500245, "lon": 24.6997163, "tags": {"shop": "butcher", "shop_1": "convenience"}}, {"type": "node", "id": 5525883466, "lat": 58.3667112, "lon": 25.5917641, "tags": {"shop": "butcher"}}, {"type": "node", "id": 5525883468, "lat": 58.3667231, "lon": 25.5916742, "tags": {"shop": "butcher"}}, {"type": "node", "id": 5525883469, "lat": 58.3666767, "lon": 25.5920243, "tags": {"shop": "butcher"}}, {"type": "node", "id": 5525883475, "lat": 58.3667108, "lon": 25.5920366, "tags": {"shop": "butcher"}}, {"type": "node", "id": 5525883476, "lat": 58.3666901, "lon": 25.5919383, "tags": {"shop": "butcher"}}, {"type": "node", "id": 5525920446, "lat": 58.3667249, "lon": 25.5919494, "tags": {"shop": "butcher"}}, {"type": "node", "id": 5541066697, "lat": 58.3667587, "lon": 25.591964, "tags": {"shop": "butcher"}}, {"type": "node", "id": 5541066699, "lat": 58.3667481, "lon": 25.5920526, "tags": {"shop": "butcher"}}, {"type": "node", "id": 5676248813, "lat": 58.8872994, "lon": 25.5690404, "tags": {"name": "Lihapood", "opening_hours": "Tu-Fr 09:00-17:00; Sa 09:00-14:00", "shop": "butcher"}}, {"type": "node", "id": 5839691664, "lat": 59.4392655, "lon": 24.7585659, "tags": {"addr:city": "Tallinn", "addr:housenumber": "2", "addr:street": "Rotermanni", "email": "butchery@slt.ee.", "name": "Saaremaa Butchery", "opening_hours": "Mo-Fr 10:00-20:00, Sa-Su 10:00-18:00", "operator": "Saaremaa lihat\u00f6\u00f6stus", "phone": "+372 53 41 38 70", "shop": "butcher"}}, {"type": "node", "id": 6583827569, "lat": 58.2537489, "lon": 22.4848777, "tags": {"shop": "butcher"}}, {"type": "node", "id": 649891992, "lat": 59.4378522, "lon": 24.7451122, "tags": {"addr:city": "Tallinn", "addr:street": "M\u00fcndi", "name": "Delikatess Maitse", "shop": "deli"}}, {"type": "node", "id": 1900919382, "lat": 58.3584483, "lon": 26.6763241, "tags": {"level": "0", "name": "W\u00fcrtspood", "opening_hours": "Mo-Su 10:00-21:00", "phone": "+372 56885541", "shop": "deli"}}, {"type": "node", "id": 4480845837, "lat": 59.4309255, "lon": 24.7600085, "tags": {"contact:website": "http://www.pipar.ee", "name": "Piprapood", "opening_hours": "Mo-Fr 10:00-19:00; Sa 11:00-16:00", "shop": "deli"}}, {"type": "node", "id": 5041179624, "lat": 59.4389112, "lon": 24.7583687, "tags": {"name": "Juustukuningas", "shop": "deli"}}, {"type": "node", "id": 4492242899, "lat": 59.4518569, "lon": 24.7178794, "tags": {"shop": "cheese"}}, {"type": "node", "id": 5239534863, "lat": 59.440832, "lon": 24.7634434, "tags": {"name": "Juustukuningas", "shop": "cheese"}}, {"type": "node", "id": 6238400873, "lat": 58.3699618, "lon": 24.550851, "tags": {"name": "Juustukuningad", "shop": "cheese"}}, {"type": "node", "id": 4750501742, "lat": 59.4295087, "lon": 24.5531885, "tags": {"name": "Juustukuningad", "shop": "dairy"}}, {"type": "node", "id": 987039932, "lat": 57.8445294, "lon": 26.9962116, "tags": {"name": "Jaagum\u00e4e toidupood", "shop": "farm"}}, {"type": "node", "id": 2397703642, "lat": 57.6472091, "lon": 27.2014615, "tags": {"shop": "farm"}}, {"type": "node", "id": 4966512421, "lat": 58.1871795, "lon": 26.8190942, "tags": {"name": "Andre Juustufarm", "shop": "farm", "website": "https://andrefarm.ee/"}}, {"type": "node", "id": 6052404195, "lat": 58.3691221, "lon": 25.5987877, "tags": {"addr:city": "Viljandi", "addr:housenumber": "1", "addr:street": "Ilmarise", "contact:email": "viljandi@maarahvapood.ee", "name": "Maarahva Pood", "opening_hours": "Mo-Fr 09:00-19:00; Sa 09:00-17:00; Su 09:00-15:00", "operator": "De Visu O\u00dc", "phone": "+372 4 335 051", "shop": "farm", "website": "https://maarahvapood.ee"}}, {"type": "node", "id": 6592055827, "lat": 58.9401301, "lon": 23.5365741, "tags": {"addr:city": "Haapsalu", "addr:housenumber": "7", "addr:postcode": "90504", "addr:street": "J\u00fcri\u00f6\u00f6", "alt_name": "L\u00e4\u00e4nemaa O.T.T.", "contact:facebook": "https://www.facebook.com/laanemaaotid/", "contact:website": "http://maheott.weebly.com/", "name": "L\u00e4\u00e4nemaa OTT", "organic": "yes", "payment:cash": "yes", "payment:credit_cards": "yes", "payment:debit_cards": "yes", "shop": "farm"}}, {"type": "node", "id": 3292365809, "lat": 59.3998561, "lon": 24.825837, "tags": {"addr:city": "Peetri alevik", "addr:housenumber": "9/1", "addr:postcode": "75312", "addr:street": "S\u00e4ra tee", "cuisine": "coffee_shop", "internet_access": "yes", "name": "Coffee People O\u00dc", "opening_hours": "9:00-17:00", "phone": "+372 515 9204", "shop": "coffee", "smoking": "outside", "source": "https://www.facebook.com/CoffeePeople", "website": "https://www.coffeepeople.ee/", "wheelchair": "yes"}}, {"type": "node", "id": 3816806708, "lat": 59.4217508, "lon": 24.7940272, "tags": {"indoor": "yes", "level": "0", "name": "Gurman`s tee- ja kohvipood", "opening_hours": "10:00-21:00", "shop": "coffee", "wheelchair": "yes"}}, {"type": "node", "id": 4167344485, "lat": 59.4354255, "lon": 24.7475559, "tags": {"name": "Kohvi Pood", "shop": "coffee"}}, {"type": "node", "id": 5675063926, "lat": 58.8878294, "lon": 25.5721319, "tags": {"addr:housenumber": "2", "addr:street": "R\u00fc\u00fctli", "name": "Kohvipood", "opening_hours": "Tu-Fr 10:00-17:00; Sa 10:00-14:00", "shop": "coffee"}}, {"type": "node", "id": 429488891, "lat": 59.2397158, "lon": 24.5113967, "tags": {"description": "Kadarbiku jae- ja hulgim\u00fc\u00fck (kapsad, porgandid jne)", "name": "Kadarbiku", "shop": "greengrocer"}}, {"type": "node", "id": 1900919313, "lat": 58.3583701, "lon": 26.6781414, "tags": {"level": "0", "name": "L\u00f5unakeskuse Taluturg", "opening_hours": "Mo-Su 10:00-20:00", "phone": "+372 55665131", "shop": "greengrocer"}}, {"type": "node", "id": 2420177439, "lat": 59.3690374, "lon": 25.0795331, "tags": {"addr:housename": "Aruk\u00fcla puuviljapood", "addr:postcode": "75201", "addr:street": "Tallinna maantee", "name": "Aruk\u00fcla puuviljapood", "shop": "greengrocer"}}, {"type": "node", "id": 3678125824, "lat": 59.444062, "lon": 24.6879969, "tags": {"shop": "greengrocer"}}, {"type": "node", "id": 3946106156, "lat": 58.9464717, "lon": 23.5364797, "tags": {"name": "\u00d6kopood Allikas", "shop": "greengrocer"}}, {"type": "node", "id": 4322004804, "lat": 59.3287856, "lon": 27.4229146, "tags": {"shop": "greengrocer"}}, {"type": "node", "id": 4991081534, "lat": 58.3802868, "lon": 24.4880703, "tags": {"fixme": "need to check", "name": "Ogorod", "name:ru": "\u041e\u0433\u043e\u0440\u043e\u0434", "shop": "greengrocer"}}, {"type": "node", "id": 5300742504, "lat": 59.4399571, "lon": 24.73086, "tags": {"addr:city": "Tallinn", "addr:housenumber": "60M", "addr:postcode": "10412", "addr:street": "Telliskivi", "description": "Fruits and vegetables directly from Uganda.", "email": "info@tervistaafrika.ee", "name": "Tervist Aafrika!", "opening_hours": "Mo-Fr 12:00-18:00, Sa 12:00-16:00", "operator": "O\u00dc Tervist Aafrika!", "phone": "+37254507351", "shop": "greengrocer", "source": "local knowledge", "website": "https://www.tervistaafrika.ee/"}}, {"type": "node", "id": 5528383996, "lat": 58.3667992, "lon": 25.5927149, "tags": {"shop": "greengrocer"}}, {"type": "node", "id": 5528383998, "lat": 58.3669005, "lon": 25.5925245, "tags": {"shop": "greengrocer"}}, {"type": "node", "id": 5528384001, "lat": 58.366878, "lon": 25.5927123, "tags": {"shop": "greengrocer"}}, {"type": "node", "id": 5528384004, "lat": 58.3668218, "lon": 25.592503, "tags": {"shop": "greengrocer"}}, {"type": "node", "id": 5528384006, "lat": 58.3668118, "lon": 25.5926023, "tags": {"shop": "greengrocer"}}, {"type": "node", "id": 5528384007, "lat": 58.3668921, "lon": 25.5926184, "tags": {"shop": "greengrocer"}}, {"type": "node", "id": 3816806709, "lat": 59.4217726, "lon": 24.7940291, "tags": {"indoor": "yes", "level": "0", "name": "Gurman`s tee- ja kohvipood", "opening_hours": "10:00-21:00", "shop": "tea", "wheelchair": "yes"}}]}