{"version": 0.6, "generator": "Overpass API 0.7.55.7 8b86ff77", "osm3s": {"timestamp_osm_base": "2019-07-10T10:53:02Z", "timestamp_areas_base": "2019-07-10T09:51:03Z", "copyright": "The data included in this document is from www.openstreetmap.org. The data is made available under ODbL."}, "elements": [{"type": "node", "id": 262116252, "lat": 60.4682114, "lon": 22.2097035, "tags": {"name": "Turun Mestaripalvi tehtaanmyym\u00e4l\u00e4", "opening_hours": "Mo-Fr 09:00-18:00; Sa 09:00-15:00", "shop": "butcher"}}, {"type": "node", "id": 274899445, "lat": 67.9481054, "lon": 23.9967306, "tags": {"amenity": "cafe", "name": "Tunturiporo", "shop": "butcher", "snowmobile": "yes"}}, {"type": "node", "id": 331551997, "lat": 60.3856429, "lon": 23.1182223, "tags": {"name": "Perni\u00f6n Liha", "shop": "butcher"}}, {"type": "node", "id": 471901676, "lat": 61.4226608, "lon": 26.4352548, "tags": {"addr:city": "Kuortti", "addr:country": "FI", "addr:housenumber": "2", "addr:postcode": "19410", "addr:street": "M\u00e4yr\u00e4tie", "name": "RuokaRenki", "phone": "+358 15 681330", "shop": "butcher", "source": "extrapolation", "url": "http://www.toivosenlihansavustamo.net/"}}, {"type": "node", "id": 486167331, "lat": 63.0947351, "lon": 21.6179439, "tags": {"is_in": "Vaasa, Finland", "level": "0", "name": "Lihaliike H. L\u00f6fmark", "shop": "butcher"}}, {"type": "node", "id": 624437545, "lat": 60.1802006, "lon": 24.9514758, "tags": {"addr:city": "Helsinki", "addr:country": "FI", "addr:housenumber": "1a", "addr:postcode": "00530", "addr:street": "H\u00e4meentie", "name": "Reinin liha", "opening_hours": "Mo-Fr 8:00-18:00; Sa 8:00-16:00", "shop": "butcher", "website": "http://www.reininliha.fi/", "wheelchair": "yes"}}, {"type": "node", "id": 775643788, "lat": 60.8695304, "lon": 25.7291706, "tags": {"addr:city": "Orimattila", "addr:country": "FI", "addr:housenumber": "95", "addr:street": "Metsolankuja", "name": "Maatila-Liha Meronen Oy", "opening_hours": "Th-Fr 12:00-17:00; Sa 09:00-15:00", "shop": "butcher"}}, {"type": "node", "id": 1258133811, "lat": 60.8214491, "lon": 23.8139249, "tags": {"name": "Makuliha", "shop": "butcher"}}, {"type": "node", "id": 1268254453, "lat": 60.8626989, "lon": 25.2400331, "tags": {"name": "Perinnepalvi", "shop": "butcher"}}, {"type": "node", "id": 1367725307, "lat": 61.3043008, "lon": 26.7915855, "tags": {"name": "Tilateurastamo Kuvala", "shop": "butcher"}}, {"type": "node", "id": 1386848311, "lat": 65.0009835, "lon": 25.4684034, "tags": {"addr:housenumber": "16", "addr:postcode": "90400", "addr:street": "Ilmarinkatu", "name": "Makkarakauppa", "shop": "butcher", "website": "http://www.makkarakauppa.fi/"}}, {"type": "node", "id": 1728776719, "lat": 60.8674736, "lon": 26.6983923, "tags": {"addr:city": "Kouvola", "addr:housenumber": "3", "addr:postcode": "45100", "addr:street": "Kauppamiehenkatu", "name": "Hasun Lihakauppa", "opening_hours": "mo-fr 09:00-17:00", "phone": "+31 5 311 6931", "shop": "butcher"}}, {"type": "node", "id": 1795745206, "lat": 60.1914641, "lon": 24.9762351, "tags": {"name": "Wotkin's Tehtaanmyym\u00e4l\u00e4", "opening_hours": "Mo-Fr 07:00-18:00; Sa 07:00-15:00", "payment:account_cards": "no", "payment:coins": "yes", "payment:credit_cards": "yes", "payment:debit_cards": "yes", "payment:electronic_purses": "no", "payment:notes": "yes", "shop": "butcher"}}, {"type": "node", "id": 1812533136, "lat": 60.5213265, "lon": 24.2393304, "tags": {"addr:city": "Karkkila", "addr:housenumber": "42 A 4", "addr:postcode": "03600", "addr:street": "Yritt\u00e4j\u00e4ntie", "name": "Lihamestari Vaske Oy", "shop": "butcher", "website": "http://lihamestarivaske.fi/"}}, {"type": "node", "id": 1882278684, "lat": 69.4001304, "lon": 25.8580181, "tags": {"addr:city": "Karigasniemi", "addr:postcode": "99950", "butcher": "reindeer", "name": "Tundra Poro", "shop": "butcher"}}, {"type": "node", "id": 2163933795, "lat": 60.2596897, "lon": 24.8543054, "tags": {"is_in": "K-Citymarket Myyrm\u00e4ki", "name": "Maku Liha", "opening_hours": "Mo-Fr 07:00-22:00; Sa 07:00-20:00; Su 10:00-18:00", "shop": "butcher", "wheelchair": "yes"}}, {"type": "node", "id": 2180355779, "lat": 60.2391612, "lon": 24.8491234, "tags": {"asian": "yes", "chicken": "yes", "cuisine": "international", "description": "Tervetuloa herkkutorille!Meilt\u00e4 l\u00f6yd\u00e4t ruokakaupan huippuammattilaiset.Joukossamme on osaamista!Lihaosastostamme vastaa Konrad. H\u00e4nell\u00e4 on nuoresta i\u00e4st\u00e4\u00e4n huolimatta jo usean vuoden kokemus liha-alasta ja kova halu kehitt\u00e4\u00e4 osastoaan ja valikoimiaan", "fish": "yes", "food": "yes", "is_in": "K-Supermarket Konala", "level": "0", "meat": "yes", "name": "K-supermarket Herkkutori", "opening_hours": "Mo-Fr 07:00-21:00; Sa 07:00-18:00; Su 12:00-18:00", "operator": "K-supermarket Konala", "shop": "butcher", "source": "http://www.k-supermarket.fi/Loyda-kauppasi/K-supermarket-Konala/Tervetuloa-herkkutorille/#sis\u00e4lt\u00f6"}}, {"type": "node", "id": 2210237950, "lat": 60.1786841, "lon": 24.9532591, "tags": {"butcher": "halal", "name": "Hakaniemen Lihakauppa", "shop": "butcher"}}, {"type": "node", "id": 3483556917, "lat": 60.2086227, "lon": 25.0842337, "tags": {"addr:city": "Helsinki", "addr:housenumber": "2", "addr:postcode": "00930", "addr:street": "Visbynkuja", "name": "S\u00f6rn\u00e4isten Halal-liha", "shop": "butcher", "website": "http://halaliha.fi/index.php", "wheelchair": "yes"}}, {"type": "node", "id": 3743039040, "lat": 61.0993703, "lon": 21.5490451, "tags": {"name": "Suomisen Lihaherkku", "shop": "butcher"}}, {"type": "node", "id": 3800714847, "lat": 66.739245, "lon": 24.4704375, "tags": {"addr:city": "Pello", "addr:housenumber": "17", "addr:postcode": "95750", "addr:street": "Puolamaj\u00e4rventie", "email": "info@puolukkamaanpirtit.fi ", "name": "Poronlihan myynti (syksyisin)", "name:en": "Reindeer meat sell (in autumn)", "name:fi": "Poronlihan myynti (syksyisin)", "operator": "Anne-Mari Kovalainen", "phone": "+358400923034", "shop": "butcher", "website": "http://www.puolukkamaanpirtit.fi/"}}, {"type": "node", "id": 4755921341, "lat": 63.6398421, "lon": 23.2280201, "tags": {"name": "Kronoby Jaktstuga", "shop": "butcher"}}, {"type": "node", "id": 4822776923, "lat": 60.2085406, "lon": 25.0818836, "tags": {"addr:city": "Helsinki", "addr:housenumber": "3", "addr:postcode": "00930", "addr:street": "Asiakkaankatu", "butcher": "halal", "name": "Finn Halal", "shop": "butcher", "wheelchair": "yes"}}, {"type": "node", "id": 4960333323, "lat": 60.9953168, "lon": 24.4650741, "tags": {"addr:city": "H\u00e4meenlinna", "addr:housenumber": "2", "addr:postcode": "13100", "addr:street": "Sibeliuksenkatu", "name": "Katinalan lihakauppa", "shop": "butcher", "website": "https://www.katinalanlihakauppa.fi/", "wheelchair": "yes"}}, {"type": "node", "id": 4967699977, "lat": 63.0425728, "lon": 24.5591778, "tags": {"addr:city": "Kyyj\u00e4rvi", "addr:housenumber": "2", "addr:postcode": "43700", "addr:street": "Vaasantie", "name": "Naurisahon palvi", "opening_hours": "Mo Closed; Tu-Th 10:00-17:00; Fr 10:00-19:00; Sa 10:00-16:00; Su Closed", "shop": "butcher", "website": "http://www.naurisahonpalvi.fi"}}, {"type": "node", "id": 5000875724, "lat": 61.1907669, "lon": 22.681706, "tags": {"addr:city": "Huittinen", "addr:housenumber": "10", "addr:postcode": "32700", "addr:street": "Palvarinkatu", "name": "Kivikyl\u00e4n Kotipalvaamo", "shop": "butcher", "website": "https://kivikylan.fi/", "wheelchair": "yes"}}, {"type": "node", "id": 5067623131, "lat": 60.4500656, "lon": 22.2655105, "tags": {"shop": "butcher"}}, {"type": "node", "id": 5155220538, "lat": 61.2629941, "lon": 24.3540354, "tags": {"name": "Katajan Liha", "shop": "butcher"}}, {"type": "node", "id": 5157205424, "lat": 60.5025925, "lon": 22.4595184, "tags": {"addr:city": "Lieto", "addr:housenumber": "1", "addr:postcode": "21420", "addr:street": "K\u00e4rpijoentie", "name": "Liedon lihakauppa", "opening_hours": "Mo-Fr 09:00-18:00", "shop": "butcher"}}, {"type": "node", "id": 5412611517, "lat": 61.0364084, "lon": 24.4093049, "tags": {"addr:city": "Hattula", "addr:housenumber": "2", "addr:postcode": "13800", "addr:street": "Kauksaarentie", "name": "Katinalan Lihakauppa", "shop": "butcher", "website": "https://www.katinalanlihakauppa.fi/"}}, {"type": "node", "id": 5923976625, "lat": 60.1801381, "lon": 24.9517102, "tags": {"name": "Liha-Haka", "ref": "11;13;15;17", "shop": "butcher", "website": "http://www.hakaniemenkauppahalli.fi/kauppias/liha-haka/"}}, {"type": "node", "id": 6103686353, "lat": 60.2112317, "lon": 25.0807134, "tags": {"addr:city": "Helsinki", "addr:housename": "Itis", "addr:housenumber": "10", "addr:postcode": "00930", "addr:street": "Turunlinnantie", "diet:halal": "yes", "level": "-1", "name": "Meat House", "opening_hours": "Mo-Su 09:00-21:00", "phone": "+358 40 030 7511", "shop": "butcher"}}, {"type": "node", "id": 6433131707, "lat": 60.2602379, "lon": 24.8535885, "tags": {"addr:city": "Vantaa", "addr:housenumber": "3", "addr:postcode": "01600", "addr:street": "Iskoskuja", "diet:halal": "yes", "name": "Marhaba", "name:ar": "\u0645\u0640\u0631\u062d\u0640\u0628\u0640\u0627", "name:fi": "Marhaba", "shop": "butcher"}}, {"type": "node", "id": 1677741858, "lat": 60.1678805, "lon": 24.9425998, "tags": {"addr:city": "Helsinki", "addr:housename": "Stockmann", "addr:housenumber": "25", "addr:postcode": "00100", "addr:street": "Aleksanterinkatu", "level": "-2", "name": "Food Market Herkku", "opening_hours": "Mo-Fr 09:00-21:00; Sa 09:00-19:00; Su 11:00-18:00", "shop": "deli", "website": "https://www.foodmarketherkku.fi/", "wheelchair": "yes"}}, {"type": "node", "id": 2477270081, "lat": 60.197193, "lon": 24.879637, "tags": {"name": "Guarnieri", "shop": "deli"}}, {"type": "node", "id": 3212665762, "lat": 60.4490384, "lon": 22.2643147, "tags": {"name": "Cafe Celi", "shop": "deli"}}, {"type": "node", "id": 3219173797, "lat": 60.4505847, "lon": 22.2596799, "tags": {"shop": "deli"}}, {"type": "node", "id": 3274207200, "lat": 60.1664211, "lon": 24.9662404, "tags": {"name": "Bastion Deli", "shop": "deli"}}, {"type": "node", "id": 3561670796, "lat": 61.5022981, "lon": 23.5674276, "tags": {"name": "Punnitse & S\u00e4\u00e4st\u00e4", "opening_hours": "Mo-Th 12:00-20:00, Fr-Sa 10:00-20:00, Su 12:00-20:00", "phone": "+358 45 1700 160", "shop": "deli", "website": "http://www.punnitse.fi/"}}, {"type": "node", "id": 4150192890, "lat": 60.1631181, "lon": 24.9295269, "tags": {"name": "Mama's Deli", "opening_hours": "Tu-Fr 10:00-18:00; Sa 10:00-22:00", "phone": "045-1366560", "shop": "deli", "website": "http://facebook.com/Mamasdelihelsinki"}}, {"type": "node", "id": 4161342845, "lat": 60.162973, "lon": 24.9294669, "tags": {"shop": "deli"}}, {"type": "node", "id": 4280686118, "lat": 61.0550222, "lon": 28.1884469, "tags": {"name": "Espa-Market", "opening_hours": "Mo-Fr 09:00-19:00; Sa 09:00-18:00; Su 10:00-15:00", "phone": "+358 45 846 9018", "shop": "deli", "website": "https://www.facebook.com/EspaMarket"}}, {"type": "node", "id": 4310366290, "lat": 61.1740534, "lon": 22.6936687, "tags": {"addr:city": "Huittinen", "addr:housenumber": "1", "addr:postcode": "32700", "addr:street": "Koskitie", "name": "Ilonan Maalaispuoti", "shop": "deli", "website": "http://wanhawpk.fi/ilonan-maalaispuoti"}}, {"type": "node", "id": 4691849231, "lat": 60.1593114, "lon": 24.9372636, "tags": {"addr:city": "Helsinki", "addr:country": "FI", "addr:housenumber": "21", "addr:postcode": "00150", "addr:street": "Pursimiehenkatu", "amenity": "cafe", "name": "Bumi", "opening_hours": "Mo-Fr 10:00-21:00; Sa 10:00-21:00; Su 10:00-19:00", "shop": "deli", "website": "https://www.facebook.com/bumipunavuori/"}}, {"type": "node", "id": 4691897402, "lat": 60.1642729, "lon": 24.93992, "tags": {"addr:city": "Helsinki", "addr:country": "FI", "addr:housenumber": "17", "addr:street": "Uudenmaankatu", "name": "Herkkukori", "opening_hours": "Mo-Th 7:15-15:00; Fr 7:15-14:00", "shop": "deli"}}, {"type": "node", "id": 4692013484, "lat": 60.1646441, "lon": 24.9374819, "tags": {"addr:city": "Helsinki", "addr:country": "FI", "addr:housenumber": "9", "addr:postcode": "00120", "addr:street": "Bulevardi", "name": "Casa Italia", "opening_hours": "Mo-Th 11:00-21:00; Fr-Sa 11:00-23:00; Su 12:00-20:00", "shop": "deli"}}, {"type": "node", "id": 4738322126, "lat": 60.1605318, "lon": 24.9413686, "tags": {"addr:city": "Helsinki", "addr:country": "FI", "addr:housenumber": "2", "addr:postcode": "00150", "addr:street": "Pursimiehenkatu", "name": "Feri's Sausage", "opening_hours": "Mo-Fr 11:00-18:00; Sa 11:00-16:00", "phone": "+358445412546", "shop": "deli", "tourism": "gallery", "website": "https://www.feris.fi"}}, {"type": "node", "id": 4870132761, "lat": 60.1669758, "lon": 24.9422298, "tags": {"addr:city": "Helsinki", "addr:country": "FI", "addr:street": "Mannerheimintie", "name": "Pupu", "shop": "deli", "website": "https://pupu.fi/"}}, {"type": "node", "id": 4887171370, "lat": 60.1605083, "lon": 24.9407142, "tags": {"addr:city": "Helsinki", "addr:country": "FI", "addr:housenumber": "5", "addr:postcode": "00150", "addr:street": "Pursimiehenkatu", "amenity": "cafe", "name": "Ev\u00e4spiste", "opening_hours": "Mo-Fr 6:30-15:00; 6:30-14:30", "shop": "deli", "takeaway": "yes"}}, {"type": "node", "id": 5001100354, "lat": 60.1756318, "lon": 24.8053587, "tags": {"addr:city": "Espoo", "addr:housenumber": "7", "addr:postcode": "02100", "addr:street": "L\u00e4nsituuli", "layer": "-1", "level": "-1", "name": "Food Market Herkku", "shop": "deli", "website": "https://www.foodmarketherkku.fi/"}}, {"type": "node", "id": 5181706323, "lat": 62.2487156, "lon": 25.7374999, "tags": {"name": "Viron herkut", "shop": "deli", "wheelchair": "no"}}, {"type": "node", "id": 5195776044, "lat": 63.0948108, "lon": 21.6179232, "tags": {"level": "0", "name": "Makukauppa", "name:fi": "Makukauppa", "name:sv": "Smakbutiken", "shop": "deli"}}, {"type": "node", "id": 5195776046, "lat": 63.0946977, "lon": 21.6177311, "tags": {"level": "0", "name": "Kalaliike Ruotsala", "shop": "deli"}}, {"type": "node", "id": 5195776048, "lat": 63.0947981, "lon": 21.6178187, "tags": {"level": "0", "name": "Juustotehdas", "name:fi": "Juustotehdas", "name:sv": "Ostfabriken", "shop": "deli"}}, {"type": "node", "id": 6068817560, "lat": 60.2919283, "lon": 24.9632573, "tags": {"addr:city": "Vantaa", "addr:housename": "Jumbo", "addr:housenumber": "3", "addr:postcode": "01510", "addr:street": "Vantaanportinkatu", "level": "1", "name": "Food Market Herkku", "opening_hours": "Mo-Fr 09:00-21:00; Sa 09:00-18:00; Su 11:00-18:00", "shop": "deli", "website": "https://www.foodmarketherkku.fi/"}}, {"type": "node", "id": 6103686379, "lat": 60.2131937, "lon": 25.0847319, "tags": {"addr:city": "Helsinki", "addr:housename": "Stockmann Itis", "addr:housenumber": "1", "addr:postcode": "00930", "addr:street": "It\u00e4katu", "level": "-1", "name": "Food Market Herkku", "opening_hours": "Mo-Sa 09:00-21:00; Su 12:00-18:00", "phone": "+358 9 291 211", "shop": "deli", "website": "https://www.foodmarketherkku.fi/"}}, {"type": "node", "id": 6484968796, "lat": 59.9752634, "lon": 23.4336184, "tags": {"name": "Sonjas Delikatess", "name:fi": "Sonjan herkku", "name:sv": "Sonjas Delikatess", "shop": "deli"}}, {"type": "node", "id": 304661047, "lat": 62.4167271, "lon": 22.7918402, "tags": {"name": "Juustoportin tehtaanmyym\u00e4l\u00e4", "shop": "cheese"}}, {"type": "node", "id": 2739101755, "lat": 60.719029, "lon": 26.4979665, "tags": {"name": "Paavolan kotijuustola", "shop": "cheese"}}, {"type": "node", "id": 6060938310, "lat": 60.1872618, "lon": 24.9791956, "tags": {"addr:city": "Helsinki", "addr:housename": "Redi", "addr:housenumber": "5", "addr:postcode": "00580", "addr:street": "Hermannin Rantatie", "email": "redi@juustokuninkaat.fi", "level": "-1", "name": "Juustokuninkaat", "phone": "+358 40 028 4483", "shop": "cheese", "website": "http://www.juustokuninkaat.fi/"}}, {"type": "node", "id": 417756024, "lat": 60.4348792, "lon": 25.0232678, "tags": {"addr:city": "Tuusula", "addr:housenumber": "341", "addr:postcode": "04300", "addr:street": "Paijalantie", "name": "Lassilan tila", "note": "luomun suoramyynti\u00e4", "opening_hours": "Tu-Fr 09:00-18:00; Sa 09:00-14:00", "organic": "yes", "phone": "+358 9 2751204", "shop": "farm", "website": "http://www.lassilantila.fi/"}}, {"type": "node", "id": 443877507, "lat": 61.2962785, "lon": 25.6819673, "tags": {"addr:city": "Kalkkinen", "addr:housenumber": "12", "addr:postcode": "17240", "addr:street": "Siltatie", "facebook": "https://www.facebook.com/pages/Viini-Puutarhatila-Pihamaa/126616704048505", "name": "Pihamaan TilaPuoti", "opening_hours": "Mo-Fr 09-20; Sa 09-18; Su 10-18", "operator": "Viini- ja puutarhatila Pihamaa", "product": "local_food", "shop": "farm", "website": "https://www.viini-pihamaa.fi/kalkkinen"}}, {"type": "node", "id": 829239986, "lat": 61.015282, "lon": 26.9450051, "tags": {"addr:housenumber": "36", "addr:street": "Haukj\u00e4rventie", "description": "Mansikoita, vadelmia yms.", "name": "Aholammen tila", "shop": "farm"}}, {"type": "node", "id": 1169047845, "lat": 60.1148218, "lon": 23.7826233, "tags": {"addr:housenumber": "71", "addr:street": "Pusesv\u00e4gen", "name": "Ukkolan vuohitila", "shop": "farm"}}, {"type": "node", "id": 1395855320, "lat": 61.5122288, "lon": 22.9747668, "tags": {"addr:city": "Sastamala", "addr:housenumber": "80", "addr:postcode": "38460", "addr:street": "Selkeentie", "name": "Herkkujuustola", "produce": "cheese", "shop": "farm", "website": "http://www.herkkujuustola.fi/"}}, {"type": "node", "id": 1664189665, "lat": 60.866944, "lon": 26.6596469, "tags": {"addr:city": "Kouvola", "addr:housenumber": "7", "addr:street": "Kaitilankatu", "name": "AgriMarket", "shop": "farm"}}, {"type": "node", "id": 1664296277, "lat": 60.8632083, "lon": 26.6575602, "tags": {"name": "Agri-Kymi Oy", "shop": "farm"}}, {"type": "node", "id": 1825439419, "lat": 61.8996351, "lon": 27.8057159, "tags": {"addr:housenumber": "3", "addr:street": "Pyydystie", "name": "Agrimarket", "opening_hours": "Mo-Fr 08:00-17:00; Sa 09:00-13:00", "shop": "farm", "website": "http://www.s-kanava.fi/vk/asiakasomistajalle/toimipaikat/fi/552177230"}}, {"type": "node", "id": 1858122840, "lat": 63.0514221, "lon": 28.2838812, "tags": {"addr:city": "Juankoski", "addr:housenumber": "69", "addr:postcode": "73500", "addr:street": "Virrantie", "name": "Virran marjatila", "organic": "no", "phone": "+358407062755", "produce": "strawberry;raspberry", "seasonal": "yes", "shop": "farm"}}, {"type": "node", "id": 1949512854, "lat": 60.0831315, "lon": 24.4556131, "tags": {"name": "Maatilapuoti", "name:sv": "G\u00e5rdsboden", "organic": "yes", "produce": "vegetables", "shop": "farm"}}, {"type": "node", "id": 2889908580, "lat": 60.1126134, "lon": 24.0915831, "tags": {"name": "Mangs g\u00e5rd", "shop": "farm", "source": "Bing"}}, {"type": "node", "id": 3130244372, "lat": 60.1804665, "lon": 24.1686922, "tags": {"name": "G\u00e5rdskulla", "shop": "farm", "source": "Bing"}}, {"type": "node", "id": 3665177902, "lat": 61.1010253, "lon": 25.2321928, "tags": {"addr:city": "H\u00e4meenkoski", "addr:housenumber": "120", "addr:postcode": "16800", "addr:street": "Lammintie", "name": "Kes\u00e4kauppa", "operator": "Tuloiselan marjatila", "product": "berries", "product_1": "local_food", "product_2": "flour", "shop": "farm"}}, {"type": "node", "id": 3665178040, "lat": 61.1139842, "lon": 25.2628366, "tags": {"name": "Kes\u00e4tori", "product": "strawberry", "product_1": "sapling", "shop": "farm"}}, {"type": "node", "id": 3668703553, "lat": 61.2369029, "lon": 25.4850239, "tags": {"addr:city": "Asikkala", "addr:housenumber": "23", "addr:postcode": "17320", "addr:street": "V\u00e4h\u00e4-\u00c4ini\u00f6ntie", "name": "Vilppulan tilan puoti", "opening_hours": "Mo-Su 09-16", "operator": "Maatalousyhtym\u00e4 Vilppula Jari ja Vilppula Sami", "product": "berries", "product_1": "honey", "shop": "farm"}}, {"type": "node", "id": 3670227363, "lat": 61.3218125, "lon": 25.6075261, "tags": {"addr:city": "Kalkkinen", "addr:housenumber": "214", "addr:postcode": "17240", "addr:street": "Kalkkistentie", "operator": "M\u00e4kisen mansikkatila", "phone:FI": "037674129", "shop": "farm"}}, {"type": "node", "id": 4388723322, "lat": 60.2567155, "lon": 25.2536613, "tags": {"addr:city": "V\u00e4sterskog", "addr:housenumber": "68", "addr:postcode": "01120", "addr:street": "Majvikintie", "name": "Majvikin tilakauppa", "shop": "farm"}}, {"type": "node", "id": 4417332538, "lat": 62.7195934, "lon": 23.8969134, "tags": {"addr:city": "Alavus", "addr:housenumber": "16", "addr:postcode": "63640", "addr:street": "Jylh\u00e4ntie", "name": "Suutalan mansikkatalo", "operator": "Suutalan mansikkatalo", "phone": "044 585 8016", "produce": "strawberries", "shop": "farm", "website": "http://www.mansikkatalo.fi"}}, {"type": "node", "id": 4706010931, "lat": 60.4906114, "lon": 23.9630281, "tags": {"opening_hours": "We 17:00-19:00; Sa 09:00-14:00", "operator": "T\u00f6llin myllyosuuskunta", "shop": "farm"}}, {"type": "node", "id": 4809772142, "lat": 60.3849852, "lon": 24.364545, "tags": {"amenity": "cafe", "name": "Caf\u00e9 Hanhiemo", "shop": "farm", "website": "http://www.hennola.net/wb/pages/cafe-hanhiemo.php"}}, {"type": "node", "id": 4957479761, "lat": 61.3360254, "lon": 24.3123374, "tags": {"name": "Niitty-Sepp\u00e4l\u00e4 Kes\u00e4tori", "shop": "farm"}}, {"type": "node", "id": 5643696483, "lat": 60.2262687, "lon": 20.1731106, "tags": {"name": "Mattas G\u00e5rdsmejeri", "shop": "farm", "website": "http://www.mattas.ax/"}}, {"type": "node", "id": 6276819774, "lat": 61.0940809, "lon": 24.3327621, "tags": {"addr:city": "Hattula", "addr:housenumber": "28", "addr:postcode": "13720", "addr:street": "Ahtilantie", "name": "Ahtilan luomukanala", "name:fi": "Ahtilan luomukanala", "operator": "Ahtilan luomukanala", "phone": "045 1891759", "shop": "farm"}}, {"type": "node", "id": 6330866694, "lat": 62.5677488, "lon": 29.5686982, "tags": {"addr:city": "Yl\u00e4mylly", "addr:housenumber": "76", "addr:postcode": "80400", "addr:street": "Mattisenlahdentie", "name": "Hirvosen Peruna Oy", "phone": "050 3706249", "shop": "farm", "website": "https://hirvosenperuna.com/"}}, {"type": "node", "id": 2246454422, "lat": 60.1636699, "lon": 24.9463076, "tags": {"addr:city": "Helsinki", "addr:country": "FI", "addr:housenumber": "25", "addr:street": "Korkeavuorenkatu", "lunch": "yes", "name": "Kaffecentralen", "opening_hours": "Mo-Fr 08:00-18:00; Sa 10:00-17:00", "shop": "coffee", "website": "http://www.kaffecentralen.com/korkeavuorenkatu/", "wheelchair": "no"}}, {"type": "node", "id": 4457404445, "lat": 61.9256686, "lon": 28.1201055, "tags": {"shop": "coffee"}}, {"type": "node", "id": 5244129008, "lat": 62.6020076, "lon": 29.7629912, "tags": {"level": "0", "name": "Robert's Coffee", "shop": "coffee"}}, {"type": "node", "id": 5566415470, "lat": 60.2120352, "lon": 24.9788645, "tags": {"addr:city": "Helsinki", "addr:housenumber": "155", "addr:postcode": "00560", "addr:street": "H\u00e4meentie", "addr:unit": "A", "ele": "7", "name": "Crema", "opening_hours": "Mo 09:00-16:00; Tu 09:00-18:00; We-Fr 09:00-16:00", "phone": "010 322 4480", "shop": "coffee", "website": "https://www.crema.fi/"}}, {"type": "node", "id": 6030442445, "lat": 60.2372991, "lon": 24.8914725, "tags": {"addr:city": "Helsinki", "addr:housename": "Kaari", "addr:housenumber": "1", "addr:postcode": "00420", "addr:street": "Kantelettarentie", "email": "info@teejakahvikauppa.fi", "level": "1", "name": "Boutique Makujen Taika", "opening_hours": "Mo-Fr 12:00-20:00; Sa 11:00-19:00; Su 12:00-18:00", "phone": "+358 400 990 630", "shop": "coffee", "website": "https://www.teejakahvikauppa.fi/"}}, {"type": "node", "id": 6042127501, "lat": 60.1620108, "lon": 24.7381964, "tags": {"addr:city": "Espoo", "addr:housename": "Iso Omena", "addr:housenumber": "11", "addr:postcode": "02230", "addr:street": "Piispansilta", "branch": "Espoo", "level": "0", "name": "Nespresso", "opening_hours": "Mo-Fr 10:00-21:00; Sa 10:00-19:00; Su 12:00-18:00", "phone": "+358 800 177 601", "shop": "coffee", "website": "https://www.nespresso.com/fi/"}}, {"type": "node", "id": 6076101207, "lat": 60.2909664, "lon": 24.9671388, "tags": {"addr:city": "Vantaa", "addr:housename": "Flamingo", "addr:housenumber": "8", "addr:postcode": "01510", "addr:street": "Tasetie", "email": "flamingo@caffi.fi", "level": "2", "name": "Caffi", "opening_hours": "Mo-Fr 10:00-20:00; Sa 10:00-18:00; Su 12:00-18:00", "phone": "+358 40 776 5277", "shop": "coffee", "website": "https://www.caffi.fi/"}}, {"type": "node", "id": 6103686348, "lat": 60.2112039, "lon": 25.0818495, "tags": {"addr:city": "Helsinki", "addr:housename": "Itis", "addr:housenumber": "1-7", "addr:postcode": "00930", "addr:street": "It\u00e4katu", "level": "1", "name": "Nespresso", "opening_hours": "Mo-Fr 10:00-21:00; Sa 10:00-20:00; Su 12:00-18:00", "phone": "+358 800 177 601", "shop": "coffee", "website": "https://www.nespresso.com/"}}, {"type": "node", "id": 401240688, "lat": 60.2048565, "lon": 25.0339802, "tags": {"name": "Anjan Luontoherkku", "organic": "only", "shop": "greengrocer"}}, {"type": "node", "id": 1650159346, "lat": 62.6017388, "lon": 23.7260083, "tags": {"description": "Myynti vain kes\u00e4ll\u00e4", "name": "Marjamyynti (kes\u00e4ll\u00e4)", "shop": "greengrocer"}}, {"type": "node", "id": 1736673285, "lat": 65.0607538, "lon": 25.6274077, "tags": {"name": "Kukkiva Kunnas", "shop": "greengrocer"}}, {"type": "node", "id": 2130921750, "lat": 64.2527904, "lon": 23.9542103, "tags": {"name": "Luontais- ja Ekopuoti Pisara", "shop": "greengrocer"}}, {"type": "node", "id": 3663570570, "lat": 60.5777808, "lon": 24.6276961, "tags": {"addr:housenumber": "320", "addr:street": "Suopellontie", "name": "Tilamyym\u00e4l\u00e4", "operator": "Wennborgin tila", "shop": "greengrocer"}}, {"type": "node", "id": 3680247058, "lat": 63.3916682, "lon": 27.7674705, "tags": {"addr:city": "Varpaisj\u00e4rvi", "addr:housename": "Rinteen tila", "addr:housenumber": "319", "addr:postcode": "73200", "addr:street": "Rautavaarantie", "name": "Luomurinne", "shop": "greengrocer", "source": "http://savokarjalanluomu.fi/wp-content/uploads/2014/04/web_luomu_esite_kartat_2.pdf"}}, {"type": "node", "id": 3736371708, "lat": 60.1527443, "lon": 24.6620723, "tags": {"name": "Tuoremyynti Pitk\u00e4nen", "shop": "greengrocer"}}, {"type": "node", "id": 4150192792, "lat": 60.1630942, "lon": 24.929455, "tags": {"addr:housenumber": "1 a", "addr:street": "H\u00e4meentie", "name": "Omenapiha", "shop": "greengrocer"}}, {"type": "node", "id": 4176943269, "lat": 60.2451971, "lon": 24.8464317, "tags": {"name": "marjamyynti (kes\u00e4isin)", "shop": "greengrocer"}}, {"type": "node", "id": 4462528499, "lat": 60.8122815, "lon": 25.7577946, "tags": {"shop": "greengrocer"}}, {"type": "node", "id": 4867707150, "lat": 60.1631441, "lon": 24.9414868, "tags": {"addr:city": "Helsinki", "addr:country": "FI", "addr:housenumber": "20-22", "addr:postcode": "00120", "addr:street": "Iso Roobertinkatu", "name": "Ruokakauppa", "opening_hours": "Mo 10:00-16:00; Tu-Fr 8:30-18:00; Sa 11:00-16:00", "shop": "greengrocer"}}, {"type": "node", "id": 6060938314, "lat": 60.1871156, "lon": 24.9791637, "tags": {"addr:city": "Helsinki", "addr:housename": "Redi", "addr:housenumber": "5", "addr:postcode": "00580", "addr:street": "Hermannin Rantatie", "email": "info@sesonkipuoti.fi", "level": "-1", "name": "Sesonki Puoti", "opening_hours": "Mo-Fr 09:00-21:00; Sa 09:00-18:00; Su 12:00-18:00", "phone": "+358 40 370 5965", "shop": "greengrocer", "website": "https://www.sesonkipuoti.fi/"}}, {"type": "node", "id": 6417265143, "lat": 60.1758761, "lon": 24.8052252, "tags": {"layer": "-1", "level": "-1", "name": "AINOAn marjapaikka", "note": "kausittainen/seasonal?", "opening_hours": "Mo-Fr 09-21; Sa 09-19; Su 12-18", "phone": "+358405887741", "shop": "greengrocer", "start_date": "2019-04-26"}}]}