{"version": 0.6, "generator": "Overpass API 0.7.55.7 8b86ff77", "osm3s": {"timestamp_osm_base": "2019-07-31T12:11:02Z", "timestamp_areas_base": "2019-07-31T11:17:03Z", "copyright": "The data included in this document is from www.openstreetmap.org. The data is made available under ODbL."}, "elements": [{"type": "node", "id": 448033533, "lat": 56.9555149, "lon": 24.1296034, "tags": {"name": "HEREFORD Ga\u013ca un Steiki", "operator": "SIA Hereford", "shop": "butcher"}}, {"type": "node", "id": 472989719, "lat": 56.8217208, "lon": 24.5963466, "tags": {"name": "Specializ\u0113ts ga\u013cas veikals \"Bauska\"", "shop": "butcher", "source": "Ortofoto 1:10000, 2007 gads, \u00a9 Latvijas \u0122eotelpisk\u0101s inform\u0101cijas a\u0123ent\u016bra"}}, {"type": "node", "id": 826262076, "lat": 57.5255301, "lon": 25.4366795, "tags": {"name": "Ga\u013cas bode", "shop": "butcher", "wheelchair": "limited"}}, {"type": "node", "id": 897986346, "lat": 57.3146685, "lon": 25.2788194, "tags": {"name": "L\u0113durgas miesnieks", "shop": "butcher"}}, {"type": "node", "id": 904187348, "lat": 57.3124936, "lon": 25.273895, "tags": {"name": "Pie Pl\u016bmes", "shop": "butcher"}}, {"type": "node", "id": 908083827, "lat": 56.9472857, "lon": 24.0164833, "tags": {"shop": "butcher"}}, {"type": "node", "id": 1035684075, "lat": 56.9509509, "lon": 24.1712651, "tags": {"addr:housenumber": "52", "addr:street": "Augusta Deglava iela", "name": "Forevers", "opening_hours": "Mo-Fr 08:00-20:00; Sa 08:00-18:00; Su 09:00-16:00", "shop": "butcher"}}, {"type": "node", "id": 1139184525, "lat": 56.9692607, "lon": 24.1855643, "tags": {"addr:housenumber": "69", "addr:street": "Bi\u0137ernieku iela", "name": "Ga\u013cas nams", "opening_hours": "Mo-Fr 08:00-20:00; Sa 08:00-18:00; Su 08:00-16:00", "shop": "butcher"}}, {"type": "node", "id": 1215236368, "lat": 56.96147, "lon": 24.1003834, "tags": {"name": "\u0136ekava", "shop": "butcher"}}, {"type": "node", "id": 1270135927, "lat": 56.9998059, "lon": 24.1217407, "tags": {"name": "Forevers", "shop": "butcher"}}, {"type": "node", "id": 1305006690, "lat": 56.9950999, "lon": 24.1291091, "tags": {"name": "Forevers", "shop": "butcher"}}, {"type": "node", "id": 1305006888, "lat": 56.9957291, "lon": 24.128739, "tags": {"name": "Forevers", "shop": "butcher"}}, {"type": "node", "id": 1305014484, "lat": 56.9951431, "lon": 24.1276921, "tags": {"name": "Food leaders", "shop": "butcher"}}, {"type": "node", "id": 1325568279, "lat": 56.406835, "lon": 24.1879984, "tags": {"name": "Ardeks", "shop": "butcher"}}, {"type": "node", "id": 1410180913, "lat": 55.9420626, "lon": 26.5982916, "tags": {"name": "Daugavpils Ga\u013cas Kombin\u0101ts", "shop": "butcher"}}, {"type": "node", "id": 1410182881, "lat": 55.8738087, "lon": 26.5453847, "tags": {"name": "\u0136ekava", "shop": "butcher"}}, {"type": "node", "id": 1416151108, "lat": 55.8802686, "lon": 26.560724, "tags": {"amenity": "cafe", "name": "Kakadu", "opening_hours": "Mo-Fr 08:00-20:00; Sa-Su 08:00-18:00", "shop": "butcher"}}, {"type": "node", "id": 1419851334, "lat": 55.8932358, "lon": 26.5617431, "tags": {"name": "Ga\u013cas veikals", "shop": "butcher"}}, {"type": "node", "id": 1671602533, "lat": 56.9116826, "lon": 24.1928244, "tags": {"shop": "butcher", "source": "local_knowledge"}}, {"type": "node", "id": 1705181490, "lat": 56.9248385, "lon": 24.1682383, "tags": {"shop": "butcher"}}, {"type": "node", "id": 1736004477, "lat": 57.1543067, "lon": 24.8548457, "tags": {"name": "Ardeks", "opening_hours": "Mo-Fr 9:00-19:00; Sa 9:00-15:00", "shop": "butcher"}}, {"type": "node", "id": 1737517173, "lat": 57.157348, "lon": 24.8495528, "tags": {"name": "Bauska", "shop": "butcher"}}, {"type": "node", "id": 1754417110, "lat": 57.0355828, "lon": 24.0968351, "tags": {"shop": "butcher"}}, {"type": "node", "id": 1910767648, "lat": 56.9677696, "lon": 23.7699426, "tags": {"name": "Svaiga Ga\u013ca", "shop": "butcher"}}, {"type": "node", "id": 1910767772, "lat": 56.967789, "lon": 23.7700717, "tags": {"name": "\u0136ekava", "opening_hours": "Mo-Fr 09:00-19:00; Sa 09:00-17:00", "shop": "butcher"}}, {"type": "node", "id": 1969891343, "lat": 57.542959, "lon": 25.4162969, "tags": {"shop": "butcher", "wheelchair": "yes"}}, {"type": "node", "id": 2024657568, "lat": 56.6575688, "lon": 23.7215481, "tags": {"name": "Ga\u013cas pavilions", "shop": "butcher"}}, {"type": "node", "id": 2076182971, "lat": 56.9715805, "lon": 24.1621601, "tags": {"name": "Hartvik", "shop": "butcher"}}, {"type": "node", "id": 2098105713, "lat": 56.8144211, "lon": 24.6486784, "tags": {"opening_hours": "Mo-Fr 09:00-17:00; Sa 09:00-15:00", "shop": "butcher"}}, {"type": "node", "id": 2421841231, "lat": 56.9780863, "lon": 24.1848725, "tags": {"name": "T\u012btari\u0146\u0161", "opening_hours": "Mo-Fr 09:00-20:00; Sa-Su 09:00-17:00", "shop": "butcher"}}, {"type": "node", "id": 2690035417, "lat": 57.2739483, "lon": 25.3297104, "tags": {"shop": "butcher"}}, {"type": "node", "id": 2965467607, "lat": 57.4292064, "lon": 27.0397525, "tags": {"name": "Gala sli\u0161i\u0146i", "opening_hours": "Mo-Sa 10:00-19:00; Su 09:00-15:00", "shop": "butcher"}}, {"type": "node", "id": 3202592714, "lat": 56.9593623, "lon": 23.6029978, "tags": {"name": "Ga\u013cas nams", "shop": "butcher"}}, {"type": "node", "id": 3248395837, "lat": 57.1533739, "lon": 24.8504331, "tags": {"addr:district": "Siguldas novads", "addr:housenumber": "1a", "addr:place": "Sigulda", "addr:street": "Kri\u0161j\u0101\u0146a Valdem\u0101ra iela", "name": "Kunturi", "opening_hours": "Mo-Fr 09:00-18:30; Sa 08:30-14:00", "phone": "+371 26471205", "shop": "butcher", "website": "http://www.kunturi.lv"}}, {"type": "node", "id": 3424521622, "lat": 56.9604308, "lon": 24.0128, "tags": {"name": "Mario", "shop": "butcher"}}, {"type": "node", "id": 3650193148, "lat": 57.0907867, "lon": 24.5452865, "tags": {"name": "\u0160\u0146ukuri\u0146\u0161", "shop": "butcher"}}, {"type": "node", "id": 3812635611, "lat": 56.9687317, "lon": 24.0597782, "tags": {"name": "Ardeks", "opening_hours": "Mo-Fr 09:00-20:00; Sa 09:00-18:00; Su 10:00-18:00", "shop": "butcher"}}, {"type": "node", "id": 3812635613, "lat": 56.9689631, "lon": 24.0599708, "tags": {"name": "Ga\u013cas nams", "opening_hours": "Mo-Sa 08:00-20:00; Su 08:00-19:00", "shop": "butcher"}}, {"type": "node", "id": 3889525845, "lat": 56.9508911, "lon": 24.1269617, "tags": {"name": "T\u012btari\u0146\u0161", "opening_hours": "Mo-Fr 09:00-19:00; Sa 09:00-17:00", "shop": "butcher"}}, {"type": "node", "id": 3954551595, "lat": 57.0463007, "lon": 24.1738031, "tags": {"shop": "butcher"}}, {"type": "node", "id": 4112034799, "lat": 55.9014312, "lon": 26.5292773, "tags": {"name": "Latgales bekons", "opening_hours": "Mo-Fr 08:00-19:00; Sa,Su 08:00-18:00", "operator": "Latgales bekons", "payment:mastercard": "yes", "payment:visa": "yes", "shop": "butcher", "website": "http://bekons.lv/"}}, {"type": "node", "id": 4156026592, "lat": 56.957301, "lon": 24.1905194, "tags": {"name": "Forevers", "opening_hours": "Mo-Fr 08:00-20:00; Sa 08:00-18:00; Su 09:00-16:00", "shop": "butcher"}}, {"type": "node", "id": 4156952690, "lat": 57.0765195, "lon": 24.3226707, "tags": {"addr:housenumber": "8", "addr:street": "Gaujas iela", "name": "Enhars", "opening_hours": "Mo-Fr 09:00-20:00; Sa 09:00-19:00; Su 09:00-18:00", "shop": "butcher"}}, {"type": "node", "id": 4157617389, "lat": 56.9579143, "lon": 24.1909185, "tags": {"addr:housenumber": "2 k-1", "addr:street": "Gun\u0101ra Astras iela", "name": "Specializ\u0113ts ga\u013cas veikals V\u0101rpas N", "opening_hours": "Mo-Fr 08:00-20:00; Sa 08:00-17:00; Su 09:00-15:00", "shop": "butcher"}}, {"type": "node", "id": 4158340793, "lat": 56.958416, "lon": 24.1860661, "tags": {"name": "Marno", "shop": "butcher"}}, {"type": "node", "id": 4160803690, "lat": 56.7182304, "lon": 21.6050686, "tags": {"addr:housenumber": "26", "addr:street": "Atmodas iela", "name": "Kurzemes ga\u013csaimnieks", "opening_hours": "Mo-Fr 09:00-18:00; Sa 09:00-15:00", "shop": "butcher"}}, {"type": "node", "id": 4168181408, "lat": 56.9485159, "lon": 24.1873267, "tags": {"name": "Ga\u013cas nams", "shop": "butcher"}}, {"type": "node", "id": 4183826217, "lat": 56.9707592, "lon": 24.1769037, "tags": {"name": "Kurzemes ga\u013csaimnieks", "opening_hours": "Mo-Fr 08:00-20:00; Sa 09:00-18:00; Su 09:00-16:00", "shop": "butcher"}}, {"type": "node", "id": 4191939991, "lat": 56.9592569, "lon": 24.1651801, "tags": {"name": "Gardumu fabrika", "shop": "butcher"}}, {"type": "node", "id": 4213836110, "lat": 56.9594369, "lon": 24.1745772, "tags": {"name": "Ardeks", "shop": "butcher"}}, {"type": "node", "id": 4278754195, "lat": 56.94499, "lon": 24.1729794, "tags": {"name": "Marno", "shop": "butcher"}}, {"type": "node", "id": 4306278590, "lat": 57.1431686, "lon": 24.8445803, "tags": {"name": "Limba\u017eu d\u016bmi\u0146\u0161", "shop": "butcher"}}, {"type": "node", "id": 4347156492, "lat": 56.98959, "lon": 24.2445861, "tags": {"name": "Lauku bauda", "shop": "butcher"}}, {"type": "node", "id": 4347184292, "lat": 56.9896038, "lon": 24.2451205, "tags": {"name": "M\u0101jas k\u016bpin\u0101jumi", "shop": "butcher"}}, {"type": "node", "id": 4377175090, "lat": 56.9892392, "lon": 24.2412095, "tags": {"name": "Ardeks", "shop": "butcher"}}, {"type": "node", "id": 4397747790, "lat": 56.9523001, "lon": 24.1401504, "tags": {"name": "Specializ\u0113ts ga\u013cas veikals", "opening_hours": "Mo-Fr 09:00-19:00", "shop": "butcher"}}, {"type": "node", "id": 4415563411, "lat": 56.9955144, "lon": 24.1298384, "tags": {"name": "\u0136ekava", "shop": "butcher"}}, {"type": "node", "id": 4455984490, "lat": 57.2239844, "lon": 24.7911829, "tags": {"name": "Malumi;Dimzas", "phone": "+37127711222", "place": "isolated_dwelling", "shop": "butcher"}}, {"type": "node", "id": 5124345458, "lat": 56.8228452, "lon": 24.5941082, "tags": {"name": "Kumel\u012btes", "shop": "butcher"}}, {"type": "node", "id": 5124345476, "lat": 56.8227426, "lon": 24.5944827, "tags": {"name": "forevers", "shop": "butcher"}}, {"type": "node", "id": 5124345631, "lat": 56.8217309, "lon": 24.5953189, "tags": {"name": "Gar\u0161as pietura", "opening_hours": "Mo-Fr 09:00-20:00; Sa 09:00-18:00; Su 09:00-17:00", "operator": "SIA \"Kurzemes ga\u013csaimnieks\"", "shop": "butcher"}}, {"type": "node", "id": 5197746900, "lat": 56.7239983, "lon": 24.8064342, "tags": {"name": "z/s Kumel\u012btes", "shop": "butcher"}}, {"type": "node", "id": 5217862927, "lat": 56.9718705, "lon": 24.1629666, "tags": {"name": "Sarka-S", "opening_hours": "Mo-Fr 10:00-17:00; Sa 00:00-24:00", "shop": "butcher"}}, {"type": "node", "id": 5228039321, "lat": 57.0705799, "lon": 24.3208852, "tags": {"name": "Kunturi", "opening_hours": "Mo-Fr 10:00-19:00; Sa 10:00-17:00; Su 10:00-16:00", "shop": "butcher"}}, {"type": "node", "id": 5259691021, "lat": 56.9594196, "lon": 24.0535171, "tags": {"name": "Sk\u0101rnis", "opening_hours": "Mo-Sa 09:00-20:00; Su 09:00-18:00", "shop": "butcher"}}, {"type": "node", "id": 5259691022, "lat": 56.9594389, "lon": 24.0531988, "tags": {"name": "Kurzemes ga\u013csaimnieks", "opening_hours": "Mo-Fr 09:00-20:00; Sa-Su 09:00-19:00", "shop": "butcher"}}, {"type": "node", "id": 5260236922, "lat": 56.9593675, "lon": 24.0529342, "tags": {"name": "Ga\u013cas nams", "opening_hours": "Mo-Sa 09:00-20:00; Su 09:00-18:00", "shop": "butcher"}}, {"type": "node", "id": 5262257781, "lat": 56.9598589, "lon": 24.0508339, "tags": {"name": "Forevers", "shop": "butcher"}}, {"type": "node", "id": 5276872547, "lat": 56.8985982, "lon": 24.0482636, "tags": {"name": "Ga\u013cas veikals", "shop": "butcher"}}, {"type": "node", "id": 5359687052, "lat": 57.5141371, "lon": 24.716062, "tags": {"name": "Ga\u013cas veikals", "shop": "butcher"}}, {"type": "node", "id": 5470878388, "lat": 56.624067, "lon": 23.2827965, "tags": {"name": "Forevers", "opening_hours": "Mo-Fr 08:00-12:00,12:30-19:00; Sa 09:00-12:00,12:30-16:00", "shop": "butcher"}}, {"type": "node", "id": 5470878390, "lat": 56.6259779, "lon": 23.2829941, "tags": {"name": "N\u0101kotne", "opening_hours": "Mo-Fr 08:00-18:30;Sa 08:00-17:00; Su 09:00-16:00", "shop": "butcher"}}, {"type": "node", "id": 5484707437, "lat": 57.5389337, "lon": 25.4136476, "tags": {"name": "Ledurgas Miesnieks", "opening_hours": "Mo-Fr 09:30-18:00, Sa 09:00-15:00", "shop": "butcher", "wheelchair": "yes"}}, {"type": "node", "id": 5485354626, "lat": 57.5379613, "lon": 25.4236219, "tags": {"name": "Kurzemes Ga\u013csaimnieks", "opening_hours": "Mo-Fr 09:00-19:00, Sa 09:00-17:00", "shop": "butcher", "wheelchair": "yes"}}, {"type": "node", "id": 5559299680, "lat": 56.9680281, "lon": 24.2368281, "tags": {"shop": "butcher"}}, {"type": "node", "id": 5559299681, "lat": 56.9683239, "lon": 24.2362443, "tags": {"shop": "butcher"}}, {"type": "node", "id": 5594774522, "lat": 56.8961237, "lon": 24.138546, "tags": {"name": "Sk\u0101rnis", "shop": "butcher"}}, {"type": "node", "id": 5616052680, "lat": 56.9585432, "lon": 24.0076469, "tags": {"shop": "butcher"}}, {"type": "node", "id": 5697643117, "lat": 56.8165126, "lon": 24.5856061, "tags": {"description": "Rube\u0146i lepojas ar svaigu ga\u013cu, kas b\u016bs izcili piem\u0113rota taviem kulin\u0101rajiem gar\u0161u eksperimentiem. Pied\u0101v\u0101jum\u0101 ar\u012b k\u016bpin\u0101jumi, \u0161a\u0161liks un piedevas, ko baud\u012bt kop\u0101 ar ga\u013cu un t\u0101s produktiem.", "email": "rubeni@rubeni.lv", "name": "Rube\u0146i", "operator": "Rubeni", "payment:cash": "yes", "payment:coins": "yes", "payment:credit_cards": "yes", "payment:debit_cards": "yes", "phone": "+371 26192979", "shop": "butcher", "website": "https://www.rubeni.lv", "wheelchair": "yes"}}, {"type": "node", "id": 5765495141, "lat": 57.309551, "lon": 25.2772873, "tags": {"name": "Forevers", "opening_hours": "Mo-Fr 08:00-12:00,12:30-20:00; Sa 08:00-12:00,12:30-18:00; Su 09:00-12:00,12:30-16:00", "shop": "butcher"}}, {"type": "node", "id": 5777099560, "lat": 57.1578208, "lon": 24.8503904, "tags": {"name": "Kurzemes ga\u013csaimnieks", "shop": "butcher"}}, {"type": "node", "id": 5826990188, "lat": 56.5018751, "lon": 27.3297657, "tags": {"name": "Forevers", "shop": "butcher"}}, {"type": "node", "id": 5909977288, "lat": 57.510147, "lon": 24.7158458, "tags": {"addr:city": "Limba\u017ei", "addr:housenumber": "11", "addr:postcode": "LV-4001", "addr:street": "Jaun\u0101 iela", "name": "Ga\u013cas lete", "opening_hours": "Mo-Fr 08:00-12:00,12:30-20:00; Sa 08:00-12:00,12:30-18:00; Su 09:00-12:00,12:30-16:00", "operator": "SIA \"Forevers\"", "shop": "butcher"}}, {"type": "node", "id": 6068615821, "lat": 56.7548431, "lon": 24.7404233, "tags": {"name": "Rube\u0146i", "opening_hours": "Mo-Su 08:00=20:00", "operator": "SIA \u201cRube\u0146i\u201d", "phone": "+371 264 369 27", "shop": "butcher"}}, {"type": "node", "id": 6119388928, "lat": 56.6230083, "lon": 23.2842229, "tags": {"name": "Meiere", "opening_hours": "Tu-Sa 09:00-15:00", "shop": "butcher"}}, {"type": "node", "id": 6380814185, "lat": 56.9896785, "lon": 24.245122, "tags": {"name": "P\u0113rtnieku gardumi R\u012bg\u0101", "shop": "butcher"}}, {"type": "node", "id": 6401359921, "lat": 56.9616126, "lon": 23.9992587, "tags": {"shop": "butcher"}}, {"type": "node", "id": 6512054520, "lat": 56.91547, "lon": 24.185995, "tags": {"name": "Forevers", "shop": "butcher"}}, {"type": "node", "id": 6512054525, "lat": 56.9149956, "lon": 24.1855779, "tags": {"shop": "butcher"}}, {"type": "node", "id": 6558009193, "lat": 57.070482, "lon": 24.3209215, "tags": {"name": "P\u0113rtnieku gardumi \u0100da\u017eos", "shop": "butcher"}}, {"type": "node", "id": 6588426585, "lat": 57.0774227, "lon": 24.3243045, "tags": {"name": "Ga\u013cas nams", "shop": "butcher"}}, {"type": "node", "id": 4434739520, "lat": 56.9347873, "lon": 24.07287, "tags": {"name": "It\u0101\u013cu delikateses", "operator": "SIA il Gusto Italiano", "shop": "deli"}}, {"type": "node", "id": 5005313074, "lat": 57.0767019, "lon": 24.3232259, "tags": {"name": "Soira", "shop": "cheese"}}, {"type": "node", "id": 5260236923, "lat": 56.9593877, "lon": 24.0530186, "tags": {"name": "Siera pasaule", "opening_hours": "Mo-Sa 10:00-21:00; Su 10:00-18:00", "shop": "cheese"}}, {"type": "node", "id": 1736004500, "lat": 57.1542835, "lon": 24.853747, "tags": {"addr:street": "Ausek\u013ca iela", "name": "Straupe", "opening_hours": "Mo-Fr 9:00-19:00;Sa 9:00-16:00", "shop": "dairy"}}, {"type": "node", "id": 3610461045, "lat": 57.1529677, "lon": 24.8594976, "tags": {"shop": "dairy"}}, {"type": "node", "id": 4086171390, "lat": 56.9690142, "lon": 24.0601234, "tags": {"name": "Degoles pienotava", "opening_hours": "Mo,Fr,Su 09:00-16:00; Tu,We 09:00-20:00; Th 09:00-19:00; Sa 09:00-18:00", "shop": "dairy"}}, {"type": "node", "id": 4114769855, "lat": 55.9002819, "lon": 26.5275137, "tags": {"name": "LATGALES PIENS", "shop": "dairy"}}, {"type": "node", "id": 4114770298, "lat": 55.900362, "lon": 26.5275547, "tags": {"name": "Latgales piens", "shop": "dairy"}}, {"type": "node", "id": 4162959195, "lat": 56.7182545, "lon": 21.6055653, "tags": {"addr:city": "Aizpute", "addr:housenumber": "27", "addr:postcode": "LV-3456", "addr:street": "Atmodas iela", "name": "Sauber", "opening_hours": "Mo-Fr 10:00-17:00; Sa 10:00-15:00", "shop": "dairy"}}, {"type": "node", "id": 4847193722, "lat": 56.9812267, "lon": 24.1828748, "tags": {"name": "Piena produkti", "shop": "dairy"}}, {"type": "node", "id": 5124345633, "lat": 56.8218065, "lon": 24.5954416, "tags": {"name": "Piena veikals", "operator": "Straupe", "shop": "dairy"}}, {"type": "node", "id": 5211890721, "lat": 57.5163972, "lon": 24.7146939, "tags": {"name": "\u00abLimba\u017eu siers\u00bb", "shop": "dairy"}}, {"type": "node", "id": 5484707436, "lat": 57.53895, "lon": 25.4138095, "tags": {"name": "Straupe", "opening_hours": "Mo-Fr 09:00-18:00, Sa 09:00-16:00", "operator": "Straupe", "shop": "dairy", "wheelchair": "yes"}}, {"type": "node", "id": 6119388929, "lat": 56.6230553, "lon": 23.2842614, "tags": {"name": "Jaunpils", "opening_hours": "Tu-Fr 09:00-16:00; Sa 08:30-15:00", "operator": "A/S Jaunpils Pienotava", "shop": "dairy"}}, {"type": "node", "id": 2910671198, "lat": 56.9516137, "lon": 24.054304, "tags": {"shop": "farm"}}, {"type": "node", "id": 2962360942, "lat": 56.9418834, "lon": 24.095053, "tags": {"shop": "farm"}}, {"type": "node", "id": 3060742342, "lat": 56.9787959, "lon": 24.1857555, "tags": {"shop": "farm"}}, {"type": "node", "id": 3716606514, "lat": 56.9030764, "lon": 24.2092148, "tags": {"shop": "farm"}}, {"type": "node", "id": 3812635618, "lat": 56.9688377, "lon": 24.0594032, "tags": {"shop": "farm"}}, {"type": "node", "id": 4778738496, "lat": 56.9689973, "lon": 24.0590898, "tags": {"shop": "farm"}}, {"type": "node", "id": 5284513741, "lat": 56.2660254, "lon": 25.4131787, "tags": {"description": "Natur\u0101l\u0101 saimniec\u012bba \u201eNiedras\u201d (tikai 1 km att\u0101lum\u0101 no Lones centra) aicina iepirkties! Priec\u0101simies un j\u016bsu iepirkumus lab\u0101k sagatavosim, ja pirms iera\u0161an\u0101s piezvan\u012bsit!", "name": "Niedras", "operator": "Niedras", "shop": "farm"}}, {"type": "node", "id": 6558009206, "lat": 57.0704688, "lon": 24.3207747, "tags": {"name": "Lauku labumi", "opening_hours": "Mo-Su 10:00-19:00; Su 10:00-16:00", "shop": "farm"}}, {"type": "node", "id": 3470022038, "lat": 55.8687114, "lon": 26.5236167, "tags": {"name": "Ma\u0123iskais piesk\u0101riens", "shop": "coffee", "wheelchair": "no"}}, {"type": "node", "id": 3809601760, "lat": 56.9722404, "lon": 24.1642622, "tags": {"name": "Starcaffe", "shop": "coffee", "website": "http://www.starcaffe.net"}}, {"type": "node", "id": 4363635289, "lat": 56.9525705, "lon": 24.1506709, "tags": {"name": "Es m\u012blu kafiju", "name:lv": "Es m\u012blu kafiju", "opening_hours": "Mo-Fr 09:00-19:00", "shop": "coffee"}}, {"type": "node", "id": 4392117291, "lat": 56.9484889, "lon": 24.1372649, "tags": {"name": "Kafija un kafijas iek\u0101rtas", "shop": "coffee"}}, {"type": "node", "id": 1693202046, "lat": 56.8391992, "lon": 24.5048981, "tags": {"name": "Za\u013c\u0101 zeme", "shop": "greengrocer"}}, {"type": "node", "id": 1754417101, "lat": 57.0354577, "lon": 24.0972051, "tags": {"shop": "greengrocer"}}, {"type": "node", "id": 1754417140, "lat": 57.035746, "lon": 24.096892, "tags": {"shop": "greengrocer"}}, {"type": "node", "id": 1929381099, "lat": 56.879098, "lon": 24.1466945, "tags": {"shop": "greengrocer"}}, {"type": "node", "id": 3858447743, "lat": 57.2482692, "lon": 22.580235, "tags": {"shop": "greengrocer"}}, {"type": "node", "id": 4162113189, "lat": 56.9717116, "lon": 24.1624975, "tags": {"name": "Gardas Odzi\u0146as", "shop": "greengrocer"}}, {"type": "node", "id": 4193571790, "lat": 56.9591054, "lon": 24.1737814, "tags": {"name": "Lauku d\u0101rze\u0146i", "shop": "greengrocer"}}, {"type": "node", "id": 4227158812, "lat": 56.9690978, "lon": 24.0577947, "tags": {"opening_hours": "08:00-20:00", "shop": "greengrocer"}}, {"type": "node", "id": 4234090989, "lat": 56.9560768, "lon": 24.1490716, "tags": {"name": "Aug\u013ci un d\u0101rze\u0146i", "opening_hours": "Mo-Fr 09:00-20:00; Sa 09:00-19:00; Su 10:00-19:00", "shop": "greengrocer"}}, {"type": "node", "id": 4278754891, "lat": 56.9450339, "lon": 24.1729408, "tags": {"name": "Nami\u0146\u0161 Za\u013cais", "opening_hours": "Mo-Su 09:00-21:00", "shop": "greengrocer"}}, {"type": "node", "id": 4385698819, "lat": 56.9532521, "lon": 24.1541952, "tags": {"name": "D\u0101rze\u0146i", "name:lv": "D\u0101rze\u0146i", "opening_hours": "Mo-Sa 08:00-20:00; Su 08:00-18:00", "shop": "greengrocer"}}, {"type": "node", "id": 4395744571, "lat": 56.9954075, "lon": 24.262463, "tags": {"shop": "greengrocer"}}, {"type": "node", "id": 5111955021, "lat": 56.9398058, "lon": 24.1376327, "tags": {"name": "LaTS", "opening_hours": "Mo-Sa 08:00-22:00; Su 09:00-22:00", "shop": "greengrocer"}}, {"type": "node", "id": 5256037227, "lat": 56.9540241, "lon": 24.131846, "tags": {"shop": "greengrocer"}}, {"type": "node", "id": 5284050482, "lat": 57.5372672, "lon": 25.4125755, "tags": {"name": "Seko eko -veikals", "shop": "greengrocer"}}, {"type": "node", "id": 5559299683, "lat": 56.9681043, "lon": 24.2369432, "tags": {"shop": "greengrocer"}}, {"type": "node", "id": 5616052681, "lat": 56.9585256, "lon": 24.0077072, "tags": {"shop": "greengrocer"}}, {"type": "node", "id": 5774810076, "lat": 56.9657505, "lon": 24.1439323, "tags": {"name": "Gardas Odzi\u0146as", "opening_hours": "Mo-Fr 09:00-20:00; Sa 10:00-18:00", "payment:cards": "yes", "payment:cash": "yes", "shop": "greengrocer"}}, {"type": "node", "id": 5988521733, "lat": 56.959766, "lon": 24.142629, "tags": {"addr:city": "R\u012bga", "addr:housenumber": "57B", "addr:postcode": "LV-1012", "addr:street": "Tallinas iela", "name": "Bauskas D\u0101rzi", "opening_hours": "Mo-Fr 07:30-19:00; Sa 09:00-17:00", "payment:cash": "yes", "payment:credit_cards": "no", "shop": "greengrocer"}}, {"type": "node", "id": 6046663704, "lat": 56.9692017, "lon": 24.1856625, "tags": {"shop": "greengrocer"}}, {"type": "node", "id": 6558009192, "lat": 57.0705399, "lon": 24.3209054, "tags": {"shop": "greengrocer"}}, {"type": "node", "id": 3809601758, "lat": 56.9721628, "lon": 24.1639845, "tags": {"name": "Mlesna", "shop": "tea", "website": "http://mlesnatea.lv"}}, {"type": "node", "id": 4285821491, "lat": 57.1431804, "lon": 24.8445419, "tags": {"name": "D\u0101mu sala", "shop": "tea"}}, {"type": "node", "id": 343160699, "lat": 56.4071536, "lon": 24.1883242, "tags": {"name": "Gaf\u016b", "old_name": "Gliemez\u012btis", "shop": "spices"}}, {"type": "node", "id": 4246997894, "lat": 56.9537372, "lon": 24.1465944, "tags": {"name": "Gourmet studio", "opening_hours": "Mo-Fr 10:00-19:00", "shop": "spices"}}, {"type": "node", "id": 5259691121, "lat": 56.959455, "lon": 24.0534757, "tags": {"name": "Gar\u0161u bu\u0137ete", "shop": "spices"}}, {"type": "node", "id": 5697643099, "lat": 56.8165633, "lon": 24.5851389, "tags": {"email": "rridl13@gmail.com", "name": "Gar\u0161vielu veikals", "organic": "only", "phone": "+37129792588", "shop": "spices"}}]}