{"version": 0.6, "generator": "Overpass API 0.7.55.7 8b86ff77", "osm3s": {"timestamp_osm_base": "2019-07-31T12:13:03Z", "timestamp_areas_base": "2019-07-31T11:17:03Z", "copyright": "The data included in this document is from www.openstreetmap.org. The data is made available under ODbL."}, "elements": [{"type": "node", "id": 648549290, "lat": 54.6729399, "lon": 25.2458061, "tags": {"addr:city": "Vilnius", "addr:contact": "yes", "addr:housenumber": "43A", "addr:street": "Savanori\u0173 pr.", "name": "Cesta", "opening_hours": "Mo-Fr 08:00-20:00, Sa 08:00-17:00, Su,PH 09:00-15:00", "shop": "butcher"}}, {"type": "node", "id": 750600264, "lat": 55.9078272, "lon": 23.2505929, "tags": {"name": "\u0160vie\u017eia \u016bkio m\u0117sa", "shop": "butcher"}}, {"type": "node", "id": 999583640, "lat": 55.9289346, "lon": 23.3110268, "tags": {"name": "Ku\u017ei\u0173 agro\u012fmon\u0117", "shop": "butcher"}}, {"type": "node", "id": 1197132662, "lat": 55.9385146, "lon": 23.3068994, "tags": {"name": "Delikatesas", "shop": "butcher"}}, {"type": "node", "id": 1297628501, "lat": 55.9228722, "lon": 23.3087125, "tags": {"addr:city": "\u0160iauliai", "addr:country": "LT", "addr:housenumber": "17", "addr:street": "Verduli\u0173 g.", "name": "Dora", "shop": "butcher"}}, {"type": "node", "id": 1304406531, "lat": 55.9353982, "lon": 23.3087581, "tags": {"name": "Vigesta", "shop": "butcher"}}, {"type": "node", "id": 1422483019, "lat": 55.3403351, "lon": 26.1630803, "tags": {"shop": "butcher"}}, {"type": "node", "id": 1448386256, "lat": 54.7053885, "lon": 25.3111623, "tags": {"addr:city": "Vilnius", "addr:contact": "yes", "addr:housenumber": "43", "addr:street": "Antakalnio g.", "name": "Skilandukas", "shop": "butcher"}}, {"type": "node", "id": 1491615669, "lat": 54.6924875, "lon": 25.2175283, "tags": {"name": "Cesta", "shop": "butcher"}}, {"type": "node", "id": 1493441786, "lat": 54.6717857, "lon": 25.2681908, "tags": {"shop": "butcher"}}, {"type": "node", "id": 1541322945, "lat": 55.9310647, "lon": 23.3094011, "tags": {"name": "Linkuvos m\u0117sa", "shop": "butcher"}}, {"type": "node", "id": 1586037179, "lat": 54.7079881, "lon": 25.2244039, "tags": {"name": "Cesta", "name:en": "Cesta", "name:lt": "Cesta", "opening_hours": "Mo-Fr 09:00-18:00", "shop": "butcher"}}, {"type": "node", "id": 1630413332, "lat": 54.9119315, "lon": 23.9604872, "tags": {"name": "Kaimyn\u0173 turgelis", "shop": "butcher"}}, {"type": "node", "id": 1633798617, "lat": 55.5244403, "lon": 25.1032662, "tags": {"name": "Cesta", "shop": "butcher"}}, {"type": "node", "id": 1719051233, "lat": 54.7097558, "lon": 25.3136177, "tags": {"addr:city": "Vilnius", "addr:contact": "yes", "addr:housenumber": "70", "addr:street": "Antakalnio g.", "name": "Cesta", "shop": "butcher"}}, {"type": "node", "id": 1825042492, "lat": 55.2515784, "lon": 22.2889375, "tags": {"addr:city": "Taurag\u0117", "addr:housenumber": "22", "addr:street": "Ba\u017eny\u010di\u0173 g.", "shop": "butcher"}}, {"type": "node", "id": 2063723435, "lat": 54.7405141, "lon": 25.2283584, "tags": {"addr:city": "Vilnius", "addr:contact": "yes", "addr:housenumber": "369", "addr:street": "Ukmerg\u0117s g.", "name": "Naminis d\u016bmas", "shop": "butcher"}}, {"type": "node", "id": 2109397595, "lat": 54.9237157, "lon": 23.8792658, "tags": {"name": "M\u0117sin\u0117 (kioskas)", "shop": "butcher"}}, {"type": "node", "id": 2661935794, "lat": 54.6510897, "lon": 23.038071, "tags": {"addr:city": "Vilkavi\u0161kis", "addr:door": "2", "addr:housenumber": "12", "addr:street": "Gedimino g.", "butcher": "poultry", "name": "Kai\u0161iadori\u0173 pauk\u0161tynas", "phone": "+37061674930", "shop": "butcher", "website": "http://www.kaispauk.lt/"}}, {"type": "node", "id": 2753555669, "lat": 54.7619892, "lon": 25.1853181, "tags": {"shop": "butcher"}}, {"type": "node", "id": 2783714309, "lat": 54.7040389, "lon": 25.3099299, "tags": {"addr:city": "Vilnius", "addr:contact": "yes", "addr:housenumber": "44", "addr:street": "Antakalnio g.", "name": "Mersina", "opening_hours": "09:00-19:00", "shop": "butcher"}}, {"type": "node", "id": 3114644993, "lat": 54.6804268, "lon": 25.2947134, "tags": {"addr:city": "Vilnius", "addr:contact": "yes", "addr:housenumber": "10", "addr:street": "U\u017eupio g.", "name": "Gegio stalui", "opening_hours": "Mo-Fr 10:00-20:00; Sa 10:00-16:00", "phone": "+370 622 53775", "shop": "butcher", "website": "https://lt-lt.facebook.com/GegioStalui"}}, {"type": "node", "id": 3639121843, "lat": 54.6535333, "lon": 23.0340237, "tags": {"addr:city": "Vilkavi\u0161kis", "addr:housenumber": "3", "addr:street": "Lauko g.", "name": "M\u0117sos gaminiai", "shop": "butcher"}}, {"type": "node", "id": 3713521936, "lat": 56.3138466, "lon": 22.3435451, "tags": {"name": "Vigesta", "shop": "butcher", "source": "http://www.vigesta.lt/"}}, {"type": "node", "id": 3725020828, "lat": 56.3133044, "lon": 22.344407, "tags": {"addr:city": "Ma\u017eeikiai", "addr:housenumber": "23", "addr:street": "Laisv\u0117s g.", "name": "Kai\u0161iadori\u0173 pauk\u0161tynas", "shop": "butcher", "website": "http://paukstynas.eu/"}}, {"type": "node", "id": 3798301483, "lat": 54.8716697, "lon": 23.9370514, "tags": {"name": "Gardi m\u0117sa", "shop": "butcher"}}, {"type": "node", "id": 3815263635, "lat": 54.8708947, "lon": 23.9392652, "tags": {"name": "Cesta", "shop": "butcher"}}, {"type": "node", "id": 3837471199, "lat": 54.9694487, "lon": 24.0644854, "tags": {"addr:city": "Karm\u0117lava", "addr:housenumber": "54", "addr:street": "Vilniaus g.", "name": "M\u0117sos preki\u0173 parduotuv\u0117", "shop": "butcher"}}, {"type": "node", "id": 4046131218, "lat": 54.7272275, "lon": 25.2332064, "tags": {"addr:city": "Vilnius", "addr:contact": "yes", "addr:housenumber": "18", "addr:street": "\u017demynos g.", "name": "Laisv\u0117s Turgus", "opening_hours": "Mo-Sa 08:00-20:00", "shop": "butcher"}}, {"type": "node", "id": 4068933445, "lat": 55.7344747, "lon": 26.248709, "tags": {"name": "CESTA", "shop": "butcher", "wheelchair": "no"}}, {"type": "node", "id": 4077002022, "lat": 55.7231686, "lon": 21.9313933, "tags": {"addr:city": "Rietavas", "addr:housenumber": "9", "addr:street": "Plung\u0117s g.", "name": "M\u0117sos Krautuv\u0117l\u0117", "shop": "butcher"}}, {"type": "node", "id": 4108680690, "lat": 55.7282943, "lon": 24.3336406, "tags": {"addr:city": "Panev\u0117\u017eys", "addr:contact": "yes", "addr:housenumber": "79A", "addr:street": "Klaip\u0117dos g.", "name": "Cesta", "opening_hours": "Mo-Fr 08:00-19:00; Sa 08:00-17:00; Su 09:00-15:00", "shop": "butcher"}}, {"type": "node", "id": 4173774988, "lat": 54.7259478, "lon": 25.2310274, "tags": {"name": "M\u0117sos Gaminiai", "shop": "butcher"}}, {"type": "node", "id": 4209731381, "lat": 54.7180856, "lon": 25.2146684, "tags": {"addr:city": "Vilnius", "addr:contact": "yes", "addr:housenumber": "104", "addr:street": "Taikos g.", "name": "Cesta firmin\u0117 parduotuv\u0117", "opening_hours": "Mo-Fr 08:00-19:00, Sa 09:00-17:00, Su 09:00-15:00", "operator": "UAB CESTA", "shop": "butcher", "wheelchair": "limited"}}, {"type": "node", "id": 4213026990, "lat": 55.7518563, "lon": 21.1299596, "tags": {"name": "Naminis d\u016bmas", "shop": "butcher"}}, {"type": "node", "id": 4297428079, "lat": 55.5171324, "lon": 21.6206731, "tags": {"addr:city": "\u0160v\u0117k\u0161na", "addr:housenumber": "18", "addr:street": "Liep\u0173 a.", "name": "M\u0117sos Tutgav\u0117t\u0117", "shop": "butcher"}}, {"type": "node", "id": 4506857691, "lat": 54.7065929, "lon": 25.1757598, "tags": {"addr:city": "Vilnius", "addr:contact": "yes", "addr:housenumber": "8", "addr:street": "Karaliau\u010diaus g.", "email": "info@cesta.lt", "name": "Cesta", "opening_hours": "Mo-Fr 08:00-20:00, Sa 09:00-17:00, Su 09:00-15:00", "operator": "cesta", "phone": "+370 5 279 5225", "shop": "butcher", "website": "http://www.cesta.lt/"}}, {"type": "node", "id": 4604599856, "lat": 56.1155892, "lon": 25.0092218, "tags": {"addr:city": "Papilys", "addr:contact": "yes", "addr:housenumber": "15", "addr:postcode": "41225", "addr:street": "Ro\u017ei\u0173 g.", "name": "Bugini\u0173 gausa", "opening_hours": "Mo-Fr 08:00-18:00, Sa 09:00-14:00", "shop": "butcher"}}, {"type": "node", "id": 4607607089, "lat": 55.9637095, "lon": 25.586835, "tags": {"name": "Cesta", "name:lt": "Cesta", "shop": "butcher"}}, {"type": "node", "id": 4716226969, "lat": 54.7134246, "lon": 25.2955047, "tags": {"addr:city": "Vilnius", "addr:contact": "yes", "addr:housenumber": "29", "addr:street": "Verki\u0173 g.", "amenity": "restaurant", "name": "Bu\u010deris", "opening_hours": "Mo-Sa 10:00-22:00, Su 10:00-18:00", "shop": "butcher", "website": "http://www.buceris.lt/", "wheelchair": "yes"}}, {"type": "node", "id": 4870318730, "lat": 56.059647, "lon": 21.5711357, "tags": {"shop": "butcher"}}, {"type": "node", "id": 4947073423, "lat": 56.2039813, "lon": 24.7607991, "tags": {"name": "M\u0117sos gaminiai", "shop": "butcher"}}, {"type": "node", "id": 5741939925, "lat": 55.0389229, "lon": 24.9574815, "tags": {"name": "Kai\u0161iadori\u0173 pauk\u0161tynas", "shop": "butcher"}}, {"type": "node", "id": 5741939933, "lat": 55.038956, "lon": 24.9561256, "tags": {"level": "-1", "name": "Cesta", "shop": "butcher"}}, {"type": "node", "id": 5747262069, "lat": 55.2506358, "lon": 24.7649324, "tags": {"addr:city": "Ukmerg\u0117", "addr:contact": "yes", "addr:housenumber": "1", "addr:postcode": "20106", "addr:street": "Gedimino g.", "level": "1", "name": "Cesta", "shop": "butcher"}}, {"type": "node", "id": 5792314796, "lat": 54.9097567, "lon": 23.9735486, "tags": {"butcher": "turkey", "name": "Arvi kalakut\u0173 parduotuv\u0117", "opening_hours": "Mo-Fr 09:00-19:00; Sa 09:00-15:00; Su off", "shop": "butcher", "source": "survey", "website": "www.arvikalakutai.lt"}}, {"type": "node", "id": 5810569279, "lat": 55.2301673, "lon": 25.4133547, "tags": {"name": "Alantos dvaras", "shop": "butcher"}}, {"type": "node", "id": 5831980541, "lat": 55.7171768, "lon": 21.3946643, "tags": {"addr:city": "Garg\u017edai", "addr:housenumber": "40", "addr:street": "Vasario 16-osios g.", "name": "K. Baginsko m\u0117sin\u0117", "shop": "butcher"}}, {"type": "node", "id": 5836879759, "lat": 56.2040962, "lon": 24.7596323, "tags": {"level": "1", "name": "\u0160vie\u017eia m\u0117sa", "shop": "butcher"}}, {"type": "node", "id": 5838826585, "lat": 55.5101149, "lon": 25.5861968, "tags": {"name": "M\u0117sos gaminiai - Cesta", "shop": "butcher", "website": "http://www.cesta.lt"}}, {"type": "node", "id": 5853601001, "lat": 56.1676257, "lon": 22.0886907, "tags": {"addr:city": "Seda", "addr:contact": "yes", "addr:housenumber": "18", "addr:street": "Vytauto g.", "name": "Ma\u017eeiki\u0173 m\u0117sin\u0117", "shop": "butcher"}}, {"type": "node", "id": 6149631953, "lat": 54.7000439, "lon": 25.2573713, "tags": {"name": "BU\u010cERIS", "shop": "butcher"}}, {"type": "node", "id": 6149631954, "lat": 54.7001539, "lon": 25.2573552, "tags": {"name": "Steak Supply", "shop": "butcher"}}, {"type": "node", "id": 6184829702, "lat": 54.7134138, "lon": 25.2956551, "tags": {"name": "Bu\u010deris", "shop": "butcher"}}, {"type": "node", "id": 6316276137, "lat": 55.2296851, "lon": 25.4131783, "tags": {"shop": "butcher"}}, {"type": "node", "id": 4095169171, "lat": 54.7098494, "lon": 25.1872006, "tags": {"addr:city": "Vilnius", "addr:contact": "yes", "addr:housenumber": "1", "addr:street": "Priegliaus g.", "level": "1", "name": "Gurmanija", "opening_hours": "Mo-Fr 10:00-20:00, Sa 10:00-15:00, Su 10:00-15:00", "operator": "Gurmanija", "shop": "deli", "website": "https://www.facebook.com/gurmanija.gr"}}, {"type": "node", "id": 4716300440, "lat": 54.713356, "lon": 25.2957015, "tags": {"addr:city": "Vilnius", "addr:contact": "yes", "addr:housenumber": "29", "addr:street": "Verki\u0173 g.", "name": "Itali\u0161ko skonio gurmanai", "opening_hours": "Mo-Sa 10:00-20:00, Su 10:00-18:00", "shop": "deli", "website": "http://netikmakaronai.lt/", "wheelchair": "yes"}}, {"type": "node", "id": 4716728527, "lat": 54.7125512, "lon": 25.2972175, "tags": {"addr:city": "Vilnius", "addr:contact": "yes", "addr:housenumber": "29", "addr:postcode": "09108", "addr:street": "Verki\u0173 g.", "amenity": "restaurant", "cuisine": "turkish", "name": "Eastanbul Meze restoranas - parduotuv\u0117", "opening_hours": "Mo - Sa 09:00 - 20:00; Su 10:00 - 18:00", "shop": "deli", "website": "http://www.eastanbul.lt/", "wheelchair": "limited"}}, {"type": "node", "id": 4837990578, "lat": 54.7051532, "lon": 25.3111723, "tags": {"addr:city": "Vilnius", "addr:contact": "yes", "addr:housenumber": "43", "addr:street": "Antakalnio g.", "name": "Du Medu namai", "opening_hours": "Mo-Fr 10:00-19:00", "operator": "UAB \u201eDu Medu prekyba\u201c", "shop": "deli"}}, {"type": "node", "id": 6190821417, "lat": 56.2414793, "lon": 23.6153975, "tags": {"addr:city": "Joni\u0161kis", "addr:housenumber": "11", "addr:street": "Miesto a.", "shop": "deli"}}, {"type": "node", "id": 6190821418, "lat": 56.2386656, "lon": 23.6128755, "tags": {"shop": "deli"}}, {"type": "node", "id": 1885116682, "lat": 54.676505, "lon": 25.287996, "tags": {"addr:city": "Vilnius", "addr:contact": "yes", "addr:housenumber": "3", "addr:street": "Au\u0161ros Vart\u0173 g.", "amenity": "cafe", "internet_access": "wlan", "name": "D\u017eiugas", "opening_hours": "Mo-Su 09:00-22:00", "shop": "cheese"}}, {"type": "node", "id": 6297616939, "lat": 55.8917719, "lon": 22.5269508, "tags": {"name": "Pien\u0117", "shop": "dairy"}}, {"type": "node", "id": 6314191643, "lat": 54.7094729, "lon": 25.2618234, "tags": {"name": "Dziugas", "opening_hours": "Mo-Su 10:00-22:00", "shop": "dairy"}}, {"type": "node", "id": 5737152074, "lat": 56.1576388, "lon": 25.5195277, "tags": {"amenity": "cafe", "name": "Ilzenbergo krautuv\u0117l\u0117\u2013kavin\u0117", "shop": "farm"}}, {"type": "node", "id": 5988376990, "lat": 54.7454689, "lon": 24.8428425, "tags": {"name": "Sul\u010di\u0173 spaudykla \"Obuoli\u0173 Metai\"", "shop": "farm", "website": "https://www.obuoliumetai.lt/", "wheelchair": "yes"}}, {"type": "node", "id": 6550170489, "lat": 55.914502, "lon": 23.2593069, "tags": {"name": "Kiau\u0161iniai", "shop": "farm"}}, {"type": "node", "id": 6550170490, "lat": 55.914728, "lon": 23.2588377, "tags": {"name": "Kiau\u0161iniai", "payment:cash": "yes", "shop": "farm"}}, {"type": "node", "id": 6633244733, "lat": 54.5770383, "lon": 25.2077436, "tags": {"craft": "beekeeper", "name": "Imanto bitynas", "shop": "farm"}}, {"type": "node", "id": 4452216726, "lat": 55.4999269, "lon": 25.60796, "tags": {"addr:city": "Utena", "addr:housenumber": "68", "addr:street": "J. Basanavi\u010diaus g.", "name": "Kavos namai", "shop": "coffee"}}, {"type": "node", "id": 4463310294, "lat": 54.7101073, "lon": 25.1871169, "tags": {"addr:city": "Vilnius", "addr:contact": "yes", "addr:housenumber": "1", "addr:street": "Priegliaus g.", "description": "Kavos, arbatos kolekcija.", "level": "1", "name": "SKIRO", "opening_hours": "Mo-Fr 10:00-20:00, Sa-Su 10:00-18:00", "operator": "skiro", "shop": "coffee", "website": "http://www.esida.lt/"}}, {"type": "node", "id": 5764134044, "lat": 55.7285914, "lon": 21.1244192, "tags": {"name": "Kavos \u017einovai", "shop": "coffee"}}, {"type": "node", "id": 1607459533, "lat": 54.9178705, "lon": 23.9673777, "tags": {"shop": "greengrocer"}}, {"type": "node", "id": 3770117706, "lat": 54.6784089, "lon": 25.2130069, "tags": {"addr:city": "Vilnius", "addr:contact": "yes", "addr:housenumber": "1", "addr:street": "Erfurto g.", "shop": "greengrocer"}}, {"type": "node", "id": 3791319259, "lat": 55.2439481, "lon": 22.3119658, "tags": {"addr:city": "Taurag\u0117", "addr:housenumber": "24", "addr:street": "Gaur\u0117s g.", "name": "Vaisi\u0173 Sul\u010di\u0173 Spaustuv\u0117", "shop": "greengrocer"}}, {"type": "node", "id": 4248337493, "lat": 54.715783, "lon": 25.2437729, "tags": {"name": "\u0160e\u0161kin\u0117s maisto turgus", "opening_hours": "Mo-Su 07:00-17:00", "shop": "greengrocer", "wheelchair": "yes"}}, {"type": "node", "id": 4368930889, "lat": 54.0107931, "lon": 23.990531, "tags": {"name": "Turgus", "name:lt": "Turgus", "name:ru": "\u0420\u044b\u043d\u043e\u043a", "opening_hours": "Tu-Su 07:00-14:00", "shop": "greengrocer"}}, {"type": "node", "id": 6131352231, "lat": 54.5586613, "lon": 23.334143, "tags": {"name": "Vaisiai ir dar\u017eov\u0117s", "shop": "greengrocer"}}, {"type": "node", "id": 6393613085, "lat": 54.6938288, "lon": 25.2767807, "tags": {"name": "Livinn sveiki produktai", "opening_hours": "Mo-Su 10:00-22:00", "shop": "greengrocer"}}, {"type": "node", "id": 3261341152, "lat": 54.6866243, "lon": 25.279327, "tags": {"name": "Skonis ir kvapas", "shop": "tea"}}, {"type": "node", "id": 3268851178, "lat": 54.7094876, "lon": 25.2218054, "tags": {"addr:city": "Vilnius", "addr:contact": "yes", "addr:housenumber": "43", "addr:street": "Vir\u0161uli\u0161ki\u0173 g.", "name": "Gurman's skonio namai", "shop": "tea"}}, {"type": "node", "id": 3273677537, "lat": 54.7084682, "lon": 25.2279785, "tags": {"name": "Gurmans", "opening_hours": "Mo-Sa 10:00-21:00, Su 10:00-18:00", "shop": "tea"}}, {"type": "node", "id": 3862839598, "lat": 54.6379869, "lon": 23.9439955, "tags": {"addr:city": "Prienai", "addr:housenumber": "63", "addr:postcode": "59124", "addr:street": "Vytauto g.", "name": "Kava Arbata ECO produktai", "shop": "tea"}}, {"type": "node", "id": 4110669090, "lat": 55.7297086, "lon": 24.361101, "tags": {"addr:city": "Panev\u0117\u017eys", "addr:housenumber": "1", "addr:street": "Kranto g.", "name": "Skonis ir kvapas", "shop": "tea"}}, {"type": "node", "id": 4458642390, "lat": 54.7099215, "lon": 25.1886824, "tags": {"addr:city": "Vilnius", "addr:contact": "yes", "addr:housenumber": "31", "addr:street": "Pilait\u0117s pr.", "description": "Arbata, kava, tabakas.", "email": "info@skonis-kvapas.lt", "name": "Skonis ir kvapas", "opening_hours": "Mo-Fr 10:00-21:00, Sa-Su 10:00-19:00", "operator": "Skonis ir kvapas", "phone": "+370 686 18712", "shop": "tea", "website": "https://skonis-kvapas.lt/", "wheelchair": "yes"}}, {"type": "node", "id": 4966150169, "lat": 56.2010666, "lon": 24.7562112, "tags": {"addr:city": "Bir\u017eai", "addr:housenumber": "12", "addr:street": "Vytauto g.", "level": "1", "name": "Arbata, kava, prieskoniai", "opening_hours": "Mo-Fr 08:00-18:00; Sa 08:00-15:00", "operator": "I. Korsakien\u0117s I\u012e", "phone": "+370 650 45662", "shop": "tea"}}]}