{"version": 0.6, "generator": "Overpass API 0.7.55.7 8b86ff77", "osm3s": {"timestamp_osm_base": "2019-07-30T08:28:03Z", "timestamp_areas_base": "2019-07-30T07:30:02Z", "copyright": "The data included in this document is from www.openstreetmap.org. The data is made available under ODbL."}, "elements": [{"type": "node", "id": 260845611, "lat": 60.3757003, "lon": 5.3380197, "tags": {"addr:city": "Bergen", "addr:housenumber": "25", "addr:postcode": "5054", "addr:street": "Solheimsgaten", "alt_name": "Solheim Kj\u00f8tt AS", "email": "post@solheimkjott.no", "name": "Solheim Kj\u00f8tt", "opening_hours": "Mo-We 08:30-16:30; Th-Fr 08:30-18:00; Sa 09:00-16:00", "phone": "+47 55 29 29 48", "shop": "butcher", "website": "http://www.solheimkjott.no/", "wheelchair": "limited"}}, {"type": "node", "id": 460040964, "lat": 58.9714007, "lon": 5.7381276, "tags": {"name": "A. Ids\u00f8e", "shop": "butcher"}}, {"type": "node", "id": 552455344, "lat": 69.648477, "lon": 18.9555529, "tags": {"name": "S\u00f8strene Ingebrigtsen", "shop": "butcher"}}, {"type": "node", "id": 617137110, "lat": 58.970168, "lon": 5.7362836, "tags": {"name": "Fares Halal", "shop": "butcher"}}, {"type": "node", "id": 619245235, "lat": 60.7176043, "lon": 11.191339, "tags": {"name": "Brovold", "shop": "butcher"}}, {"type": "node", "id": 819324200, "lat": 59.6639079, "lon": 5.9338647, "tags": {"shop": "butcher"}}, {"type": "node", "id": 858406094, "lat": 59.9350996, "lon": 10.7652943, "tags": {"addr:housenumber": "53", "addr:street": "Vogts gate", "name": "Str\u00f8m-Larsen", "opening_hours": "Mo-We,Fr 09:00-17:00; Th 09:00-17:30; Sa 09:00-15:00", "shop": "butcher", "website": "https://www.strom-larsen.no/"}}, {"type": "node", "id": 1259269866, "lat": 60.1709609, "lon": 10.2598377, "tags": {"addr:housenumber": "8", "addr:postcode": "3513", "addr:street": "Torvgata", "name": "Leiv Vidar", "shop": "butcher", "website": "http://www.leiv-vidar.no/butikk"}}, {"type": "node", "id": 1313813622, "lat": 68.2112, "lon": 14.4770326, "tags": {"shop": "butcher"}}, {"type": "node", "id": 1371749376, "lat": 58.8685438, "lon": 9.4111506, "tags": {"name": "Br\u00f8drene Brubakk", "shop": "butcher"}}, {"type": "node", "id": 1393716746, "lat": 58.2609121, "lon": 8.3949981, "tags": {"name": "Jens Eide", "shop": "butcher"}}, {"type": "node", "id": 1489420902, "lat": 61.5312472, "lon": 10.1397557, "tags": {"name": "Annie's p\u00f8lsemakeri", "shop": "butcher"}}, {"type": "node", "id": 1911096962, "lat": 61.0807384, "lon": 6.5871279, "tags": {"name": "Vikja slakteri", "shop": "butcher"}}, {"type": "node", "id": 1982623530, "lat": 70.2046959, "lon": 28.1764899, "tags": {"name": "Slakteriet", "shop": "butcher"}}, {"type": "node", "id": 2302823850, "lat": 63.1109505, "lon": 7.7865865, "tags": {"name": "Gaupset", "shop": "butcher"}}, {"type": "node", "id": 3034226463, "lat": 59.1215457, "lon": 11.3803818, "tags": {"name": "Bergstr\u00f8m mat og delikatesse", "shop": "butcher"}}, {"type": "node", "id": 3397094879, "lat": 59.9123689, "lon": 10.7591751, "tags": {"name": "Gr\u00f8nlands Torg Kj\u00f8tt", "opening_hours": "Mo-Sa 10:00-20:00; Su 10:00-19:00", "shop": "butcher", "source": "http://www.gronlandstorg.no/"}}, {"type": "node", "id": 3650497112, "lat": 59.9135263, "lon": 10.7660293, "tags": {"name": "Kj\u00f8tthallen Halal", "shop": "butcher"}}, {"type": "node", "id": 3975976561, "lat": 60.3890201, "lon": 5.331867, "tags": {"level": "0", "name": "Birkeland Vilt og Spekemat", "shop": "butcher"}}, {"type": "node", "id": 4553927090, "lat": 60.3175684, "lon": 5.3541065, "tags": {"level": "0", "name": "Bergen kj\u00f8tt", "shop": "butcher"}}, {"type": "node", "id": 5018814475, "lat": 63.8725059, "lon": 11.2962148, "tags": {"description": "Local Butcher shop.", "name": "Inder\u00f8y Slakteri", "shop": "butcher"}}, {"type": "node", "id": 5091617748, "lat": 59.9194216, "lon": 10.7623068, "tags": {"name": "Makwans", "phone": "22371694", "shop": "butcher"}}, {"type": "node", "id": 5094785591, "lat": 59.9141631, "lon": 10.7548457, "tags": {"name": "Verona kj\u00f8tt", "shop": "butcher"}}, {"type": "node", "id": 5592979339, "lat": 59.9132123, "lon": 10.7604273, "tags": {"name": "Lille Svinesund", "shop": "butcher", "wheelchair": "yes"}}, {"type": "node", "id": 5726566237, "lat": 59.9522443, "lon": 11.0461291, "tags": {"URL": "https://rosenbergspiseforretning.wordpress.com/", "addr:city": "Lillestr\u00f8m", "addr:housenumber": "8", "addr:postcode": "2004", "addr:street": "Kanalveien", "name": "Rosenberg spiseforretning", "operator": "Rosenberg spiseforretning AS", "shop": "butcher"}}, {"type": "node", "id": 5826884248, "lat": 70.6710363, "lon": 23.6678677, "tags": {"name": "Finnmark Kj\u00f8tt", "shop": "butcher"}}, {"type": "node", "id": 6047622840, "lat": 58.7782815, "lon": 5.628338, "tags": {"name": "Haaland", "shop": "butcher"}}, {"type": "node", "id": 6406980334, "lat": 62.4713435, "lon": 6.1591755, "tags": {"name": "Hole kj\u00f8tt", "shop": "butcher"}}, {"type": "node", "id": 6435299777, "lat": 59.4162731, "lon": 10.6758007, "tags": {"name": "Ertnes", "shop": "butcher"}}, {"type": "node", "id": 6435302296, "lat": 59.4341398, "lon": 10.6510171, "tags": {"name": "Ertnes", "shop": "butcher"}}, {"type": "node", "id": 1611902619, "lat": 58.4615177, "lon": 8.7642596, "tags": {"addr:city": "Arendal", "addr:country": "NO", "addr:housenumber": "1", "addr:postcode": "4836", "addr:street": "Torvgaten", "name": "Heimdal Chokolade", "shop": "deli", "website": "www.heimdalchokolade.no"}}, {"type": "node", "id": 2192631867, "lat": 59.9268666, "lon": 10.72882, "tags": {"addr:housenumber": "75C", "addr:postcode": "0354", "addr:street": "Pilestredet", "amenity": "cafe", "cuisine": "italian", "name": "Lille Oliven", "shop": "deli", "wheelchair": "yes"}}, {"type": "node", "id": 2260257955, "lat": 58.9704064, "lon": 5.7375999, "tags": {"amenity": "fast_food", "cuisine": "asian", "name": "Norvina", "shop": "deli"}}, {"type": "node", "id": 2353074026, "lat": 59.9291775, "lon": 10.7329913, "tags": {"addr:city": "Oslo", "addr:housenumber": "20", "addr:postcode": "0168", "addr:street": "Thereses gate", "name": "De Fire Store", "phone": "+47 22462209", "shop": "deli", "website": "http://www.defirestore.no/"}}, {"type": "node", "id": 2495118554, "lat": 58.0255746, "lon": 7.4727429, "tags": {"name": "N\u00f8dings", "opening_hours": "Mo-Fr 08:00-16:00; Sa 09:00-14:00", "shop": "deli"}}, {"type": "node", "id": 2790353191, "lat": 69.6493772, "lon": 18.9553472, "tags": {"name": "Helmersen Delikatesse", "shop": "deli", "source": "local knowledge", "toilets:wheelchair": "yes", "wheelchair": "yes"}}, {"type": "node", "id": 3934152266, "lat": 60.3950101, "lon": 5.3215167, "tags": {"addr:city": "Bergen", "addr:floor": "0", "addr:housenumber": "18", "addr:postcode": "5013", "addr:street": "Strandkaien", "email": "post@kvammekolonial.no", "name": "Kvamme - Kolonial & Fetevare", "phone": "+47 55231425", "shop": "deli", "website": "http://www.kvammekolonial.no/", "wheelchair": "yes"}}, {"type": "node", "id": 3946150089, "lat": 60.3927538, "lon": 5.3252445, "tags": {"level": "0", "name": "Olivenlunden 1830", "opening_hours": "Mo-Fr 09:00-21:00; Sa 09:00-18:00", "shop": "deli"}}, {"type": "node", "id": 4275400818, "lat": 60.3945912, "lon": 5.3239219, "tags": {"addr:city": "Bergen", "addr:housenumber": "3", "addr:postcode": "5013", "addr:street": "Strandkaien", "amenity": "restaurant", "fixme": "Sjekk om \u00e5pningstidene er sesongbaserte", "level": "0", "name": "Lokalt og lekkert", "opening_hours": "Mo-Su 08:00-23:00", "outdoor_seating": "yes", "phone": "+47 98905555", "shop": "deli", "website": "https://www.lokaltoglekkert.no/"}}, {"type": "node", "id": 4394593825, "lat": 62.5933814, "lon": 9.6875781, "tags": {"name": "Smak & Behag", "shop": "deli"}}, {"type": "node", "id": 4510195461, "lat": 59.9116176, "lon": 10.7351722, "tags": {"addr:housenumber": "12", "addr:street": "Tordenskiolds gate", "description": "Norsk tradisjonsmat", "name": "Fenaknoken", "opening_hours": "Mo-Fr 10:00-17:00; Sa 10:00-16:00", "phone": "+47 22 42 34 57", "shop": "deli", "website": "http://fenaknoken.no/"}}, {"type": "node", "id": 4553924696, "lat": 60.3185788, "lon": 5.3538646, "tags": {"level": "0", "name": "Litler\u00e9/Mat", "organic": "yes", "shop": "deli"}}, {"type": "node", "id": 4698048813, "lat": 63.4434071, "lon": 10.4464673, "tags": {"level": "0", "name": "Sweet Heaven", "opening_hours": "Mo-Fr 09:00-21:00; Sa 09:00-20:00", "shop": "deli"}}, {"type": "node", "id": 4729082664, "lat": 60.3804795, "lon": 5.352476, "tags": {"addr:city": "Bergen", "addr:housenumber": "68", "addr:postcode": "5009", "addr:street": "M\u00f8llendalsveien", "amenity": "cafe", "name": "M\u00f8llendal Fetevare", "opening_hours": "Tu-Fr 10:00-17:00; Sa-Su 11:00-16:00", "phone": "+47 930 67 727", "shop": "deli", "website": "mollendalfetevare.no"}}, {"type": "node", "id": 5212169898, "lat": 59.9191084, "lon": 10.7188856, "tags": {"name": "Flaneur Food", "shop": "deli"}}, {"type": "node", "id": 5226713121, "lat": 60.3950208, "lon": 5.3214812, "tags": {"addr:city": "Bergen", "addr:housenumber": "18", "addr:postcode": "5013", "addr:street": "Strandkaien", "name": "Strandkaien Fisk", "opening_hours": "Mo-Fr 07:30-18:00; Sa 09:00-16:00", "phone": "+47 55 23 07 30", "shop": "deli", "website": "http://strandkaienfisk.no/", "wheelchair": "yes"}}, {"type": "node", "id": 5272461256, "lat": 58.0947117, "lon": 6.8034513, "tags": {"name": "Hervolls Kolonial", "shop": "deli"}}, {"type": "node", "id": 5487222045, "lat": 59.4164099, "lon": 10.4849477, "tags": {"amenity": "restaurant", "name": "Holes Delikatesse", "shop": "deli"}}, {"type": "node", "id": 5589159934, "lat": 60.5471811, "lon": 5.2867284, "tags": {"name": "Kulinaris", "shop": "deli"}}, {"type": "node", "id": 5824785712, "lat": 59.213765, "lon": 10.9375164, "tags": {"name": "Delizie Italiane", "shop": "deli"}}, {"type": "node", "id": 5856412667, "lat": 69.0916151, "lon": 17.6944628, "tags": {"name": "Dyr\u00f8y mat", "opening_hours": "Mo-Th 09:30-17:00; Fr 09:30-18:00; Sa 09:30-15:00", "shop": "deli", "website": "http://www.dyroymat.no/"}}, {"type": "node", "id": 6124898960, "lat": 61.166467, "lon": 10.4004968, "tags": {"contact:facebook": "https://www.facebook.com/agrossist/", "diet:gluten_free": "yes", "diet:lactose_free": "yes", "email": "post@agrossist.no", "name": "Agrossist", "opening_hours": "Mo-Sa 10:00-15:00; We-Fr 10:00-17:00", "opening_hours:url": "https://agrossist.no/kontakt/", "operator": "Agrossist AS", "organic": "yes", "shop": "deli", "website": "https://agrossist.no", "wheelchair": "yes"}}, {"type": "node", "id": 6341587401, "lat": 59.9226141, "lon": 10.7511146, "tags": {"name": "Smak av Italia", "opening_hours": "Mo-We 11:00-19:00; Th-Fr 11:00-20:00; Sa 10:00-18:00; Su 12:00-17:00", "shop": "deli"}}, {"type": "node", "id": 1877857604, "lat": 68.253935, "lon": 13.6460943, "tags": {"name": "G\u00e5rdsysteri", "opening_hours": "10:00-21:00", "phone": "+47 76 08 96 31", "shop": "cheese", "website": "https://www.lofoten-gardsysteri.no/"}}, {"type": "node", "id": 1944600088, "lat": 59.928886, "lon": 10.717578, "tags": {"addr:city": "Oslo", "addr:housenumber": "9", "addr:postcode": "0366", "addr:street": "Valkyriegata", "contact:email": "post@fromagerie.no", "contact:facebook": "https://www.facebook.com/pages/FROMAGERIE/153140186523", "contact:phone": "+47 22601995", "contact:twitter": "@FromagerieOslo", "contact:website": "http://www.fromagerie.no", "name": "Fromagerie", "opening_hours": "Mo-Fr 10:00-18:00; Sa 10:00-17:00", "shop": "cheese", "wheelchair": "yes"}}, {"type": "node", "id": 5106116009, "lat": 62.9703762, "lon": 8.2482955, "tags": {"name": "Tingvollost", "shop": "cheese"}}, {"type": "node", "id": 596354455, "lat": 60.6518668, "lon": 6.4377488, "tags": {"name": "Den Gr\u00f8ne Butikken", "opening_hours": "Th-Fr 13:00-19:00; Sa 11:00-16:00", "shop": "farm", "website": "http://dengronebutikken.no/"}}, {"type": "node", "id": 801624114, "lat": 62.3888689, "lon": 10.4321445, "tags": {"description": "Sells ecologial free-range eggs (confirmed 2010)", "shop": "farm"}}, {"type": "node", "id": 831362551, "lat": 59.0445691, "lon": 10.1821012, "tags": {"description": "Sells tomatos and cucumbers in the summer months. Self-service", "shop": "farm"}}, {"type": "node", "id": 831363368, "lat": 63.5231471, "lon": 9.948774, "tags": {"name": "Heggli Urtehage", "organic": "yes", "shop": "farm", "website": "http://www.heggliurtehage.no/"}}, {"type": "node", "id": 836293273, "lat": 59.209302, "lon": 11.1165007, "tags": {"note:no": "G\u00e5rdsbutikk", "shop": "farm"}}, {"type": "node", "id": 1313162937, "lat": 60.756888, "lon": 11.5554347, "tags": {"description:en": "sells meat products and 30 flavors of icecream", "name": "Bakken \u00d8vre G\u00e5rdsmat", "phone": "+4762594805", "shop": "farm", "website": "http://www.bakkenovre.com/"}}, {"type": "node", "id": 1668803314, "lat": 59.6516471, "lon": 10.6930613, "tags": {"description:no": "G\u00e5rdsbutikk.", "name": "Den Blinde Ku", "shop": "farm"}}, {"type": "node", "id": 1834790140, "lat": 62.1211557, "lon": 8.7951774, "tags": {"name": "Avdem g\u00e5rdsysteri", "produce": "cheese", "shop": "farm", "website": "https://www.avdem.no/"}}, {"type": "node", "id": 1852898210, "lat": 59.5643304, "lon": 10.4636349, "tags": {"name": "Sand g\u00e5rd", "shop": "farm"}}, {"type": "node", "id": 1884908429, "lat": 58.0965081, "lon": 6.6802279, "tags": {"fixme": "Opening hours, produce ...", "name": "Skeime G\u00e5rdsutsalg", "produce": "egg; vegetables", "shop": "farm"}}, {"type": "node", "id": 2017935653, "lat": 59.7757076, "lon": 10.6889203, "tags": {"fixme": "verify classification", "name": "Hasle G\u00e5rdsbutikk", "shop": "farm"}}, {"type": "node", "id": 2058231608, "lat": 59.850257, "lon": 10.4121712, "tags": {"shop": "farm"}}, {"type": "node", "id": 2213628635, "lat": 63.7375546, "lon": 11.2806747, "tags": {"name": "Felleskj\u00f8pet", "shop": "farm"}}, {"type": "node", "id": 2412997030, "lat": 60.5752497, "lon": 6.9391937, "tags": {"cuisine": "apple", "name": "Ulvik frukt & cideri", "shop": "farm"}}, {"type": "node", "id": 2627008955, "lat": 61.3047393, "lon": 7.2141666, "tags": {"name": "A-K Hillestad traktorservice", "shop": "farm"}}, {"type": "node", "id": 3319204476, "lat": 69.0751398, "lon": 23.2057329, "tags": {"shop": "farm"}}, {"type": "node", "id": 3791139330, "lat": 60.2583585, "lon": 10.4276265, "tags": {"shop": "farm"}}, {"type": "node", "id": 4348427927, "lat": 60.5307238, "lon": 6.734827, "tags": {"name": "Kjerland Gardsbutikk", "opening_hours": "Mo-Fr 10:00-17:00; Sa 10:00-14:00", "shop": "farm"}}, {"type": "node", "id": 4449414417, "lat": 65.3950247, "lon": 12.2689747, "tags": {"name": "Arnes Gard. S\u00f8mna", "shop": "farm"}}, {"type": "node", "id": 5008196787, "lat": 64.9425015, "lon": 13.582636, "tags": {"addr:city": "Limingen", "addr:housenumber": "735", "addr:street": "Namsvassveien", "description": "cheese dairy", "name": "Sk\u00e5naliseter g\u00e5rdsysteri", "shop": "farm", "website": "http://www.skanaliseter.no/"}}, {"type": "node", "id": 5307616518, "lat": 58.2445665, "lon": 7.1867139, "tags": {"name": "Kv\u00e5s G\u00e5rdsutsalg", "opening_hours": "10:00-20:00", "shop": "farm"}}, {"type": "node", "id": 5307617514, "lat": 58.3051237, "lon": 7.8166253, "tags": {"name": "Nabostua g\u00e5rdsmat | h\u00e5ndverk", "opening_hours": "10:00-20:00", "shop": "farm"}}, {"type": "node", "id": 6164379532, "lat": 59.6059064, "lon": 10.2007846, "tags": {"addr:city": "Sande", "addr:housenumber": "43", "addr:postcode": "3070", "addr:street": "Gallebergveien", "name": "Veierud G\u00e5rdsbutikk", "operator": "Veierud G\u00e5rd", "shop": "farm"}}, {"type": "node", "id": 3034226468, "lat": 59.1213125, "lon": 11.381406, "tags": {"name": "Wayne's", "shop": "coffee"}}, {"type": "node", "id": 3110613446, "lat": 60.1452558, "lon": 11.1834022, "tags": {"addr:city": "Jessheim", "addr:housenumber": "4", "addr:postcode": "2069", "addr:street": "Industrivegen", "email": "post.jessheim@inventumkjeden.no", "name": "Inventum", "phone": "+47 63 97 06 60", "shop": "coffee", "website": "https://www.inventumkjeden.no/romerike/"}}, {"type": "node", "id": 3316969561, "lat": 59.214859, "lon": 10.9333427, "tags": {"amenity": "cafe", "name": "Hefels Cafe & Catering", "shop": "coffee", "source:name": "survey"}}, {"type": "node", "id": 3384011397, "lat": 59.9267638, "lon": 10.6508365, "tags": {"internet_access": "wlan", "internet_access:fee": "no", "name": "Wayne's coffee", "opening_hours": "Mo-Fr 09:00-16:00", "shop": "coffee", "website": "https://www.waynescoffee.no/kafeer/oslo/kafe-silurveien.aspx"}}, {"type": "node", "id": 3778445894, "lat": 59.7499929, "lon": 10.0112884, "tags": {"name": "Delish caf'e", "shop": "coffee"}}, {"type": "node", "id": 3946005949, "lat": 60.393346, "lon": 5.3251681, "tags": {"level": "1", "name": "Nespresso", "shop": "coffee"}}, {"type": "node", "id": 4185306443, "lat": 58.096446, "lon": 6.8053113, "tags": {"name": "Hey Honey", "shop": "coffee"}}, {"type": "node", "id": 5452052605, "lat": 69.0650676, "lon": 18.5138995, "tags": {"coffee": "yes", "name": "Kaffem\u00f8ya AS", "opening_hours": "Mo-Fr 09:00-18:00; Sa 10:00-16:00, Su 13:00-17:00", "shop": "coffee"}}, {"type": "node", "id": 287776654, "lat": 60.3190294, "lon": 5.3534214, "tags": {"name": "Hamada matbutikk", "shop": "greengrocer"}}, {"type": "node", "id": 899698224, "lat": 58.9808914, "lon": 5.6910899, "tags": {"name": "Frukt og gr\u00f8ntbutikken", "shop": "greengrocer"}}, {"type": "node", "id": 937100903, "lat": 58.808315, "lon": 5.692992, "tags": {"name": "Skj\u00e6veland gardsutsalg", "opening_hours": "Mo-Fr 09:00-20:00; Sa 10:00-18:00; Su 11:00-19:00", "shop": "greengrocer"}}, {"type": "node", "id": 1199008345, "lat": 59.9264368, "lon": 10.7759539, "tags": {"name": "Basilico", "shop": "greengrocer"}}, {"type": "node", "id": 1215970477, "lat": 59.9130324, "lon": 10.7652544, "tags": {"name": "Nordbygata dagligvarer", "shop": "greengrocer"}}, {"type": "node", "id": 1282221005, "lat": 59.8603552, "lon": 10.6656059, "tags": {"name": "Nesodden Frukt og Gr\u00f8nt", "shop": "greengrocer"}}, {"type": "node", "id": 1329411537, "lat": 59.9200291, "lon": 10.7575127, "tags": {"name": "Mevlana", "shop": "greengrocer"}}, {"type": "node", "id": 1376727141, "lat": 59.9432852, "lon": 10.6998485, "tags": {"name": "Gulden", "shop": "greengrocer"}}, {"type": "node", "id": 1473001784, "lat": 66.2336369, "lon": 12.9352907, "tags": {"name": "Organic Handnesgard", "shop": "greengrocer"}}, {"type": "node", "id": 1637613257, "lat": 59.8349372, "lon": 10.7947907, "tags": {"level": "1", "name": "Holmlia Frukt og Gr\u00f8nt", "opening_hours": "Mo-Sa 09:00-20:00", "shop": "greengrocer"}}, {"type": "node", "id": 1664784103, "lat": 59.9325803, "lon": 10.8818419, "tags": {"name": "bazaar", "opening_hours": "Mo-Sa 09:00-20:00; Su 11:00-18:00", "shop": "greengrocer"}}, {"type": "node", "id": 1749088463, "lat": 59.912588, "lon": 10.759018, "tags": {"addr:city": "Oslo", "addr:housenumber": "2", "addr:postcode": "0188", "addr:street": "Smalgangen", "name": "Gr\u00f8nland Import frukt og gr\u00f8nt", "phone": "+4722170492", "shop": "greengrocer"}}, {"type": "node", "id": 2110528993, "lat": 59.9380325, "lon": 10.7547573, "tags": {"name": "Sagene Torg", "opening_hours": "Mo-Su 09:00-19:00", "shop": "greengrocer"}}, {"type": "node", "id": 2192475797, "lat": 59.922799, "lon": 10.739088, "tags": {"addr:housenumber": "1", "addr:postcode": "0170", "addr:street": "Hallings gate", "name": "Mathuset", "shop": "greengrocer"}}, {"type": "node", "id": 3012169466, "lat": 59.9182274, "lon": 10.7025422, "tags": {"addr:city": "Oslo", "addr:housenumber": "7", "addr:postcode": "0265", "addr:street": "Elisenbergveien", "name": "Skafferiet", "opening_hours": "10:00-22:00", "shop": "greengrocer"}}, {"type": "node", "id": 3012892756, "lat": 59.9460703, "lon": 11.0079455, "tags": {"name": "Frukt Kongen", "opening_hours": "Mo-Fr 09:00-21:00; Sa 10:00-20:00", "phone": "+47 63 81 17 16", "shop": "greengrocer"}}, {"type": "node", "id": 3013002874, "lat": 59.9200316, "lon": 10.7036501, "tags": {"addr:city": "Oslo", "addr:housenumber": "52", "addr:postcode": "0267", "addr:street": "Thomas Heftyes gate", "name": "Ege Frukt & Gr\u00f8nt", "shop": "greengrocer"}}, {"type": "node", "id": 3631770354, "lat": 59.2268477, "lon": 10.4068822, "tags": {"addr:city": "N\u00f8tter\u00f8y", "addr:housenumber": "213", "addr:postcode": "3140", "addr:street": "Kirkeveien", "building": "office", "name": "Asia Ha As / Lille Asia N\u00f8tter\u00f8y", "opening_hours": "Mo-Sa 09:00-19:00; Su 12:00-17:00", "shop": "greengrocer", "website": "http://www.lilleasia.info"}}, {"type": "node", "id": 3650497113, "lat": 59.9132334, "lon": 10.7653029, "tags": {"name": "Abah Import", "shop": "greengrocer"}}, {"type": "node", "id": 3655282221, "lat": 59.9125093, "lon": 10.7644966, "tags": {"name": "Batat import", "shop": "greengrocer"}}, {"type": "node", "id": 3666621787, "lat": 59.8476584, "lon": 10.8041906, "tags": {"name": "Istanbul", "shop": "greengrocer"}}, {"type": "node", "id": 3679328228, "lat": 59.947332, "lon": 11.0101946, "tags": {"name": "Eksotisk Mat", "phone": "+47 63 813688", "shop": "greengrocer"}}, {"type": "node", "id": 3682978409, "lat": 59.962489, "lon": 10.922521, "tags": {"addr:city": "Oslo", "addr:housenumber": "60", "addr:postcode": "0988", "addr:street": "Fossumveien", "name": "Sultan marked", "shop": "greengrocer"}}, {"type": "node", "id": 3768066726, "lat": 59.9613444, "lon": 10.8819687, "tags": {"name": "Bazaar", "shop": "greengrocer"}}, {"type": "node", "id": 4382649663, "lat": 60.2786715, "lon": 11.1777016, "tags": {"email": "raholt@bazaar.as", "name": "Bazaar", "phone": "+4794053169", "shop": "greengrocer", "website": "http://www.bazaar.as/index.php?view=kontakt"}}, {"type": "node", "id": 4589703068, "lat": 59.9143284, "lon": 10.7633309, "tags": {"addr:city": "Oslo", "addr:housenumber": "15", "addr:postcode": "0187", "addr:street": "Norbygata", "name": "Nye pakstar", "shop": "greengrocer"}}, {"type": "node", "id": 4715648889, "lat": 62.3230905, "lon": 7.3143614, "tags": {"addr:housenumber": "22", "addr:postcode": "6210", "addr:street": "Valldalsbrauta", "email": "post@storstova.no", "name": "Storstova - jordb\u00e6r og poteter", "name:en": "Storstova - jordb\u00e6r og poteter", "opening_hours": "Mo-Su 07:00-00:00", "phone": "70259499", "shop": "greengrocer", "website": "http://storstova.no"}}, {"type": "node", "id": 4991279859, "lat": 58.3446257, "lon": 8.6291572, "tags": {"name": "Hesnes gartneri", "shop": "greengrocer"}}, {"type": "node", "id": 5046889946, "lat": 58.3385858, "lon": 8.5930215, "tags": {"shop": "greengrocer"}}, {"type": "node", "id": 5091617746, "lat": 59.919335, "lon": 10.7623554, "tags": {"name": "Vatan Detalj A/S", "shop": "greengrocer"}}, {"type": "node", "id": 5094785559, "lat": 59.9142165, "lon": 10.7545907, "tags": {"name": "A-Food Market", "shop": "greengrocer"}}, {"type": "node", "id": 5094785575, "lat": 59.9141893, "lon": 10.7547171, "tags": {"shop": "greengrocer"}}, {"type": "node", "id": 5099558121, "lat": 59.9377864, "lon": 10.7316625, "tags": {"name:en": "Jood dagligvare", "shop": "greengrocer"}}, {"type": "node", "id": 5490794227, "lat": 59.8970008, "lon": 10.8137467, "tags": {"name": "Manglerud Inter Mat", "opening_hours": "Mo-Fr 08:00-21:00, Sa 08:00-19:00, Su 10:00-19:00", "shop": "greengrocer", "wheelchair": "yes"}}, {"type": "node", "id": 5770482448, "lat": 58.134825, "lon": 6.6134368, "tags": {"name": "Penne \u00d8kologiske Hage", "shop": "greengrocer"}}, {"type": "node", "id": 5999314586, "lat": 60.8014035, "lon": 11.0843658, "tags": {"name": "Nye Gr\u00f8nt & godt", "shop": "greengrocer"}}, {"type": "node", "id": 6379363053, "lat": 59.8931612, "lon": 10.8416298, "tags": {"name": "Oppsal Torg", "opening_hours": "Mo-Fr 09:00-20:00,Sa 09:00-19:00,Su 10:00-19:00", "shop": "greengrocer"}}, {"type": "node", "id": 6548965286, "lat": 59.6417908, "lon": 9.659357, "tags": {"name:en": "Kiwi", "shop": "greengrocer"}}, {"type": "node", "id": 3214318857, "lat": 63.4320586, "lon": 10.3953747, "tags": {"addr:city": "Trondheim", "addr:housenumber": "28", "addr:postcode": "7011", "addr:street": "Dronningens gate", "name": "Te og Kaffehuset", "opening_hours": "Mo-We 10:00-17:00, Th,Fr 10:00-18:00, Sa 10:00-16:00", "phone": "+47 73 53 42 50", "shop": "tea", "website": "https://www.teogkaffehuset.no/"}}, {"type": "node", "id": 5865842659, "lat": 59.9092781, "lon": 10.7425501, "tags": {"shop": "tea"}}]}