{
  "version": 0.6,
  "generator": "Overpass API 0.7.55.7 8b86ff77",
  "osm3s": {
    "timestamp_osm_base": "2019-07-02T20:55:01Z",
    "timestamp_areas_base": "2019-07-02T20:11:02Z",
    "copyright": "The data included in this document is from www.openstreetmap.org. The data is made available under ODbL."
  },
  "elements": [
    {
      "type": "node",
      "id": 334970311,
      "lat": -43.513543,
      "lon": 172.6373377,
      "tags": {
        "name": "Peter Timbs Meats",
        "shop": "butcher",
        "wheelchair": "yes"
      }
    },
    {
      "type": "node",
      "id": 676281577,
      "lat": -43.5491117,
      "lon": 172.6373007,
      "tags": {
        "name": "Traiteur Express",
        "shop": "butcher"
      }
    },
    {
      "type": "node",
      "id": 721801601,
      "lat": -36.8535877,
      "lon": 174.7179625,
      "tags": {
        "description": "Organic prize winnng butchers",
        "name": "Westmere Butchers",
        "shop": "butcher"
      }
    },
    {
      "type": "node",
      "id": 1032456140,
      "lat": -40.9622851,
      "lon": 175.6254647,
      "tags": {
        "name": "Solway Butchery",
        "shop": "butcher"
      }
    },
    {
      "type": "node",
      "id": 1085308202,
      "lat": -41.5081875,
      "lon": 173.8251578,
      "tags": {
        "shop": "butcher"
      }
    },
    {
      "type": "node",
      "id": 1234236722,
      "lat": -36.8748318,
      "lon": 174.6310947,
      "tags": {
        "name": "Mad Butcher",
        "shop": "butcher"
      }
    },
    {
      "type": "node",
      "id": 1246437410,
      "lat": -37.7959065,
      "lon": 175.246011,
      "tags": {
        "shop": "butcher"
      }
    },
    {
      "type": "node",
      "id": 1263030593,
      "lat": -43.5669094,
      "lon": 172.6357171,
      "tags": {
        "addr:city": "Christchurch",
        "addr:housenumber": "18",
        "addr:postcode": "8022",
        "addr:street": "Colombo Street",
        "name": "Cashmere Cuisine",
        "shop": "butcher"
      }
    },
    {
      "type": "node",
      "id": 1278851289,
      "lat": -36.9497398,
      "lon": 174.9110698,
      "tags": {
        "name": "The Mad Butcher",
        "shop": "butcher"
      }
    },
    {
      "type": "node",
      "id": 1324506791,
      "lat": -39.482524,
      "lon": 176.8970586,
      "tags": {
        "addr:housenumber": "17",
        "addr:postcode": "4110",
        "addr:street": "Mahia Street",
        "name": "Gourmet Direct",
        "shop": "butcher",
        "website": "http://www.gourmetdirect.com/"
      }
    },
    {
      "type": "node",
      "id": 1458412339,
      "lat": -36.7946002,
      "lon": 174.7439128,
      "tags": {
        "name": "Mad Butcher",
        "shop": "butcher"
      }
    },
    {
      "type": "node",
      "id": 1619543748,
      "lat": -39.155923,
      "lon": 174.2075752,
      "tags": {
        "shop": "butcher"
      }
    },
    {
      "type": "node",
      "id": 1705234680,
      "lat": -36.8783611,
      "lon": 174.8546005,
      "tags": {
        "name": "Avons Butchery",
        "shop": "butcher"
      }
    },
    {
      "type": "node",
      "id": 1768285122,
      "lat": -41.0789589,
      "lon": 175.4621396,
      "tags": {
        "name": "Greytown Butchery",
        "shop": "butcher"
      }
    },
    {
      "type": "node",
      "id": 1796844256,
      "lat": -36.8826984,
      "lon": 174.9970375,
      "tags": {
        "name": "Wholesale Meats Direct",
        "shop": "butcher"
      }
    },
    {
      "type": "node",
      "id": 1894107095,
      "lat": -41.2890989,
      "lon": 174.7619619,
      "tags": {
        "name": "Cameron-Harrison Butchery & Deli",
        "shop": "butcher",
        "source": "knowledge",
        "website": "http://www.cameronharrison.co.nz"
      }
    },
    {
      "type": "node",
      "id": 2170754317,
      "lat": -41.2515342,
      "lon": 174.773182,
      "tags": {
        "addr:housenumber": "4A",
        "addr:postcode": "6035",
        "addr:street": "Ngaio",
        "name": "Cameron Harrison",
        "shop": "butcher"
      }
    },
    {
      "type": "node",
      "id": 2259661982,
      "lat": -41.2192139,
      "lon": 175.4582268,
      "tags": {
        "name": "Scotty's Meats",
        "shop": "butcher"
      }
    },
    {
      "type": "node",
      "id": 2297985280,
      "lat": -41.2649322,
      "lon": 173.2718329,
      "tags": {
        "name": "Gary's Butcher Shop",
        "shop": "butcher"
      }
    },
    {
      "type": "node",
      "id": 2308645761,
      "lat": -44.2608668,
      "lon": 171.1315079,
      "tags": {
        "name": "Export Meat Warehouse",
        "shop": "butcher"
      }
    },
    {
      "type": "node",
      "id": 2318062221,
      "lat": -37.7893515,
      "lon": 175.3076119,
      "tags": {
        "name": "Hill Crest Butcher",
        "shop": "butcher"
      }
    },
    {
      "type": "node",
      "id": 2365407380,
      "lat": -37.7828654,
      "lon": 175.2896783,
      "tags": {
        "addr:housenumber": "680",
        "addr:postcode": "3216",
        "addr:street": "Grey Street",
        "name": "Wholly Cow Butchery",
        "opening_hours": "Mo-Fr 07:00-17:30; Sa 07:00-12:30",
        "shop": "butcher",
        "source": "Survey"
      }
    },
    {
      "type": "node",
      "id": 2371617072,
      "lat": -37.2490284,
      "lon": 174.730581,
      "tags": {
        "name": "Waiuku Village Butchery",
        "shop": "butcher"
      }
    },
    {
      "type": "node",
      "id": 2393454110,
      "lat": -41.2103851,
      "lon": 174.9005114,
      "tags": {
        "addr:housenumber": "91",
        "addr:street": "High Street",
        "name": "The Mad Butcher",
        "shop": "butcher",
        "website": "https://madbutcher.kiwi/"
      }
    },
    {
      "type": "node",
      "id": 2464902690,
      "lat": -43.6404696,
      "lon": 172.4838519,
      "tags": {
        "shop": "butcher"
      }
    },
    {
      "type": "node",
      "id": 2520670401,
      "lat": -37.7689161,
      "lon": 175.3003255,
      "tags": {
        "addr:city": "Hamilton",
        "addr:housenumber": "97",
        "addr:street": "Fifth Avenue",
        "name": "Elite Meats",
        "shop": "butcher",
        "website": "https://www.elitemeats.co.nz/"
      }
    },
    {
      "type": "node",
      "id": 2520670405,
      "lat": -37.7692394,
      "lon": 175.300687,
      "tags": {
        "addr:city": "Hamilton",
        "addr:housenumber": "94",
        "addr:street": "Fifth Avenue",
        "butcher": "biltong",
        "name": "Safari Biltong",
        "opening_hours": "Mo-Fr 08:00-18:00; Sa 08:00-17:00",
        "shop": "butcher",
        "website": "https://safaribiltong.co.nz/"
      }
    },
    {
      "type": "node",
      "id": 2582171143,
      "lat": -41.3126751,
      "lon": 174.7796587,
      "tags": {
        "shop": "butcher"
      }
    },
    {
      "type": "node",
      "id": 2722316993,
      "lat": -43.5577878,
      "lon": 172.6374534,
      "tags": {
        "name": "Banfields of Beckenham Butcher",
        "shop": "butcher"
      }
    },
    {
      "type": "node",
      "id": 2834853351,
      "lat": -37.2004941,
      "lon": 174.9079325,
      "tags": {
        "name": "Mad Butcher",
        "shop": "butcher"
      }
    },
    {
      "type": "node",
      "id": 2879410952,
      "lat": -37.7508124,
      "lon": 175.2772376,
      "tags": {
        "name": "The Mad Butcher",
        "shop": "butcher"
      }
    },
    {
      "type": "node",
      "id": 2905268539,
      "lat": -37.2460442,
      "lon": 175.0221862,
      "tags": {
        "name": "Pokeno Bacon",
        "shop": "butcher"
      }
    },
    {
      "type": "node",
      "id": 2932430826,
      "lat": -37.7871202,
      "lon": 175.2656244,
      "tags": {
        "addr:housenumber": "118",
        "addr:street": "Commerce Street",
        "name": "Frankton Butchery",
        "shop": "butcher"
      }
    },
    {
      "type": "node",
      "id": 3045196061,
      "lat": -37.7312054,
      "lon": 175.2737099,
      "tags": {
        "addr:street": "Hukanui Road",
        "name": "The Honest Butchery",
        "shop": "butcher"
      }
    },
    {
      "type": "node",
      "id": 3062573691,
      "lat": -37.7725067,
      "lon": 175.2940278,
      "tags": {
        "addr:city": "Hamilton",
        "addr:street": "Fifth Avenue",
        "butcher": "halal",
        "name": "Firdaus Halal Meats",
        "shop": "butcher"
      }
    },
    {
      "type": "node",
      "id": 3062573693,
      "lat": -37.7728063,
      "lon": 175.2949243,
      "tags": {
        "addr:street": "Fifth Avenue",
        "addr:unit": "Shop 10",
        "name": "Five Cross Roads Butcher",
        "shop": "butcher"
      }
    },
    {
      "type": "node",
      "id": 3064479572,
      "lat": -37.7721394,
      "lon": 175.2931955,
      "tags": {
        "addr:city": "Hamilton",
        "addr:housenumber": "264",
        "addr:street": "Peachgrove Road",
        "name": "Export Meat Warehouse",
        "shop": "butcher",
        "website": "http://www.exportmeatwarehouse.co.nz/"
      }
    },
    {
      "type": "node",
      "id": 3277966959,
      "lat": -43.303167,
      "lon": 172.5958374,
      "tags": {
        "name": "Rangiora Fresh Meats",
        "shop": "butcher"
      }
    },
    {
      "type": "node",
      "id": 3369497848,
      "lat": -38.6844669,
      "lon": 176.095157,
      "tags": {
        "shop": "butcher"
      }
    },
    {
      "type": "node",
      "id": 3377407347,
      "lat": -43.5165339,
      "lon": 172.5718238,
      "tags": {
        "shop": "butcher"
      }
    },
    {
      "type": "node",
      "id": 3426389433,
      "lat": -38.0053353,
      "lon": 175.3108959,
      "tags": {
        "addr:housenumber": "1403",
        "addr:street": "Alexandra Street",
        "name": "Mac's Meats",
        "shop": "butcher"
      }
    },
    {
      "type": "node",
      "id": 3431101850,
      "lat": -36.77057,
      "lon": 174.7364893,
      "tags": {
        "name": "Butcher Jacks",
        "shop": "butcher"
      }
    },
    {
      "type": "node",
      "id": 3438700433,
      "lat": -37.8058062,
      "lon": 175.263139,
      "tags": {
        "addr:housenumber": "254",
        "addr:street": "Kahikatea Drive",
        "name": "The Mad Butcher",
        "shop": "butcher"
      }
    },
    {
      "type": "node",
      "id": 3440506713,
      "lat": -45.1304068,
      "lon": 170.1004856,
      "tags": {
        "name": "Foley & Jones Quality Butchers",
        "shop": "butcher"
      }
    },
    {
      "type": "node",
      "id": 3468160622,
      "lat": -45.4123307,
      "lon": 167.721012,
      "tags": {
        "name": "Butcher",
        "note": "The name of this place is just \"Butcher\"",
        "operator": "Fiordland Meat Wholesalers",
        "shop": "butcher"
      }
    },
    {
      "type": "node",
      "id": 3498919952,
      "lat": -38.0509854,
      "lon": 175.7800252,
      "tags": {
        "addr:housenumber": "8-10",
        "addr:street": "Main Street",
        "name": "Moos Baas & Oinks",
        "shop": "butcher"
      }
    },
    {
      "type": "node",
      "id": 3529982570,
      "lat": -37.8082462,
      "lon": 175.2873535,
      "tags": {
        "addr:housenumber": "7",
        "addr:street": "Bader Street",
        "name": "Bader Street Butchery",
        "shop": "butcher"
      }
    },
    {
      "type": "node",
      "id": 3694268775,
      "lat": -36.9424062,
      "lon": 174.8414165,
      "tags": {
        "name": "Kwality Halal meat Shop",
        "shop": "butcher"
      }
    },
    {
      "type": "node",
      "id": 3722101729,
      "lat": -36.9434756,
      "lon": 174.8451424,
      "tags": {
        "name": "Halal Shop inside",
        "note": "Halal for moslems but Beef not available to respect Hindus",
        "shop": "butcher"
      }
    },
    {
      "type": "node",
      "id": 3726691262,
      "lat": -36.9483133,
      "lon": 174.8456946,
      "tags": {
        "name": "Supercity - Halal meats Ltd",
        "shop": "butcher"
      }
    },
    {
      "type": "node",
      "id": 3740691905,
      "lat": -36.9202888,
      "lon": 174.7366683,
      "tags": {
        "addr:city": "Mt. Roskill",
        "addr:housenumber": "1482 B",
        "addr:street": "Dominion Road",
        "name": "Younus Halal Meat & Spices",
        "shop": "butcher"
      }
    },
    {
      "type": "node",
      "id": 3741925395,
      "lat": -41.2077574,
      "lon": 174.9062273,
      "tags": {
        "addr:city": "Lower Hutt, Wellington",
        "addr:housenumber": "280",
        "addr:postcode": "5010",
        "addr:street": "High Street",
        "name": "Kiwi Halal Meats Ltd",
        "shop": "butcher"
      }
    },
    {
      "type": "node",
      "id": 3841945307,
      "lat": -46.2423348,
      "lon": 169.7279704,
      "tags": {
        "addr:city": "Balclutha",
        "addr:housenumber": "188",
        "addr:postcode": "9230",
        "addr:street": "Clyde Street",
        "name": "Bottings Butchery Rosebank",
        "phone": "+64 3 418 1146",
        "shop": "butcher"
      }
    },
    {
      "type": "node",
      "id": 3936732709,
      "lat": -36.9131755,
      "lon": 174.6811763,
      "tags": {
        "name": "Aussie Butcher",
        "shop": "butcher"
      }
    },
    {
      "type": "node",
      "id": 4211941452,
      "lat": -37.6857604,
      "lon": 176.1695575,
      "tags": {
        "name": "Rotisserie Meats",
        "shop": "butcher"
      }
    },
    {
      "type": "node",
      "id": 4320509540,
      "lat": -36.7308566,
      "lon": 174.72416,
      "tags": {
        "name": "Mad Butcher",
        "shop": "butcher"
      }
    },
    {
      "type": "node",
      "id": 4392875889,
      "lat": -36.6229496,
      "lon": 174.6703319,
      "tags": {
        "name:en": "Sam's Butchery",
        "opening_hours": "Mo-Sa 07:00-18:00; Su 07:00-17:00",
        "shop": "butcher"
      }
    },
    {
      "type": "node",
      "id": 4443029592,
      "lat": -36.6146955,
      "lon": 174.6781252,
      "tags": {
        "addr:housenumber": "16",
        "addr:street": "Wainui Road",
        "name": "Mad Butcher",
        "shop": "butcher"
      }
    },
    {
      "type": "node",
      "id": 4556366394,
      "lat": -36.9326607,
      "lon": 174.9011284,
      "tags": {
        "addr:housenumber": "46",
        "addr:postcode": "2013",
        "addr:street": "Greenmount Drive",
        "name": "NZ Deli",
        "name:en": "NZ Deli",
        "phone": "+64 9 274 4160",
        "shop": "butcher",
        "website": "http://nzdeli.co.nz/"
      }
    },
    {
      "type": "node",
      "id": 4597564985,
      "lat": -36.8632523,
      "lon": 174.630223,
      "tags": {
        "name": "Mr Meats",
        "shop": "butcher"
      }
    },
    {
      "type": "node",
      "id": 4646787317,
      "lat": -39.925056,
      "lon": 175.0394821,
      "tags": {
        "name": "Butcher of Whanganui",
        "shop": "butcher"
      }
    },
    {
      "type": "node",
      "id": 4650800867,
      "lat": -39.9248966,
      "lon": 175.0467473,
      "tags": {
        "name": "Butchery",
        "shop": "butcher"
      }
    },
    {
      "type": "node",
      "id": 4655297883,
      "lat": -38.1439361,
      "lon": 176.25432,
      "tags": {
        "name": "Mad Butcher",
        "shop": "butcher"
      }
    },
    {
      "type": "node",
      "id": 4674100589,
      "lat": -43.5454601,
      "lon": 172.6219489,
      "tags": {
        "addr:housenumber": "372",
        "addr:street": "Selwyn Street",
        "name": "Everybody's Butchery",
        "shop": "butcher"
      }
    },
    {
      "type": "node",
      "id": 4735334846,
      "lat": -38.1485859,
      "lon": 176.2759151,
      "tags": {
        "addr:city": "Rotorua",
        "addr:country": "NZ",
        "addr:housenumber": "14/5",
        "addr:place": "Lynmore",
        "addr:postcode": "3010",
        "addr:street": "Tarawera Road",
        "email": "redwoodbutchery@gmail.com",
        "name": "Redwood Butchery",
        "opening_hours": "Mo-Fr 08:00-18:00; Sa 08:00-16:00; Su 09:00-15:00",
        "phone": "+64 7 562 5157",
        "shop": "butcher",
        "website": "https://de-de.facebook.com/Redwood-Butchery-939226922755504/"
      }
    },
    {
      "type": "node",
      "id": 4750209021,
      "lat": -41.2268658,
      "lon": 174.905328,
      "tags": {
        "name": "Hz halal",
        "name:en": "Hz halal",
        "shop": "butcher"
      }
    },
    {
      "type": "node",
      "id": 4770648821,
      "lat": -36.7934447,
      "lon": 174.6158881,
      "tags": {
        "name": "Whenuapai Meat Merchant",
        "name:en": "Whenuapai Meat Merchant",
        "shop": "butcher"
      }
    },
    {
      "type": "node",
      "id": 4772305785,
      "lat": -36.3974317,
      "lon": 174.6652969,
      "tags": {
        "shop": "butcher"
      }
    },
    {
      "type": "node",
      "id": 4777975527,
      "lat": -45.0371827,
      "lon": 169.1966554,
      "tags": {
        "name": "The fridge",
        "name:en": "The fridge",
        "shop": "butcher"
      }
    },
    {
      "type": "node",
      "id": 4855100403,
      "lat": -36.8553154,
      "lon": 174.6314724,
      "tags": {
        "name": "Crown Butcher",
        "shop": "butcher"
      }
    },
    {
      "type": "node",
      "id": 4956159234,
      "lat": -36.9084172,
      "lon": 174.7338222,
      "tags": {
        "name": "Mad Butcher",
        "shop": "butcher"
      }
    },
    {
      "type": "node",
      "id": 4956159298,
      "lat": -36.9040516,
      "lon": 174.7420795,
      "tags": {
        "addr:city": "Mt. Roskill",
        "addr:housenumber": "1274",
        "addr:postcode": "1041",
        "addr:street": "Dominion Road",
        "name": "Imam Halal Meats",
        "note": "http://imamhalalmeats.co.nz",
        "shop": "butcher"
      }
    },
    {
      "type": "node",
      "id": 4973224936,
      "lat": -37.78086,
      "lon": 175.2370308,
      "tags": {
        "name": "Wholesale Meats",
        "shop": "butcher"
      }
    },
    {
      "type": "node",
      "id": 4989764212,
      "lat": -36.8712576,
      "lon": 174.7992566,
      "tags": {
        "name": "Victoria Avenue Butcher",
        "shop": "butcher"
      }
    },
    {
      "type": "node",
      "id": 4994484190,
      "lat": -36.8561623,
      "lon": 174.8148499,
      "tags": {
        "name": "Coates Avenue Butcher",
        "shop": "butcher"
      }
    },
    {
      "type": "node",
      "id": 5013637473,
      "lat": -36.9782415,
      "lon": 174.8502535,
      "tags": {
        "name": "Pasifika Halal Meats",
        "shop": "butcher"
      }
    },
    {
      "type": "node",
      "id": 5015955253,
      "lat": -36.869394,
      "lon": 174.7135677,
      "tags": {
        "name": "Local Butcher",
        "shop": "butcher"
      }
    },
    {
      "type": "node",
      "id": 5029943774,
      "lat": -36.9437549,
      "lon": 174.8383998,
      "tags": {
        "name": "Get Fresh Halal Meats and Seafood",
        "shop": "butcher"
      }
    },
    {
      "type": "node",
      "id": 5030003397,
      "lat": -36.9710166,
      "lon": 174.8624996,
      "tags": {
        "name": "NZ Butcher",
        "shop": "butcher"
      }
    },
    {
      "type": "node",
      "id": 5031826987,
      "lat": -36.9167203,
      "lon": 174.7848883,
      "tags": {
        "name": "The Mad Butcher",
        "shop": "butcher"
      }
    },
    {
      "type": "node",
      "id": 5053006200,
      "lat": -37.0277135,
      "lon": 174.8873367,
      "tags": {
        "name": "Leabank Wholesale Meats",
        "shop": "butcher"
      }
    },
    {
      "type": "node",
      "id": 5053006580,
      "lat": -37.0329662,
      "lon": 174.8679021,
      "tags": {
        "name": "Mr. Meats",
        "shop": "butcher"
      }
    },
    {
      "type": "node",
      "id": 5053006604,
      "lat": -37.0301765,
      "lon": 174.8677337,
      "tags": {
        "name": "Mr. Meats",
        "shop": "butcher"
      }
    },
    {
      "type": "node",
      "id": 5053006628,
      "lat": -37.0209662,
      "lon": 174.8645285,
      "tags": {
        "name": "Burbank Wholesale Meats",
        "shop": "butcher"
      }
    },
    {
      "type": "node",
      "id": 5053098743,
      "lat": -37.0215697,
      "lon": 174.8947739,
      "tags": {
        "name": "NZ Wholesale Meats",
        "shop": "butcher"
      }
    },
    {
      "type": "node",
      "id": 5057172416,
      "lat": -36.728804,
      "lon": 174.7308218,
      "tags": {
        "name": "Pinehill Butchery",
        "shop": "butcher"
      }
    },
    {
      "type": "node",
      "id": 5057312414,
      "lat": -36.7158805,
      "lon": 174.7463322,
      "tags": {
        "name": "Seoul Butchery",
        "shop": "butcher"
      }
    },
    {
      "type": "node",
      "id": 5057312531,
      "lat": -36.7171571,
      "lon": 174.7465819,
      "tags": {
        "name": "The Meat Room",
        "shop": "butcher"
      }
    },
    {
      "type": "node",
      "id": 5074627521,
      "lat": -43.5087384,
      "lon": 172.6522953,
      "tags": {
        "addr:city": "Christchurch",
        "addr:housenumber": "202",
        "addr:postcode": "8013",
        "addr:street": "Hills Road",
        "name": "Mad Butcher Shirley",
        "shop": "butcher"
      }
    },
    {
      "type": "node",
      "id": 5077967160,
      "lat": -36.8798394,
      "lon": 174.8559047,
      "tags": {
        "name": "Mad Butcher",
        "shop": "butcher"
      }
    },
    {
      "type": "node",
      "id": 5116574085,
      "lat": -36.8435163,
      "lon": 174.6523223,
      "tags": {
        "name": "Te Atatu Butcher",
        "shop": "butcher"
      }
    },
    {
      "type": "node",
      "id": 5129378095,
      "lat": -45.1056472,
      "lon": 170.9631041,
      "tags": {
        "addr:city": "Oamaru",
        "addr:country": "NZ",
        "addr:housenumber": "32",
        "addr:postcode": "9400",
        "addr:street": "Arun Street",
        "name": "Danny's Butchery",
        "opening_hours": "08:30-17:00",
        "shop": "butcher",
        "wheelchair": "yes"
      }
    },
    {
      "type": "node",
      "id": 5141828288,
      "lat": -36.9117212,
      "lon": 174.652327,
      "tags": {
        "name": "The Mad Butcher",
        "shop": "butcher"
      }
    },
    {
      "type": "node",
      "id": 5151111357,
      "lat": -36.9419035,
      "lon": 174.786709,
      "tags": {
        "name": "Village Butchery",
        "shop": "butcher"
      }
    },
    {
      "type": "node",
      "id": 5151218331,
      "lat": -36.9607672,
      "lon": 174.8317051,
      "tags": {
        "name": "Meat",
        "shop": "butcher"
      }
    },
    {
      "type": "node",
      "id": 5166973934,
      "lat": -36.9718265,
      "lon": 174.7786712,
      "tags": {
        "name": "Just Meat",
        "shop": "butcher"
      }
    },
    {
      "type": "node",
      "id": 5167028351,
      "lat": -36.9686838,
      "lon": 174.8130866,
      "tags": {
        "name": "Faiva Whole Body Meats",
        "shop": "butcher"
      }
    },
    {
      "type": "node",
      "id": 5179400883,
      "lat": -37.8207536,
      "lon": 175.7709208,
      "tags": {
        "name": "Matamata Butchery",
        "shop": "butcher"
      }
    },
    {
      "type": "node",
      "id": 5179400902,
      "lat": -38.0514165,
      "lon": 175.7792206,
      "tags": {
        "name": "Putaruru Meat Shop",
        "shop": "butcher"
      }
    },
    {
      "type": "node",
      "id": 5211675402,
      "lat": -36.7411477,
      "lon": 174.7119404,
      "tags": {
        "name": "Mr. K Butcher and BBQ",
        "shop": "butcher"
      }
    },
    {
      "type": "node",
      "id": 5227247122,
      "lat": -35.9847622,
      "lon": 174.4461062,
      "tags": {
        "name": "Waipu Butchery",
        "shop": "butcher"
      }
    },
    {
      "type": "node",
      "id": 5238940933,
      "lat": -41.8008583,
      "lon": 172.3253086,
      "tags": {
        "name": "Murchison Meats",
        "shop": "butcher"
      }
    },
    {
      "type": "node",
      "id": 5257280807,
      "lat": -36.7596449,
      "lon": 175.4975353,
      "tags": {
        "name": "Coromandel Meatkeeper",
        "shop": "butcher"
      }
    },
    {
      "type": "node",
      "id": 5291156251,
      "lat": -37.0496388,
      "lon": 174.929646,
      "tags": {
        "name": "Mad Butcher",
        "shop": "butcher"
      }
    },
    {
      "type": "node",
      "id": 5308137919,
      "lat": -38.1853327,
      "lon": 175.2120598,
      "tags": {
        "name": "Otorohanga Butchery",
        "shop": "butcher"
      }
    },
    {
      "type": "node",
      "id": 5340052833,
      "lat": -36.9607439,
      "lon": 174.8741008,
      "tags": {
        "name": "Mr. Meats",
        "shop": "butcher"
      }
    },
    {
      "type": "node",
      "id": 5340052864,
      "lat": -36.957667,
      "lon": 174.8550256,
      "tags": {
        "name": "Mr. Meats",
        "shop": "butcher"
      }
    },
    {
      "type": "node",
      "id": 5369327387,
      "lat": -35.2272939,
      "lon": 173.9491599,
      "tags": {
        "name": "Churchills Fine Meats & Deli",
        "shop": "butcher"
      }
    },
    {
      "type": "node",
      "id": 5369834586,
      "lat": -37.5438862,
      "lon": 175.7126931,
      "tags": {
        "name": "Best Meats 2",
        "shop": "butcher"
      }
    },
    {
      "type": "node",
      "id": 5369876925,
      "lat": -37.3799594,
      "lon": 175.6697895,
      "tags": {
        "name": "Burtons Butchery",
        "shop": "butcher"
      }
    },
    {
      "type": "node",
      "id": 5374160962,
      "lat": -35.2099682,
      "lon": 173.9197446,
      "tags": {
        "name": "Churchills",
        "shop": "butcher"
      }
    },
    {
      "type": "node",
      "id": 5402380746,
      "lat": -41.2608756,
      "lon": 174.9460047,
      "tags": {
        "addr:housenumber": "17",
        "addr:street": "Queen Street",
        "addr:suburb": "Wainuiomata",
        "name": "Creative Meats",
        "ref:linz:address_id": "1561425",
        "shop": "butcher"
      }
    },
    {
      "type": "node",
      "id": 5406621039,
      "lat": -37.1375527,
      "lon": 175.5417314,
      "tags": {
        "name": "Peninsula Prime Meats",
        "shop": "butcher"
      }
    },
    {
      "type": "node",
      "id": 5421481028,
      "lat": -43.5302116,
      "lon": 172.6569313,
      "tags": {
        "level": "0",
        "name": "Hibbards",
        "opening_hours": "Mo 07:30-17:30; Tu-Fr 07:30-18:00; Sa 07:30-13:00",
        "shop": "butcher"
      }
    },
    {
      "type": "node",
      "id": 5427830128,
      "lat": -43.5495459,
      "lon": 172.6363128,
      "tags": {
        "addr:city": "Christchurch",
        "addr:housenumber": "303",
        "addr:postcode": "8023",
        "addr:street": "Colombo Street",
        "name": "Euro Gourmet Meats",
        "shop": "butcher"
      }
    },
    {
      "type": "node",
      "id": 5470266444,
      "lat": -38.6912656,
      "lon": 176.080842,
      "tags": {
        "name": "Lakeside Meats",
        "shop": "butcher"
      }
    },
    {
      "type": "node",
      "id": 5492905730,
      "lat": -38.2187412,
      "lon": 175.8695327,
      "tags": {
        "addr:city": "Tokoroa",
        "addr:street": "Bridge Street",
        "name": "Grazie Mighty Fine Meats",
        "shop": "butcher"
      }
    },
    {
      "type": "node",
      "id": 5722770961,
      "lat": -38.1340123,
      "lon": 176.2948662,
      "tags": {
        "name": "Mad Butcher",
        "shop": "butcher"
      }
    },
    {
      "type": "node",
      "id": 5913292095,
      "lat": -36.8120159,
      "lon": 174.7256759,
      "tags": {
        "name": "Highbury Butcher",
        "shop": "butcher",
        "website": "https://www.highburybutcher.co.nz/"
      }
    },
    {
      "type": "node",
      "id": 5984354713,
      "lat": -37.0616105,
      "lon": 174.9590128,
      "tags": {
        "name": "Kelvin Meats",
        "shop": "butcher"
      }
    },
    {
      "type": "node",
      "id": 6035988458,
      "lat": -38.0806245,
      "lon": 176.2132291,
      "tags": {
        "name": "Brakes Butchery",
        "shop": "butcher"
      }
    },
    {
      "type": "node",
      "id": 6152221564,
      "lat": -39.5838982,
      "lon": 176.9157858,
      "tags": {
        "name": "Clive Butchery",
        "shop": "butcher"
      }
    },
    {
      "type": "node",
      "id": 6162055284,
      "lat": -36.7725972,
      "lon": 174.7644169,
      "tags": {
        "name": "Well Hung Butchery",
        "shop": "butcher"
      }
    },
    {
      "type": "node",
      "id": 6176039009,
      "lat": -36.7968242,
      "lon": 174.7782366,
      "tags": {
        "name": "The Village Butcher",
        "shop": "butcher"
      }
    },
    {
      "type": "node",
      "id": 6262913632,
      "lat": -37.9758077,
      "lon": 176.8282096,
      "tags": {
        "addr:city": "Edgecumbe",
        "addr:housenumber": "9",
        "addr:street": "College Road",
        "name": "Rangitaiki Home Kills",
        "opening_hours": "Tu-Fr 08:15-17:30; Sa 08:30-14:00",
        "shop": "butcher",
        "website": "https://www.rangitaikihomekills.co.nz/"
      }
    },
    {
      "type": "node",
      "id": 6283743187,
      "lat": -37.6524584,
      "lon": 175.5233925,
      "tags": {
        "name": "Mootown Meats",
        "shop": "butcher"
      }
    },
    {
      "type": "node",
      "id": 6315306130,
      "lat": -36.922802,
      "lon": 174.7201748,
      "tags": {
        "name": "Madinah Halal Meats",
        "shop": "butcher"
      }
    },
    {
      "type": "node",
      "id": 6520290785,
      "lat": -41.1989098,
      "lon": 174.9475683,
      "tags": {
        "addr:housenumber": "24",
        "addr:postcode": "5011",
        "addr:street": "Hillary Court",
        "name": "Olympic butchery",
        "shop": "butcher"
      }
    },
    {
      "type": "way",
      "id": 35606390,
      "nodes": [
        417302823,
        417302824,
        417302825,
        4139647119,
        417302823
      ],
      "tags": {
        "name": "Export Meat Warehouse",
        "shop": "butcher"
      }
    },
    {
      "type": "way",
      "id": 74002314,
      "nodes": [
        875644246,
        875644247,
        875644250,
        3384019965,
        3384019966,
        875644253,
        3384019961,
        875644257,
        875644246
      ],
      "tags": {
        "building": "yes",
        "name": "Meat King",
        "shop": "butcher"
      }
    },
    {
      "type": "way",
      "id": 223614520,
      "nodes": [
        3683152093,
        2324962171,
        2324962168,
        3683152089,
        3683152091,
        3683152090,
        3683152093
      ],
      "tags": {
        "building": "yes",
        "name": "The Mad Butcher",
        "shop": "butcher"
      }
    },
    {
      "type": "way",
      "id": 240337599,
      "nodes": [
        2480844335,
        4937775861,
        4937775860,
        4937775859,
        2480844332,
        4937775858,
        4937775857,
        4937775856,
        4937775855,
        4937775854,
        2480844333,
        4937775853,
        4937775852,
        2480844338,
        2480844335
      ],
      "tags": {
        "building": "yes",
        "name": "La Boucherie du Village",
        "shop": "butcher"
      }
    },
    {
      "type": "way",
      "id": 251564110,
      "nodes": [
        2577680537,
        2577680540,
        2577680542,
        2577680544,
        2577680546,
        2577680537
      ],
      "tags": {
        "building": "yes",
        "name": "Preston's Butchery",
        "shop": "butcher"
      }
    },
    {
      "type": "way",
      "id": 333213329,
      "nodes": [
        3403300526,
        3403300529,
        3403300530,
        3403300527,
        3403300526
      ],
      "tags": {
        "building": "yes",
        "name": "Waikanae Butchery",
        "shop": "butcher"
      }
    },
    {
      "type": "way",
      "id": 354272084,
      "nodes": [
        3600186709,
        3600186724,
        3600186740,
        3600186723,
        3600186709
      ],
      "tags": {
        "addr:city": "Hamilton",
        "addr:housenumber": "991",
        "addr:street": "Heaphy Terrace",
        "building": "retail",
        "name": "Fairfield Wholesale Meats",
        "opening_hours": "Mo-Su 07:00-18:00",
        "shop": "butcher"
      }
    },
    {
      "type": "way",
      "id": 358187527,
      "nodes": [
        3631509384,
        3631509387,
        3631509389,
        3631509388,
        3631509386,
        3631509385,
        3631509384
      ],
      "tags": {
        "building": "yes",
        "name": "Steed's Butchery & Dairy",
        "shop": "butcher",
        "shop_1": "convenience",
        "source": "Bing"
      }
    },
    {
      "type": "way",
      "id": 369935162,
      "nodes": [
        3736716525,
        6292198953,
        3736716526,
        6292198954,
        6292198955,
        6292198957,
        6292198956,
        3848371542,
        3848371539,
        3736716527,
        6292198958,
        6292198959,
        3736716528,
        3736716525
      ],
      "tags": {
        "addr:city": "Dunedin",
        "addr:housenumber": "280",
        "addr:postcode": "9012",
        "addr:street": "Andersons Bay Road",
        "building": "yes",
        "name": "Mad Butcher",
        "shop": "butcher"
      }
    },
    {
      "type": "way",
      "id": 403842856,
      "nodes": [
        986384866,
        4061447968,
        4061447965,
        4061447967,
        4061447966,
        4061447974,
        986384866
      ],
      "tags": {
        "building:part": "retail",
        "name": "Redcliffs Butchery",
        "shop": "butcher"
      }
    },
    {
      "type": "way",
      "id": 408754255,
      "nodes": [
        4106716965,
        4106716963,
        4106716968,
        4106716969,
        4106716970,
        4106716971,
        4106716965
      ],
      "tags": {
        "building": "yes",
        "shop": "butcher"
      }
    },
    {
      "type": "way",
      "id": 430451931,
      "nodes": [
        4297250033,
        4297250030,
        4297250032,
        4297250028,
        4297250027,
        4297250026,
        4297250025,
        4297250031,
        4297250029,
        4297250034,
        4297250038,
        4297250036,
        4297250044,
        4297250033
      ],
      "tags": {
        "addr:housenumber": "114",
        "addr:street": "Vigor Brown Street",
        "building": "house",
        "height": "3.163",
        "name": "Mitchell's Butchery",
        "shop": "butcher"
      }
    },
    {
      "type": "way",
      "id": 430452183,
      "nodes": [
        4297254794,
        2977273936,
        4297254780,
        4297254816,
        4297254815,
        4297254863,
        4297254864,
        4297254898,
        4297254896,
        4297254967,
        4297254968,
        4297254891,
        4297254895,
        4297254794
      ],
      "tags": {
        "addr:housenumber": "45",
        "addr:street": "McGrath Street",
        "building": "retail",
        "height": "2.852",
        "name": "Downey's City Butchery",
        "shop": "butcher"
      }
    },
    {
      "type": "way",
      "id": 454976787,
      "nodes": [
        4514538055,
        3764690619,
        3764690623,
        4514538056,
        4514538055
      ],
      "tags": {
        "addr:housenumber": "294",
        "addr:street": "Gloucester Street",
        "building": "retail",
        "name": "Taradale Quality Meats",
        "shop": "butcher"
      }
    },
    {
      "type": "way",
      "id": 475700236,
      "nodes": [
        4695488227,
        4695488226,
        4694238275,
        4694238272,
        4695488227
      ],
      "tags": {
        "building": "yes",
        "name": "Mad Butchers",
        "shop": "butcher"
      }
    },
    {
      "type": "node",
      "id": 3736716525,
      "lat": -45.8911967,
      "lon": 170.5030249
    },
    {
      "type": "node",
      "id": 3736716526,
      "lat": -45.8911064,
      "lon": 170.5032702
    },
    {
      "type": "node",
      "id": 3736716527,
      "lat": -45.8906534,
      "lon": 170.5029181
    },
    {
      "type": "node",
      "id": 3736716528,
      "lat": -45.8906533,
      "lon": 170.5025351
    },
    {
      "type": "node",
      "id": 3848371539,
      "lat": -45.8908489,
      "lon": 170.503141
    },
    {
      "type": "node",
      "id": 3848371542,
      "lat": -45.8908822,
      "lon": 170.503069
    },
    {
      "type": "node",
      "id": 6292198953,
      "lat": -45.8912012,
      "lon": 170.503058
    },
    {
      "type": "node",
      "id": 6292198954,
      "lat": -45.8909244,
      "lon": 170.5031069
    },
    {
      "type": "node",
      "id": 6292198955,
      "lat": -45.8909401,
      "lon": 170.5030769
    },
    {
      "type": "node",
      "id": 6292198956,
      "lat": -45.8908873,
      "lon": 170.5030736
    },
    {
      "type": "node",
      "id": 6292198957,
      "lat": -45.8909029,
      "lon": 170.5030404
    },
    {
      "type": "node",
      "id": 6292198958,
      "lat": -45.8906189,
      "lon": 170.5029795
    },
    {
      "type": "node",
      "id": 6292198959,
      "lat": -45.8905057,
      "lon": 170.5028573
    },
    {
      "type": "node",
      "id": 417302823,
      "lat": -44.3957547,
      "lon": 171.2297183
    },
    {
      "type": "node",
      "id": 417302824,
      "lat": -44.3958853,
      "lon": 171.229722
    },
    {
      "type": "node",
      "id": 417302825,
      "lat": -44.3958876,
      "lon": 171.2295734
    },
    {
      "type": "node",
      "id": 4139647119,
      "lat": -44.3957587,
      "lon": 171.2295761
    },
    {
      "type": "node",
      "id": 4106716963,
      "lat": -43.2975781,
      "lon": 172.1928684
    },
    {
      "type": "node",
      "id": 4106716965,
      "lat": -43.2975982,
      "lon": 172.1927077
    },
    {
      "type": "node",
      "id": 4106716968,
      "lat": -43.2977401,
      "lon": 172.1929067
    },
    {
      "type": "node",
      "id": 4106716969,
      "lat": -43.2977458,
      "lon": 172.1928608
    },
    {
      "type": "node",
      "id": 4106716970,
      "lat": -43.2978002,
      "lon": 172.1928737
    },
    {
      "type": "node",
      "id": 4106716971,
      "lat": -43.2978146,
      "lon": 172.1927589
    },
    {
      "type": "node",
      "id": 4694238272,
      "lat": -43.5388483,
      "lon": 172.5885869
    },
    {
      "type": "node",
      "id": 4694238275,
      "lat": -43.5388319,
      "lon": 172.5887796
    },
    {
      "type": "node",
      "id": 4695488226,
      "lat": -43.5385825,
      "lon": 172.5887392
    },
    {
      "type": "node",
      "id": 4695488227,
      "lat": -43.538599,
      "lon": 172.5885465
    },
    {
      "type": "node",
      "id": 986384866,
      "lat": -43.5614738,
      "lon": 172.7384394
    },
    {
      "type": "node",
      "id": 4061447965,
      "lat": -43.5613747,
      "lon": 172.7385302
    },
    {
      "type": "node",
      "id": 4061447966,
      "lat": -43.5613782,
      "lon": 172.7385028
    },
    {
      "type": "node",
      "id": 4061447967,
      "lat": -43.5613863,
      "lon": 172.7385132
    },
    {
      "type": "node",
      "id": 4061447968,
      "lat": -43.5613943,
      "lon": 172.7385555
    },
    {
      "type": "node",
      "id": 4061447974,
      "lat": -43.5614458,
      "lon": 172.7384032
    },
    {
      "type": "node",
      "id": 2480844332,
      "lat": -43.804668,
      "lon": 172.9676208
    },
    {
      "type": "node",
      "id": 2480844333,
      "lat": -43.804701,
      "lon": 172.9678039
    },
    {
      "type": "node",
      "id": 2480844335,
      "lat": -43.8047949,
      "lon": 172.9675298
    },
    {
      "type": "node",
      "id": 2480844338,
      "lat": -43.8048413,
      "lon": 172.9676564
    },
    {
      "type": "node",
      "id": 4937775852,
      "lat": -43.8047817,
      "lon": 172.9676982
    },
    {
      "type": "node",
      "id": 4937775853,
      "lat": -43.804796,
      "lon": 172.9677371
    },
    {
      "type": "node",
      "id": 4937775854,
      "lat": -43.8047206,
      "lon": 172.9678572
    },
    {
      "type": "node",
      "id": 4937775855,
      "lat": -43.8046656,
      "lon": 172.9678959
    },
    {
      "type": "node",
      "id": 4937775856,
      "lat": -43.8046175,
      "lon": 172.9677645
    },
    {
      "type": "node",
      "id": 4937775857,
      "lat": -43.8046806,
      "lon": 172.9677202
    },
    {
      "type": "node",
      "id": 4937775858,
      "lat": -43.8046491,
      "lon": 172.9676341
    },
    {
      "type": "node",
      "id": 4937775859,
      "lat": -43.8046587,
      "lon": 172.9675956
    },
    {
      "type": "node",
      "id": 4937775860,
      "lat": -43.8047466,
      "lon": 172.9675338
    },
    {
      "type": "node",
      "id": 4937775861,
      "lat": -43.8047553,
      "lon": 172.9675576
    },
    {
      "type": "node",
      "id": 2577680537,
      "lat": -41.2992097,
      "lon": 174.7731927
    },
    {
      "type": "node",
      "id": 2577680540,
      "lat": -41.2993797,
      "lon": 174.7730966
    },
    {
      "type": "node",
      "id": 2577680542,
      "lat": -41.2995108,
      "lon": 174.7735498
    },
    {
      "type": "node",
      "id": 2577680544,
      "lat": -41.2994813,
      "lon": 174.7736421
    },
    {
      "type": "node",
      "id": 2577680546,
      "lat": -41.2993797,
      "lon": 174.7736975
    },
    {
      "type": "node",
      "id": 3403300526,
      "lat": -40.8776324,
      "lon": 175.0647959
    },
    {
      "type": "node",
      "id": 3403300527,
      "lat": -40.8775382,
      "lon": 175.0645211
    },
    {
      "type": "node",
      "id": 3403300529,
      "lat": -40.8775793,
      "lon": 175.0648277
    },
    {
      "type": "node",
      "id": 3403300530,
      "lat": -40.8774851,
      "lon": 175.064553
    },
    {
      "type": "node",
      "id": 3764690619,
      "lat": -39.5365448,
      "lon": 176.8483553
    },
    {
      "type": "node",
      "id": 3764690623,
      "lat": -39.5365842,
      "lon": 176.8485679
    },
    {
      "type": "node",
      "id": 4514538055,
      "lat": -39.5365989,
      "lon": 176.8483384
    },
    {
      "type": "node",
      "id": 4514538056,
      "lat": -39.5366383,
      "lon": 176.8485511
    },
    {
      "type": "node",
      "id": 4297250025,
      "lat": -39.5021932,
      "lon": 176.9100693
    },
    {
      "type": "node",
      "id": 4297250026,
      "lat": -39.5021944,
      "lon": 176.9100881
    },
    {
      "type": "node",
      "id": 4297250027,
      "lat": -39.5022257,
      "lon": 176.9101265
    },
    {
      "type": "node",
      "id": 4297250028,
      "lat": -39.5022524,
      "lon": 176.9100902
    },
    {
      "type": "node",
      "id": 4297250029,
      "lat": -39.5022719,
      "lon": 176.9099567
    },
    {
      "type": "node",
      "id": 4297250030,
      "lat": -39.502272,
      "lon": 176.9101306
    },
    {
      "type": "node",
      "id": 4297250031,
      "lat": -39.5022742,
      "lon": 176.9099595
    },
    {
      "type": "node",
      "id": 4297250032,
      "lat": -39.5022784,
      "lon": 176.9101222
    },
    {
      "type": "node",
      "id": 4297250033,
      "lat": -39.5023042,
      "lon": 176.9101701
    },
    {
      "type": "node",
      "id": 4297250034,
      "lat": -39.5023108,
      "lon": 176.9099039
    },
    {
      "type": "node",
      "id": 4297250036,
      "lat": -39.50233,
      "lon": 176.909983
    },
    {
      "type": "node",
      "id": 4297250038,
      "lat": -39.5023515,
      "lon": 176.9099539
    },
    {
      "type": "node",
      "id": 4297250044,
      "lat": -39.5023889,
      "lon": 176.9100553
    },
    {
      "type": "node",
      "id": 2977273936,
      "lat": -39.506487,
      "lon": 176.9169645
    },
    {
      "type": "node",
      "id": 4297254780,
      "lat": -39.5064854,
      "lon": 176.9169129
    },
    {
      "type": "node",
      "id": 4297254794,
      "lat": -39.5064993,
      "lon": 176.9169814
    },
    {
      "type": "node",
      "id": 4297254815,
      "lat": -39.5065227,
      "lon": 176.916905
    },
    {
      "type": "node",
      "id": 4297254816,
      "lat": -39.5065229,
      "lon": 176.916911
    },
    {
      "type": "node",
      "id": 4297254863,
      "lat": -39.5065746,
      "lon": 176.9169023
    },
    {
      "type": "node",
      "id": 4297254864,
      "lat": -39.5065747,
      "lon": 176.9169072
    },
    {
      "type": "node",
      "id": 4297254891,
      "lat": -39.5065962,
      "lon": 176.916918
    },
    {
      "type": "node",
      "id": 4297254895,
      "lat": -39.506598,
      "lon": 176.9169763
    },
    {
      "type": "node",
      "id": 4297254896,
      "lat": -39.5065987,
      "lon": 176.9168669
    },
    {
      "type": "node",
      "id": 4297254898,
      "lat": -39.5065999,
      "lon": 176.9169059
    },
    {
      "type": "node",
      "id": 4297254967,
      "lat": -39.5066481,
      "lon": 176.9168644
    },
    {
      "type": "node",
      "id": 4297254968,
      "lat": -39.5066497,
      "lon": 176.9169152
    },
    {
      "type": "node",
      "id": 2324962168,
      "lat": -39.49246,
      "lon": 176.9101932
    },
    {
      "type": "node",
      "id": 2324962171,
      "lat": -39.4926615,
      "lon": 176.9102733
    },
    {
      "type": "node",
      "id": 3683152089,
      "lat": -39.4924458,
      "lon": 176.9102591
    },
    {
      "type": "node",
      "id": 3683152090,
      "lat": -39.4924484,
      "lon": 176.91036
    },
    {
      "type": "node",
      "id": 3683152091,
      "lat": -39.4924698,
      "lon": 176.9102681
    },
    {
      "type": "node",
      "id": 3683152093,
      "lat": -39.4926237,
      "lon": 176.9104327
    },
    {
      "type": "node",
      "id": 3600186709,
      "lat": -37.771879,
      "lon": 175.2830371
    },
    {
      "type": "node",
      "id": 3600186723,
      "lat": -37.7719703,
      "lon": 175.2828017
    },
    {
      "type": "node",
      "id": 3600186724,
      "lat": -37.7719614,
      "lon": 175.2830858
    },
    {
      "type": "node",
      "id": 3600186740,
      "lat": -37.7720468,
      "lon": 175.2828483
    },
    {
      "type": "node",
      "id": 3631509384,
      "lat": -34.9512255,
      "lon": 173.1861796
    },
    {
      "type": "node",
      "id": 3631509385,
      "lat": -34.9512837,
      "lon": 173.1861054
    },
    {
      "type": "node",
      "id": 3631509386,
      "lat": -34.951314,
      "lon": 173.1861408
    },
    {
      "type": "node",
      "id": 3631509387,
      "lat": -34.9513267,
      "lon": 173.1862979
    },
    {
      "type": "node",
      "id": 3631509388,
      "lat": -34.95135,
      "lon": 173.1860949
    },
    {
      "type": "node",
      "id": 3631509389,
      "lat": -34.951421,
      "lon": 173.1861778
    },
    {
      "type": "node",
      "id": 875644246,
      "lat": -36.7128798,
      "lon": 174.722344
    },
    {
      "type": "node",
      "id": 875644247,
      "lat": -36.7130867,
      "lon": 174.7224388
    },
    {
      "type": "node",
      "id": 875644250,
      "lat": -36.7131512,
      "lon": 174.7222198
    },
    {
      "type": "node",
      "id": 875644253,
      "lat": -36.7129879,
      "lon": 174.7221894
    },
    {
      "type": "node",
      "id": 875644257,
      "lat": -36.7129161,
      "lon": 174.7222208
    },
    {
      "type": "node",
      "id": 3384019961,
      "lat": -36.7129712,
      "lon": 174.722246
    },
    {
      "type": "node",
      "id": 3384019965,
      "lat": -36.7130637,
      "lon": 174.7221797
    },
    {
      "type": "node",
      "id": 3384019966,
      "lat": -36.7130522,
      "lon": 174.7222188
    }
  ]
}