{"version": 0.6, "generator": "Overpass API 0.7.55.7 8b86ff77", "osm3s": {"timestamp_osm_base": "2019-08-02T17:37:02Z", "timestamp_areas_base": "2019-08-02T16:31:02Z", "copyright": "The data included in this document is from www.openstreetmap.org. The data is made available under ODbL."}, "elements": [{"type": "node", "id": 1089415483, "lat": 33.7356119, "lon": 73.0785229, "tags": {"addr:city": "Islamabad", "addr:street": "Street 10", "is_in": "Kohsar Market, F-6/3, Islamabad", "name": "Butcher Shop", "shop": "butcher"}}, {"type": "node", "id": 1096869057, "lat": 25.3703127, "lon": 68.3584132, "tags": {"shop": "butcher"}}, {"type": "node", "id": 1096869084, "lat": 25.3704751, "lon": 68.3586412, "tags": {"shop": "butcher"}}, {"type": "node", "id": 1096925198, "lat": 25.3654518, "lon": 68.3660888, "tags": {"shop": "butcher"}}, {"type": "node", "id": 1096925201, "lat": 25.3660286, "lon": 68.366416, "tags": {"shop": "butcher"}}, {"type": "node", "id": 1096925230, "lat": 25.365842, "lon": 68.3662336, "tags": {"shop": "butcher"}}, {"type": "node", "id": 1226386631, "lat": 33.9987486, "lon": 71.4948386, "tags": {"name": "Butcher", "shop": "butcher"}}, {"type": "node", "id": 1412407886, "lat": 33.5848781, "lon": 73.0898586, "tags": {"name": "K & N Chicken", "shop": "butcher"}}, {"type": "node", "id": 1440070237, "lat": 24.8849094, "lon": 66.9559216, "tags": {"name": "Meet Shop", "shop": "butcher"}}, {"type": "node", "id": 1758753103, "lat": 31.4855852, "lon": 74.3769154, "tags": {"shop": "butcher"}}, {"type": "node", "id": 2390842909, "lat": 33.5484062, "lon": 73.1306197, "tags": {"name": "Fresh Cuts", "shop": "butcher"}}, {"type": "node", "id": 2642297832, "lat": 33.3640771, "lon": 73.2404424, "tags": {"name": "Bhatti Chicken Point", "shop": "butcher"}}, {"type": "node", "id": 2642297899, "lat": 33.3672416, "lon": 73.2390195, "tags": {"shop": "butcher"}}, {"type": "node", "id": 2644135464, "lat": 33.3672768, "lon": 73.2389423, "tags": {"shop": "butcher"}}, {"type": "node", "id": 3284141023, "lat": 33.6717745, "lon": 71.5435652, "tags": {"name": "\u062f\u0631\u06d2 \u062e\u0627\u0646 \u06a9\u0628\u0627\u0628", "shop": "butcher"}}, {"type": "node", "id": 3517197118, "lat": 33.618716, "lon": 72.988148, "tags": {"shop": "butcher"}}, {"type": "node", "id": 4025216932, "lat": 24.9360112, "lon": 67.1376597, "tags": {"addr:street": "University Road", "name": "Khaas Meat - Mosamiat", "operator": "Meat One", "shop": "butcher"}}, {"type": "node", "id": 4238855708, "lat": 31.5248538, "lon": 74.3187993, "tags": {"addr:street": "Sultan Ahmed Rd", "name": "\u0645\u0634\u062a\u0627\u0642 \u0645\u06cc\u0679 \u0634\u0627\u067e", "shop": "butcher"}}, {"type": "node", "id": 4262751989, "lat": 29.1456824, "lon": 71.2401569, "tags": {"shop": "butcher"}}, {"type": "node", "id": 4268659199, "lat": 29.1305525, "lon": 71.2672834, "tags": {"shop": "butcher"}}, {"type": "node", "id": 4368464292, "lat": 30.2840327, "lon": 71.9320175, "tags": {"addr:housenumber": "1", "addr:postcode": "15150", "addr:street": "10", "shop": "butcher"}}, {"type": "node", "id": 4400613189, "lat": 31.2546265, "lon": 74.1763921, "tags": {"name": "Anis", "name:en": "Anis", "shop": "butcher"}}, {"type": "node", "id": 4479449790, "lat": 34.2226168, "lon": 71.5662117, "tags": {"addr:postcode": "24630", "addr:street": "Sabqadar Bazaar", "name": "Butcher's", "opening_hours": "Th-Tu 06:00-18:00", "shop": "butcher"}}, {"type": "node", "id": 4535636690, "lat": 33.994054, "lon": 71.5581035, "tags": {"shop": "butcher"}}, {"type": "node", "id": 4545221691, "lat": 24.7973601, "lon": 67.0587862, "tags": {"addr:country": "PK", "addr:place": "DHA Phase 6", "addr:province": "Sindh", "addr:street": "DHA Phase 6", "name": "bashee hm", "name:en": "bashee hm", "shop": "butcher"}}, {"type": "node", "id": 4603322696, "lat": 33.7115709, "lon": 73.0410826, "tags": {"addr:city": "Islamabad", "addr:street": "Kohistan Road", "name": "Meat Mart", "shop": "butcher"}}, {"type": "node", "id": 4724013530, "lat": 24.8135285, "lon": 67.048231, "tags": {"addr:city": "Karachi", "name": "Meat One", "shop": "butcher"}}, {"type": "node", "id": 4727758378, "lat": 24.8076388, "lon": 67.0621787, "tags": {"addr:city": "Karachi", "addr:country": "PK", "addr:place": "DHA Phase 6", "addr:province": "Sindh", "addr:street": "Khayaban-e-Seher", "name": "Meatone", "shop": "butcher"}}, {"type": "node", "id": 4734023594, "lat": 24.9265844, "lon": 67.0326626, "tags": {"addr:city": "Karachi", "addr:country": "PK", "addr:place": "North Nazimabad Block A", "addr:postcode": "74700", "addr:province": "Sindh", "addr:street": "Shahrarh Sher Shah Suri", "addr:suburb": "North Nazimabad Town", "name": "Meat One", "shop": "butcher"}}, {"type": "node", "id": 4737738046, "lat": 24.8773863, "lon": 67.1915958, "tags": {"addr:city": "Karachi", "addr:country": "PK", "addr:place": "Malir Town", "addr:province": "Sindh", "addr:street": "National Highway", "addr:suburb": "Shah Faisal Town", "name": "Meat Market", "shop": "butcher"}}, {"type": "node", "id": 4738119317, "lat": 24.9277735, "lon": 67.0956716, "tags": {"addr:city": "Karachi", "addr:street": "Allama Shabbir Ahmed Usmani Road", "name": "Meat One", "shop": "butcher"}}, {"type": "node", "id": 4739649327, "lat": 24.9462231, "lon": 67.0535461, "tags": {"addr:city": "Karachi", "addr:country": "PK", "addr:place": "North Nazimabad Block L", "addr:postcode": "74700", "addr:province": "Sindh", "addr:street": "North Nazimabad Block L", "addr:suburb": "North Nazimabad Town", "name": "Khas Meat", "shop": "butcher"}}, {"type": "node", "id": 4762112434, "lat": 24.8378023, "lon": 67.0332393, "tags": {"addr:city": "Karachi", "addr:place": "Clifton Block 8", "addr:street": "Khayban e Iqbal", "name": "K&N's Chicken Store", "shop": "butcher"}}, {"type": "node", "id": 4762112437, "lat": 24.8381551, "lon": 67.0331747, "tags": {"addr:city": "Karachi", "addr:place": "Clifton Block 8", "addr:street": "Khayban e Iqbal", "name": "K&N's Chicken Store", "shop": "butcher"}}, {"type": "node", "id": 4767542698, "lat": 24.8795479, "lon": 67.2017235, "tags": {"addr:city": "Karachi", "addr:street": "Pir Mahfooz Ali Road", "name": "Jokhya Cattle Market", "shop": "butcher"}}, {"type": "node", "id": 4767542706, "lat": 24.8793108, "lon": 67.1987233, "tags": {"addr:city": "Karachi", "addr:country": "PK", "addr:province": "Sindh", "addr:street": "Bakra Peri Road", "addr:suburb": "Shah Faisal Town", "name": "Malir Mandi (Cattle Market)", "shop": "butcher"}}, {"type": "node", "id": 4770056044, "lat": 24.807366, "lon": 67.0619096, "tags": {"addr:city": "Karachi", "addr:country": "PK", "addr:place": "DHA Phase 6", "addr:province": "Sindh", "addr:street": "Khayaban-e-Seher", "name": "K&N Chicken", "shop": "butcher"}}, {"type": "node", "id": 4786500650, "lat": 24.8155427, "lon": 67.0708089, "tags": {"addr:city": "Karachi", "addr:country": "PK", "addr:place": "DHA Phase 7", "addr:province": "Sindh", "addr:street": "Khayaban e Seher", "shop": "butcher"}}, {"type": "node", "id": 4788531152, "lat": 24.7968612, "lon": 67.0447671, "tags": {"addr:city": "Karachi", "addr:place": "DHA Phase 5", "addr:province": "Sindh", "addr:street": "Badar Commercial Street 11", "lit": "yes", "maxspeed": "60", "name": "Ideal Meats", "shop": "butcher", "smoothness": "good", "surface": "asphalt"}}, {"type": "node", "id": 4788531163, "lat": 24.7983571, "lon": 67.0456776, "tags": {"addr:city": "Karachi", "addr:place": "DHA Phase 5", "addr:province": "Sindh", "addr:street": "Badar Commercial 10th Street", "lit": "yes", "maxspeed": "60", "name": "OKO MEATS", "shop": "butcher", "smoothness": "good", "surface": "asphalt"}}, {"type": "node", "id": 4788607075, "lat": 24.8744561, "lon": 67.0878155, "tags": {"addr:city": "Karachi", "addr:street": "Saeed Hai Road", "name": "Butcher Shop", "shop": "butcher"}}, {"type": "node", "id": 4790030980, "lat": 24.8797874, "lon": 67.0874385, "tags": {"addr:city": "Karachi", "addr:street": "Tipu Sultan NE", "name": "Meat One", "shop": "butcher"}}, {"type": "node", "id": 4790072774, "lat": 24.8847097, "lon": 67.0812148, "tags": {"addr:city": "Karachi", "addr:street": "Ghazi Salahuddin Rd", "name": "Saleem Meat Shop", "shop": "butcher"}}, {"type": "node", "id": 4790207771, "lat": 24.8236869, "lon": 67.0622497, "tags": {"addr:city": "Karachi", "addr:country": "PK", "addr:place": "DHA Phase 4", "addr:province": "Sindh", "addr:street": "4th Commercial Lane", "name": "Aslam Mutton Shop", "shop": "butcher"}}, {"type": "node", "id": 4791846651, "lat": 24.8328762, "lon": 67.0668933, "tags": {"addr:city": "Karachi", "addr:street": "South Park Avenue", "name": "Khaas Meat", "shop": "butcher"}}, {"type": "node", "id": 4810084744, "lat": 24.912395, "lon": 67.0797664, "tags": {"addr:city": "Karachi", "addr:street": "Sahba Akhter Road", "name": "Khaas Meat Shop", "shop": "butcher"}}, {"type": "node", "id": 4815674925, "lat": 31.8344537, "lon": 71.4367353, "tags": {"name": "Butcher shop", "name:en": "Butcher shop", "shop": "butcher"}}, {"type": "node", "id": 4825492567, "lat": 25.3766543, "lon": 68.3372867, "tags": {"addr:city": "Hyderabad", "addr:street": "Autobhan Road", "name": "Meat One", "shop": "butcher"}}, {"type": "node", "id": 4865408824, "lat": 32.6999622, "lon": 74.3664027, "tags": {"name": "Butcher Shop", "name:en": "Butcher Shop", "shop": "butcher"}}, {"type": "node", "id": 4880297948, "lat": 33.6707048, "lon": 72.9857769, "tags": {"addr:city": "Islamabad", "addr:street": "Street 49", "name": "Waqas Meat Shop", "shop": "butcher"}}, {"type": "node", "id": 4900752996, "lat": 34.7686101, "lon": 72.3680319, "tags": {"name": "Anwar Butcher Shop", "shop": "butcher"}}, {"type": "node", "id": 4964257373, "lat": 33.7211727, "lon": 73.0592662, "tags": {"addr:city": "Islamabad", "addr:street": "Bhitai Road", "name": "Meat One", "shop": "butcher"}}, {"type": "node", "id": 5091031388, "lat": 24.8724467, "lon": 67.0584558, "tags": {"addr:city": "Karachi", "addr:country": "PK", "addr:place": "PECHS Block 2", "addr:postcode": "75460", "addr:province": "Sindh", "addr:street": "PECHS Block 2", "addr:suburb": "PECHS", "is_in": "PECHS", "name": "Khaas Meat Tariq Road Branch", "shop": "butcher"}}, {"type": "node", "id": 5137608493, "lat": 24.9471551, "lon": 67.0560754, "tags": {"addr:city": "Karachi", "addr:country": "PK", "addr:place": "North Nazimabad Block N", "addr:postcode": "74700", "addr:province": "Sindh", "addr:street": "5th Street S", "addr:suburb": "North Nazimabad Town", "name": "Meat Market", "shop": "butcher"}}, {"type": "node", "id": 5147773563, "lat": 24.8846371, "lon": 67.0633671, "tags": {"addr:city": "Karachi", "addr:street": "Alamgir Road", "name": "Meat One", "shop": "butcher"}}, {"type": "node", "id": 5153777081, "lat": 24.8077928, "lon": 67.1241797, "tags": {"addr:city": "Korangi Town", "addr:street": "Korangi Road", "name": "Khizer Poultry", "shop": "butcher"}}, {"type": "node", "id": 5171394024, "lat": 31.4272643, "lon": 73.1273945, "tags": {"name": "Sajid Chicken Shop", "shop": "butcher"}}, {"type": "node", "id": 5201844767, "lat": 24.9497247, "lon": 67.0428859, "tags": {"addr:city": "Karachi", "addr:country": "PK", "addr:place": "North Nazimabad Block I", "addr:postcode": "74700", "addr:province": "Sindh", "addr:street": "North Nazimabad Block I", "addr:suburb": "North Nazimabad Town", "name": "Saeed Mutton Shop", "shop": "butcher"}}, {"type": "node", "id": 5251853747, "lat": 25.3768782, "lon": 68.3357434, "tags": {"addr:city": "Hyderabad", "addr:street": "Autobhan Road", "name": "Meat One", "shop": "butcher"}}, {"type": "node", "id": 5273344636, "lat": 31.5112346, "lon": 74.3138906, "tags": {"addr:city": "Lahore", "addr:street": "Chaudhry Anwar Ali Road", "name": "Al Halal Meat Mart", "shop": "butcher"}}, {"type": "node", "id": 5318481337, "lat": 25.371044, "lon": 68.3569043, "tags": {"addr:city": "Hyderabad", "addr:street": "NAWAB MUZZAFAR ROAD;UNIT 7 MAIN ROAD", "name": "K&Ns Chicken Store", "shop": "butcher"}}, {"type": "node", "id": 5331127489, "lat": 24.9165408, "lon": 67.0348101, "tags": {"addr:city": "Karachi", "addr:housenumber": "Block C", "addr:street": "Nazimabad 4", "name": "Khaas Meat", "shop": "butcher"}}, {"type": "node", "id": 5342147379, "lat": 27.6968451, "lon": 68.8741235, "tags": {"addr:city": "Sukkur", "addr:street": "Masoom Shan Minar Road", "name": "K & N Chicken", "shop": "butcher"}}, {"type": "node", "id": 5948974634, "lat": 24.8464333, "lon": 67.0677835, "tags": {"name": "Chakwal Chicken Centre", "shop": "butcher"}}, {"type": "node", "id": 6012650838, "lat": 24.8464859, "lon": 67.0680879, "tags": {"name": "Chicken Shop", "shop": "butcher"}}, {"type": "node", "id": 6014787028, "lat": 24.846195, "lon": 67.0689505, "tags": {"name": "Chakwal Chicken Centre", "shop": "butcher"}}, {"type": "node", "id": 6021976584, "lat": 24.8460152, "lon": 67.0691122, "tags": {"name": "Madina Whole Sale Shop", "shop": "butcher"}}, {"type": "node", "id": 6024087130, "lat": 24.8456445, "lon": 67.0687773, "tags": {"name": "Alhaseeb Chicken Centre", "shop": "butcher"}}, {"type": "node", "id": 6024606994, "lat": 24.8451427, "lon": 67.0684866, "tags": {"name": "Dua Chicken Whole Sale", "shop": "butcher"}}, {"type": "node", "id": 6024677111, "lat": 24.8448566, "lon": 67.0683008, "tags": {"name": "Chicken Sale", "shop": "butcher"}}, {"type": "node", "id": 6024750816, "lat": 24.8453776, "lon": 67.0686077, "tags": {"name": "Meat Shop (Beaf & Mutton)", "shop": "butcher"}}, {"type": "node", "id": 6024750818, "lat": 24.84548, "lon": 67.0686848, "tags": {"name": "Gosht Wala", "shop": "butcher"}}, {"type": "node", "id": 6038356044, "lat": 24.8457168, "lon": 67.0689398, "tags": {"name": "Chakwal Chicken Shop", "shop": "butcher"}}, {"type": "node", "id": 6055110785, "lat": 24.84401, "lon": 67.0714823, "tags": {"name": "Chicken Centre", "shop": "butcher"}}, {"type": "node", "id": 6073636268, "lat": 24.845713, "lon": 67.0726125, "tags": {"name": "Chicke_Beaf_Mutton Meat Shop", "shop": "butcher"}}, {"type": "node", "id": 6073636269, "lat": 24.8457175, "lon": 67.0726032, "tags": {"name": "Chicken Meat Shop", "shop": "butcher"}}, {"type": "node", "id": 6076474233, "lat": 24.8452881, "lon": 67.072385, "tags": {"name": "Chicken Centre", "shop": "butcher"}}, {"type": "node", "id": 6076512896, "lat": 24.8449063, "lon": 67.0720799, "tags": {"name": "Zubair Chicken Beaf & Mutton", "shop": "butcher"}}, {"type": "node", "id": 6094726697, "lat": 24.8464784, "lon": 67.0732144, "tags": {"name": "Bakre Ka Ghost", "shop": "butcher"}}, {"type": "node", "id": 6094760732, "lat": 24.8460632, "lon": 67.0729156, "tags": {"name": "Chicken Shop", "shop": "butcher"}}, {"type": "node", "id": 6098195639, "lat": 24.8481186, "lon": 67.0744836, "tags": {"name": "Maryum Chicken", "shop": "butcher"}}, {"type": "node", "id": 6336184586, "lat": 24.9355194, "lon": 67.0455981, "tags": {"name": "Butcher's shop", "shop": "butcher"}}, {"type": "node", "id": 6447585537, "lat": 24.8272489, "lon": 67.0328847, "tags": {"name": "Meat One", "shop": "butcher"}}, {"type": "node", "id": 6553107991, "lat": 24.8409139, "lon": 67.0173705, "tags": {"name": "Masood Chicken Centre", "shop": "butcher"}}, {"type": "node", "id": 6555198927, "lat": 24.8404328, "lon": 67.0171145, "tags": {"name": "Chicken meat Shop", "shop": "butcher"}}, {"type": "node", "id": 6609660785, "lat": 33.6899817, "lon": 73.0317963, "tags": {"shop": "butcher"}}, {"type": "node", "id": 4727729727, "lat": 24.8141275, "lon": 67.0489281, "tags": {"addr:city": "Karachi", "addr:street": "Khayaban-e-Shamsheer", "name": "Rahat Milk Cornor", "shop": "dairy"}}, {"type": "node", "id": 4738119324, "lat": 24.928883, "lon": 67.097065, "tags": {"addr:city": "Karachi", "addr:street": "Allama Shabbir Ahmed Usmani Road", "name": "Nagori Milk Shop", "shop": "dairy"}}, {"type": "node", "id": 4739781670, "lat": 24.9351124, "lon": 67.0452807, "tags": {"addr:city": "Karachi", "addr:country": "PK", "addr:place": "North Nazimabad Block G", "addr:postcode": "74700", "addr:province": "Sindh", "addr:street": "Qari Zahir Qasmi Road", "addr:suburb": "North Nazimabad Town", "name": "Hamza Nagori Milk Shop", "shop": "dairy"}}, {"type": "node", "id": 4739782290, "lat": 24.8674407, "lon": 67.3528839, "tags": {"addr:city": "Karachi", "addr:street": "Khyber Store Road", "name": "Waqar Dairy Store", "shop": "dairy"}}, {"type": "node", "id": 4739811907, "lat": 24.8736518, "lon": 67.3664271, "tags": {"addr:city": "Karachi", "addr:street": "Main Commercial Street", "name": "Sindh Bakers & Dairy", "shop": "dairy"}}, {"type": "node", "id": 4740117256, "lat": 24.9635451, "lon": 67.045951, "tags": {"addr:city": "Karachi", "addr:country": "PK", "addr:postcode": "74700", "addr:province": "Sindh", "addr:suburb": "North Nazimabad Town", "name": "Bismillah Milk Shop Mazhar Chachi", "shop": "dairy"}}, {"type": "node", "id": 4741335296, "lat": 24.8920416, "lon": 67.0536481, "tags": {"addr:city": "Karachi", "addr:housenumber": "PIB Colony", "addr:street": "Jail Road", "name": "Mamu Lassi Milk Shop", "shop": "dairy"}}, {"type": "node", "id": 4764328930, "lat": 24.8757677, "lon": 67.1894738, "tags": {"addr:city": "Karachi", "addr:country": "PK", "addr:province": "Sindh", "addr:street": "Jamia Milla Road", "addr:suburb": "Shah Faisal Town", "name": "Masha Allah Dairy Shop", "shop": "dairy"}}, {"type": "node", "id": 4770056034, "lat": 24.806581, "lon": 67.0611586, "tags": {"addr:city": "Karachi", "addr:country": "PK", "addr:place": "DHA Phase 6", "addr:province": "Sindh", "addr:street": "Khayaban-e-Seher", "name": "Bismillah Milk Shop", "shop": "dairy"}}, {"type": "node", "id": 4777144260, "lat": 24.8830575, "lon": 67.0661455, "tags": {"addr:city": "Karachi", "addr:country": "PK", "addr:postcode": "75460", "addr:province": "Sindh", "addr:street": "Bmchs Road No 13", "addr:suburb": "PECHS", "is_in": "PECHS", "name": "Harmain Milk Shop", "shop": "dairy"}}, {"type": "node", "id": 4786285994, "lat": 24.8080516, "lon": 67.0692551, "tags": {"addr:city": "Karachi", "addr:country": "PK", "addr:place": "DHA Phase 6", "addr:province": "Sindh", "addr:street": "Rahat Commercial Lane 1", "name": "Millac Foods", "shop": "dairy"}}, {"type": "node", "id": 4790030998, "lat": 24.8835789, "lon": 67.0823082, "tags": {"addr:city": "Karachi", "addr:street": "Ghazi Salahuddin Rd", "name": "Nagori Milk & Rabri Shop", "shop": "dairy"}}, {"type": "node", "id": 4790031002, "lat": 24.8839995, "lon": 67.0817915, "tags": {"addr:city": "Karachi", "addr:street": "Ghazi Salahuddin Rd", "name": "Al-Quresh Dairy Milk Center", "shop": "dairy"}}, {"type": "node", "id": 4790072801, "lat": 24.8860521, "lon": 67.0792888, "tags": {"addr:city": "Karachi", "addr:street": "Ghazi Salahuddin Rd", "name": "Dayfresh Milk", "shop": "dairy"}}, {"type": "node", "id": 4790072808, "lat": 24.886405, "lon": 67.0787657, "tags": {"addr:city": "Karachi", "addr:street": "Ghazi Salahuddin Rd", "name": "Hamza Dairy Farms", "shop": "dairy"}}, {"type": "node", "id": 4790207780, "lat": 24.8261128, "lon": 67.0586293, "tags": {"addr:city": "Karachi", "addr:country": "PK", "addr:place": "DHA Phase 4", "addr:province": "Sindh", "addr:street": "2nd Commercial Ln", "name": "Bismillah Milk Corner", "shop": "dairy"}}, {"type": "node", "id": 4791846700, "lat": 24.8311089, "lon": 67.0666926, "tags": {"addr:city": "Karachi", "addr:street": "24th Commercial Street", "name": "MADINA MILK CORNER", "shop": "dairy"}}, {"type": "node", "id": 4801407773, "lat": 24.8298649, "lon": 67.0335237, "tags": {"addr:city": "Karachi", "addr:place": "Clifton Block 7", "addr:street": "Clifton Block 7", "country": "PK", "name": "Soni Milk Shop", "shop": "dairy"}}, {"type": "node", "id": 4823245534, "lat": 25.3677969, "lon": 68.3094338, "tags": {"addr:city": "Kotri", "addr:street": "National Highway", "name": "Waseem Milk Shop", "shop": "dairy"}}, {"type": "node", "id": 4831072404, "lat": 25.368765, "lon": 68.3746724, "tags": {"addr:city": "Hyderabad", "addr:street": "AUTOBHAN ROAD", "name": "Army Milk Farm", "shop": "dairy"}}, {"type": "node", "id": 4864737269, "lat": 33.6188121, "lon": 72.9918394, "tags": {"shop": "dairy"}}, {"type": "node", "id": 4889677809, "lat": 33.6860677, "lon": 73.0184777, "tags": {"addr:city": "Islamabad", "addr:street": "Street 55", "name": "Gujjar Milk Shop", "shop": "dairy"}}, {"type": "node", "id": 5020964242, "lat": 32.1810878, "lon": 74.5537357, "tags": {"addr:country": "PK", "name": "Hassan Bhutta Dera", "shop": "dairy"}}, {"type": "node", "id": 5069281746, "lat": 25.0162888, "lon": 67.1249433, "tags": {"addr:city": "Karachi", "addr:street": "Nishtar Road", "name": "Nagori Milk Shop", "shop": "dairy"}}, {"type": "node", "id": 5071495079, "lat": 25.0025467, "lon": 67.0551391, "tags": {"addr:city": "Karachi", "addr:street": "Al Amna Avenue", "name": "Fine Dairy Shop", "shop": "dairy"}}, {"type": "node", "id": 5088495571, "lat": 24.8704507, "lon": 67.0583823, "tags": {"addr:city": "Karachi", "addr:country": "PK", "addr:place": "PECHS Block 2", "addr:postcode": "75460", "addr:province": "Sindh", "addr:street": "PECHS Block 2", "addr:suburb": "PECHS", "is_in": "PECHS", "name": "Bismillah Milk Shop", "shop": "dairy"}}, {"type": "node", "id": 5088820044, "lat": 24.9417814, "lon": 66.9984633, "tags": {"addr:city": "Karachi", "addr:street": "Orangi Town", "name": "Nagori Golden Milk Shop", "shop": "dairy"}}, {"type": "node", "id": 5089225940, "lat": 24.8711897, "lon": 67.0586771, "tags": {"addr:city": "Karachi", "addr:country": "PK", "addr:place": "PECHS Block 2", "addr:postcode": "75460", "addr:province": "Sindh", "addr:street": "PECHS Block 2", "addr:suburb": "PECHS", "is_in": "PECHS", "name": "Faisal Milk Shop", "shop": "dairy"}}, {"type": "node", "id": 5091605506, "lat": 24.8700425, "lon": 66.9222272, "tags": {"addr:city": "karachi", "addr:street": "Hawks Bay Road", "name": "Masha ALLAH Nogori Milk Shop", "shop": "dairy"}}, {"type": "node", "id": 5103599357, "lat": 24.8359202, "lon": 67.2511398, "tags": {"addr:city": "Karachi", "addr:place": "Landhi", "name": "Dogar Dairy", "shop": "dairy"}}, {"type": "node", "id": 5103599358, "lat": 24.8358154, "lon": 67.2533491, "tags": {"addr:city": "Karachi", "addr:place": "Landhi", "name": "Haji Ghulam Mustafa Dairy Farm", "shop": "dairy"}}, {"type": "node", "id": 5119821459, "lat": 24.8721297, "lon": 67.0171929, "tags": {"addr:city": "Karachi", "addr:street": "Nishtar Road", "name": "Nagori Milk Corner", "shop": "dairy"}}, {"type": "node", "id": 5120033019, "lat": 24.858803, "lon": 67.0293545, "tags": {"addr:city": "Karachi", "addr:street": "Raja Ghazanfar Ali Road", "name": "Nagori Madina Milk Shop", "shop": "dairy"}}, {"type": "node", "id": 5124262191, "lat": 24.9035435, "lon": 67.0543922, "tags": {"addr:city": "Karachi", "addr:street": "Liaquatabad", "name": "Saleem Qurashi Milk Shop", "shop": "dairy"}}, {"type": "node", "id": 5124425321, "lat": 24.8614255, "lon": 67.0285191, "tags": {"addr:city": "Karachi", "addr:street": "Shahrah e Liaquat", "name": "Nagori Milk Center", "shop": "dairy"}}, {"type": "node", "id": 5124425325, "lat": 24.8615885, "lon": 67.028865, "tags": {"addr:street": "Shahrah e Liaquat", "name": "Hijaz Milk Shop", "shop": "dairy"}}, {"type": "node", "id": 5127871889, "lat": 24.9031268, "lon": 67.0233894, "tags": {"addr:city": "Karachi", "addr:country": "PK", "addr:place": "Nazimabad 1", "addr:province": "Sindh", "addr:street": "Nazimabad 1", "name": "Masha Allah Milk Center", "shop": "dairy"}}, {"type": "node", "id": 5128170671, "lat": 24.9070652, "lon": 67.022918, "tags": {"addr:city": "Karachi", "addr:country": "PK", "addr:place": "Nazimabad 1", "addr:province": "Sindh", "addr:street": "Nazimabad 1", "name": "Madina milk shop", "shop": "dairy"}}, {"type": "node", "id": 5128267584, "lat": 24.9032419, "lon": 67.0240983, "tags": {"addr:city": "Karachi", "addr:country": "PK", "addr:place": "Nazimabad 1", "addr:province": "Sindh", "addr:street": "Nazimabad 1", "name": "Masha Allah Milk Center", "shop": "dairy"}}, {"type": "node", "id": 5128625140, "lat": 24.9142515, "lon": 67.022794, "tags": {"addr:city": "Karachi", "addr:street": "Nazimabad 3", "name": "Jameel & Sons Milk Dairy", "shop": "dairy"}}, {"type": "node", "id": 5128663689, "lat": 24.9126489, "lon": 67.0205064, "tags": {"addr:city": "Karachi", "addr:street": "Nazimabad 3", "name": "Meo Brother Milk Shop", "shop": "dairy"}}, {"type": "node", "id": 5130402565, "lat": 24.9240487, "lon": 67.0257046, "tags": {"addr:city": "Karachi", "addr:country": "PK", "addr:postcode": "74700", "addr:province": "Sindh", "addr:street": "Nazimabad 5", "addr:suburb": "North Nazimabad Town", "name": "Jama Milk Shop", "shop": "dairy"}}, {"type": "node", "id": 5130517086, "lat": 24.9225072, "lon": 67.021233, "tags": {"addr:city": "Karachi", "addr:country": "PK", "addr:postcode": "74700", "addr:province": "Sindh", "addr:street": "Nazimabad 5", "addr:suburb": "North Nazimabad Town", "name": "Nagori Milk Shop", "shop": "dairy"}}, {"type": "node", "id": 5130517103, "lat": 24.9210403, "lon": 67.0213211, "tags": {"addr:city": "Karachi", "addr:country": "PK", "addr:postcode": "74700", "addr:province": "Sindh", "addr:street": "Nazimabad 5", "addr:suburb": "North Nazimabad Town", "name": "Shalimar Nagori Milk Shop", "shop": "dairy"}}, {"type": "node", "id": 5130548376, "lat": 24.9206794, "lon": 67.0213411, "tags": {"addr:city": "Karachi", "addr:country": "PK", "addr:postcode": "74700", "addr:province": "Sindh", "addr:street": "Nazimabad 5", "addr:suburb": "North Nazimabad Town", "name": "Pure Dairy Milk Shop", "shop": "dairy"}}, {"type": "node", "id": 5130611424, "lat": 24.9171265, "lon": 67.021913, "tags": {"addr:city": "Karachi", "addr:street": "Nazimabad 5", "name": "Meo Brothers Milk Shop", "shop": "dairy"}}, {"type": "node", "id": 5132892138, "lat": 24.8292808, "lon": 67.121666, "tags": {"addr:city": "Karachi", "addr:street": "Landhi", "name": "Pak Islam Dairy", "shop": "dairy"}}, {"type": "node", "id": 5135474755, "lat": 24.8327164, "lon": 67.2120131, "tags": {"addr:city": "Karachi", "addr:street": "Landhi", "name": "Awami Milk Shop", "shop": "dairy"}}, {"type": "node", "id": 5137562861, "lat": 24.943518, "lon": 67.0963052, "tags": {"addr:city": "Karachi", "addr:street": "Abul Hasan Ispahani Road", "name": "Nagori Milk Shop", "shop": "dairy"}}, {"type": "node", "id": 5137562870, "lat": 24.9442064, "lon": 67.0950622, "tags": {"addr:city": "Karachi", "addr:street": "Abul Hasan Ispahani Road", "name": "Madina Milk Shop", "shop": "dairy"}}, {"type": "node", "id": 5137691719, "lat": 24.8277752, "lon": 67.1580773, "tags": {"addr:city": "Karachi", "addr:street": "Landhi Road", "name": "DairyStore", "shop": "dairy"}}, {"type": "node", "id": 5143008203, "lat": 24.8739235, "lon": 67.029045, "tags": {"addr:city": "Karachi", "addr:street": "Clayton Road", "name": "Bismillah Milk Shop", "shop": "dairy"}}, {"type": "node", "id": 5143101721, "lat": 24.8654477, "lon": 67.0372281, "tags": {"addr:city": "Karachi", "addr:street": "New M.A. Jinnah Road", "name": "Masha Allah Milk & Bakers", "shop": "dairy"}}, {"type": "node", "id": 5143300444, "lat": 24.8728642, "lon": 67.0446631, "tags": {"addr:city": "Karachi", "addr:street": "PECHS Block 1", "name": "Nagori Milk Shop", "shop": "dairy"}}, {"type": "node", "id": 5144965304, "lat": 24.8676826, "lon": 67.0753663, "tags": {"addr:city": "Karachi", "addr:country": "PK", "addr:postcode": "75460", "addr:province": "Sindh", "addr:street": "Lal Muhammad Chaudary Road", "addr:suburb": "PECHS", "is_in": "PECHS", "name": "New Mashallah Milk Shop", "shop": "dairy"}}, {"type": "node", "id": 5146789205, "lat": 24.8820536, "lon": 67.0687918, "tags": {"addr:city": "Karachi", "addr:country": "PK", "addr:postcode": "75460", "addr:province": "Sindh", "addr:street": "Bahadurabad", "addr:suburb": "PECHS", "is_in": "PECHS", "name": "Madina Dairy Milk Shop", "shop": "dairy"}}, {"type": "node", "id": 5147773553, "lat": 24.8861206, "lon": 67.0617307, "tags": {"addr:city": "Karachi", "addr:street": "Union Road No 16", "name": "Karachi Dairy & Milk Shake", "shop": "dairy"}}, {"type": "node", "id": 5153777061, "lat": 24.8164773, "lon": 67.1074415, "tags": {"addr:city": "Karachi", "addr:street": "Korangi Road", "name": "AL HAMD MILK SHOP", "shop": "dairy"}}, {"type": "node", "id": 5153777073, "lat": 24.8143926, "lon": 67.1067266, "tags": {"addr:city": "Karachi", "addr:street": "Korangi Road", "name": "Hafiz Milk Shop", "shop": "dairy"}}, {"type": "node", "id": 5153777086, "lat": 24.8000254, "lon": 67.1362443, "tags": {"addr:city": "Karachi", "addr:street": "Korangi Road", "name": "Madina Milk Shop Nai Abadi", "shop": "dairy"}}, {"type": "node", "id": 5157326487, "lat": 24.9436108, "lon": 67.011941, "tags": {"addr:city": "Karachi", "addr:street": "Orangi Town", "name": "Masha Allah Milk Shop", "shop": "dairy"}}, {"type": "node", "id": 5157372303, "lat": 24.9418135, "lon": 67.0145717, "tags": {"addr:city": "Karachi", "addr:street": "Orangi Town", "name": "Usama Milk Shop", "shop": "dairy"}}, {"type": "node", "id": 5183808343, "lat": 24.9470642, "lon": 67.0561802, "tags": {"addr:city": "Karachi", "addr:country": "PK", "addr:place": "North Nazimabad Block N", "addr:postcode": "74700", "addr:province": "Sindh", "addr:street": "5th Street S", "addr:suburb": "North Nazimabad Town", "name": "Pure Dairy", "shop": "dairy"}}, {"type": "node", "id": 5185754379, "lat": 24.9475159, "lon": 67.0540351, "tags": {"addr:city": "Karachi", "addr:country": "PK", "addr:place": "North Nazimabad Block M", "addr:postcode": "74700", "addr:province": "Sindh", "addr:street": "North Nazimabad Block M", "addr:suburb": "North Nazimabad Town", "name": "Dairy King Milk Shop", "shop": "dairy"}}, {"type": "node", "id": 5195839481, "lat": 24.947412, "lon": 67.0500849, "tags": {"addr:city": "Karachi", "addr:country": "PK", "addr:place": "North Nazimabad Block K", "addr:postcode": "74700", "addr:province": "Sindh", "addr:street": "North Nazimabad Block K", "addr:suburb": "North Nazimabad Town", "name": "Dogar Milk", "shop": "dairy"}}, {"type": "node", "id": 5196077257, "lat": 24.9512167, "lon": 67.0515119, "tags": {"addr:city": "Karachi", "addr:country": "PK", "addr:place": "North Nazimabad Block K", "addr:postcode": "74700", "addr:province": "Sindh", "addr:street": "North Nazimabad Block K", "addr:suburb": "North Nazimabad Town", "name": "Ghos Ul Azam Milk Shop", "shop": "dairy"}}, {"type": "node", "id": 5217715797, "lat": 24.8595721, "lon": 67.3371451, "tags": {"addr:city": "Steel Town", "addr:street": "National Highway", "name": "KPS Hatchery", "shop": "dairy"}}, {"type": "node", "id": 5226070182, "lat": 24.933678, "lon": 67.0313577, "tags": {"addr:city": "Karachi", "addr:country": "PK", "addr:place": "North Nazimabad Block A", "addr:postcode": "74700", "addr:province": "Sindh", "addr:street": "Qazi Musarrat Street", "addr:suburb": "North Nazimabad Town", "name": "Famous Dairy Shop", "shop": "dairy"}}, {"type": "node", "id": 5249829408, "lat": 24.9559901, "lon": 67.0507787, "tags": {"addr:city": "Karachi", "addr:country": "PK", "addr:postcode": "74700", "addr:province": "Sindh", "addr:suburb": "North Nazimabad Town", "name": "Al-Asif Milk Shop", "shop": "dairy"}}, {"type": "node", "id": 5251988420, "lat": 27.7170487, "lon": 68.8311485, "tags": {"addr:city": "Sukkur", "addr:street": "Airport Road", "name": "Ghazi Dairy", "shop": "dairy"}}, {"type": "node", "id": 5287521842, "lat": 31.439231, "lon": 73.1316629, "tags": {"addr:city": "Faisalabad", "addr:street": "West Canal Road", "name": "Nexus International", "shop": "dairy"}}, {"type": "node", "id": 5295668363, "lat": 24.8519344, "lon": 67.2565428, "tags": {"addr:city": "Karachi", "addr:street": "National Highway", "name": "Jadoon Dairy Farm", "shop": "dairy"}}, {"type": "node", "id": 5312348469, "lat": 24.9645587, "lon": 66.9325359, "tags": {"addr:city": "Karachi", "addr:housenumber": "Pervaiz Musharraf Colony", "addr:street": "Hub Chowki Road", "name": "Bismillah Kastoori Bakery & Milk Shop", "shop": "dairy"}}, {"type": "node", "id": 5331127482, "lat": 24.9142211, "lon": 67.0347196, "tags": {"addr:city": "Karachi", "addr:housenumber": "C7", "addr:street": "Nazimabad 4", "name": "Indus Milk Shop", "shop": "dairy"}}, {"type": "node", "id": 5334959073, "lat": 24.92801, "lon": 67.0669179, "tags": {"addr:city": "Karachi", "addr:street": "Ayesha Manzil Fly Over", "name": "Ameen Milk Shop", "shop": "dairy"}}, {"type": "node", "id": 6014517951, "lat": 24.8465271, "lon": 67.0685739, "tags": {"name": "Nagori Milk Shop", "shop": "dairy"}}, {"type": "node", "id": 6022431068, "lat": 24.8453009, "lon": 67.0684717, "tags": {"name": "Irfan Milk Shop", "shop": "dairy"}}, {"type": "node", "id": 6024750817, "lat": 24.8454556, "lon": 67.0686514, "tags": {"name": "Milk Shop", "shop": "dairy"}}, {"type": "node", "id": 6055093718, "lat": 24.8444367, "lon": 67.0703934, "tags": {"name": "Makka Milk Shop", "shop": "dairy"}}, {"type": "node", "id": 6055110182, "lat": 24.8439554, "lon": 67.0714133, "tags": {"name": "United Milk Shop", "shop": "dairy"}}, {"type": "node", "id": 6073570408, "lat": 24.8458203, "lon": 67.0727315, "tags": {"name": "Nagori Milk", "shop": "dairy"}}, {"type": "node", "id": 6094726706, "lat": 24.8463876, "lon": 67.0731436, "tags": {"shop": "dairy"}}, {"type": "node", "id": 6094760727, "lat": 24.8467161, "lon": 67.0721546, "tags": {"name": "Madina Naghori Milk Shop", "shop": "dairy"}}, {"type": "node", "id": 6094774147, "lat": 24.8459262, "lon": 67.0728124, "tags": {"name": "Naghori Milk", "shop": "dairy"}}, {"type": "node", "id": 6095354757, "lat": 24.8485947, "lon": 67.0748508, "tags": {"name": "Bismillah Milk Shop", "shop": "dairy"}}, {"type": "node", "id": 6097997789, "lat": 24.8487591, "lon": 67.074966, "tags": {"name": "Milk Shop", "shop": "dairy"}}, {"type": "node", "id": 6102388588, "lat": 24.8477281, "lon": 67.0742283, "tags": {"name": "Bismillah Bilal Mewati Dairy", "shop": "dairy"}}, {"type": "node", "id": 6432386030, "lat": 33.6445282, "lon": 72.9592692, "tags": {"name": "Rana Milk Shop", "shop": "dairy"}}, {"type": "node", "id": 2644153247, "lat": 33.3673649, "lon": 73.2393563, "tags": {"addr:city": "Mandra", "shop": "farm"}}, {"type": "node", "id": 2644172015, "lat": 33.3673472, "lon": 73.2393846, "tags": {"addr:city": "Mandra", "shop": "farm"}}, {"type": "node", "id": 4769517514, "lat": 24.8456354, "lon": 67.0962902, "tags": {"addr:city": "Karachi", "addr:street": "Korangi Industrial Area", "name": "Pioneer Flour Mills", "shop": "farm"}}, {"type": "node", "id": 4786500631, "lat": 24.7962129, "lon": 67.0507794, "tags": {"addr:city": "Karachi", "addr:street": "Khayaban e Seher", "name": "Noble Traders", "shop": "farm"}}, {"type": "node", "id": 4561969652, "lat": 33.6672745, "lon": 73.0751941, "tags": {"name": "Gloria Jeans I-8 Markaz", "shop": "coffee"}}, {"type": "node", "id": 4915415996, "lat": 34.0020727, "lon": 71.4814091, "tags": {"shop": "coffee"}}, {"type": "node", "id": 4958131358, "lat": 33.6847241, "lon": 72.9884052, "tags": {"addr:city": "Islamabad", "addr:street": "Hassan Ali Afandi Road", "name": "Gloria Jeans Coffee", "shop": "coffee"}}, {"type": "node", "id": 4961746388, "lat": 33.6916241, "lon": 73.0165783, "tags": {"addr:city": "Islamabad", "addr:street": "10th Avenue", "name": "Espresso Express Coffee", "shop": "coffee"}}, {"type": "node", "id": 1350043937, "lat": 34.0864505, "lon": 71.5235247, "tags": {"addr:housename": "Charsadah", "addr:postcode": "005", "addr:street": "Cahrsadah Road", "name": "Apple", "shop": "greengrocer", "source": "PAK"}}, {"type": "node", "id": 1365195152, "lat": 33.5568457, "lon": 73.1045229, "tags": {"name": "Vegitable Shop", "shop": "greengrocer"}}, {"type": "node", "id": 1365195163, "lat": 33.5565854, "lon": 73.1021923, "tags": {"name": "Vegitable Store", "shop": "greengrocer"}}, {"type": "node", "id": 1365195165, "lat": 33.5614264, "lon": 73.1069235, "tags": {"name": "Vegitable shop", "shop": "greengrocer"}}, {"type": "node", "id": 1420018688, "lat": 33.5567061, "lon": 73.1047662, "tags": {"name": "Veg n Fruit Shop", "shop": "greengrocer"}}, {"type": "node", "id": 1428259342, "lat": 24.876248, "lon": 66.9427536, "tags": {"name": "Veg and Fruit Shop", "shop": "greengrocer"}}, {"type": "node", "id": 1428265989, "lat": 24.8864505, "lon": 66.9542147, "tags": {"name": "Veg n Fruit Shop", "shop": "greengrocer"}}, {"type": "node", "id": 1440050929, "lat": 24.8831477, "lon": 66.9502138, "tags": {"name": "Fruit n Veg Shop", "shop": "greengrocer"}}, {"type": "node", "id": 1440070251, "lat": 24.8849483, "lon": 66.9560262, "tags": {"name": "Fruit n Veg Shop", "shop": "greengrocer"}}, {"type": "node", "id": 1758753095, "lat": 31.4852115, "lon": 74.3764928, "tags": {"shop": "greengrocer"}}, {"type": "node", "id": 1758753101, "lat": 31.4855394, "lon": 74.3767189, "tags": {"shop": "greengrocer"}}, {"type": "node", "id": 1758753107, "lat": 31.4856339, "lon": 74.3769608, "tags": {"shop": "greengrocer"}}, {"type": "node", "id": 1927270823, "lat": 30.055633, "lon": 70.643678, "tags": {"name": "Vegetable Market", "shop": "greengrocer"}}, {"type": "node", "id": 2622656953, "lat": 33.3673685, "lon": 73.239296, "tags": {"landuse": "retail", "shop": "greengrocer"}}, {"type": "node", "id": 3922240563, "lat": 31.1296952, "lon": 74.4571257, "tags": {"name": "Sabzi Mandi", "shop": "greengrocer"}}, {"type": "node", "id": 4131018737, "lat": 33.6635595, "lon": 71.5430019, "tags": {"shop": "greengrocer"}}, {"type": "node", "id": 4327432993, "lat": 30.9666269, "lon": 71.1968415, "tags": {"name": "Sabzi & Fruit Mandi", "shop": "greengrocer"}}, {"type": "node", "id": 4362948589, "lat": 32.0385027, "lon": 71.4806615, "tags": {"addr:street": "Lat No. 26 Rakh Khasor, tahsil Kalurkot", "shop": "greengrocer"}}, {"type": "node", "id": 4408924293, "lat": 30.1859987, "lon": 71.5072556, "tags": {"addr:housenumber": "54", "addr:street": "G Block Market", "name": "Al Saeed Kryana Store", "name:en": "Al Saeed Kryana Store", "opening_hours": "Mo-Su 07:00-22:00", "shop": "greengrocer"}}, {"type": "node", "id": 4773696661, "lat": 24.8677553, "lon": 67.0753948, "tags": {"addr:city": "Karachi", "addr:country": "PK", "addr:postcode": "75460", "addr:province": "Sindh", "addr:street": "Lal Muhammad Chaudary Rd", "addr:suburb": "PECHS", "is_in": "PECHS", "name": "GreenGrocer", "shop": "greengrocer"}}, {"type": "node", "id": 4900752997, "lat": 34.7685759, "lon": 72.3680828, "tags": {"shop": "greengrocer"}}, {"type": "node", "id": 4900753748, "lat": 34.7679854, "lon": 72.3681076, "tags": {"shop": "greengrocer"}}, {"type": "node", "id": 4937988221, "lat": 31.8234608, "lon": 70.9008645, "tags": {"shop": "greengrocer"}}, {"type": "node", "id": 5012370826, "lat": 35.92078, "lon": 74.3156517, "tags": {"addr:street": "Airport Road", "shop": "greengrocer"}}, {"type": "node", "id": 5271830521, "lat": 29.1627564, "lon": 71.1615655, "tags": {"addr:postcode": "63350", "name": "Bhatti house", "phone": "03017743806", "shop": "greengrocer"}}, {"type": "node", "id": 5276615023, "lat": 32.4553209, "lon": 74.5204673, "tags": {"name": "\u0633\u0628\u0632\u0645\u0646\u0688\u06cc", "name:en": "fruit/vegitable market", "shop": "greengrocer"}}, {"type": "node", "id": 5548288644, "lat": 29.1796832, "lon": 71.2822408, "tags": {"addr:postcode": "63350", "name": "Abbas bhatti", "phone": "03004299280", "shop": "greengrocer"}}, {"type": "node", "id": 5565817323, "lat": 31.4849982, "lon": 74.3930941, "tags": {"name": "Poultry, vegetable and fruit shops", "opening_hours": "Mo-Su 08:00-22:00", "shop": "greengrocer"}}, {"type": "node", "id": 5584324622, "lat": 29.216514, "lon": 71.1865026, "tags": {"name": "Zafar house", "shop": "greengrocer"}}, {"type": "node", "id": 5584326721, "lat": 29.2180589, "lon": 71.1827567, "tags": {"name": "Arshad house", "shop": "greengrocer"}}, {"type": "node", "id": 5595279923, "lat": 33.6554178, "lon": 72.963096, "tags": {"name": "Barq Grocery Store", "shop": "greengrocer"}}, {"type": "node", "id": 5948918775, "lat": 24.8474318, "lon": 67.0677606, "tags": {"name": "Sabzi ki Dukan", "shop": "greengrocer"}}, {"type": "node", "id": 5948958038, "lat": 24.8463494, "lon": 67.0676976, "tags": {"name": "Vegetable Vendor", "shop": "greengrocer"}}, {"type": "node", "id": 6007160398, "lat": 35.8570261, "lon": 71.7867792, "tags": {"name": "Sabzio Dukan", "shop": "greengrocer"}}, {"type": "node", "id": 6007598102, "lat": 36.060892, "lon": 71.8195754, "tags": {"name": "Azhar General Store", "shop": "greengrocer"}}, {"type": "node", "id": 6012650837, "lat": 24.846484, "lon": 67.0680615, "tags": {"name": "BBabu Vegetable Vendor", "shop": "greengrocer"}}, {"type": "node", "id": 6014517946, "lat": 24.8465022, "lon": 67.0684128, "tags": {"name": "Vegetable Shop", "shop": "greengrocer"}}, {"type": "node", "id": 6024606995, "lat": 24.8451277, "lon": 67.0684754, "tags": {"name": "Vegitable Shop", "shop": "greengrocer"}}, {"type": "node", "id": 6024699821, "lat": 24.8454794, "lon": 67.0688107, "tags": {"name": "Sabzi Aur Fruit k Thelay", "shop": "greengrocer"}}, {"type": "node", "id": 6024709797, "lat": 24.845288, "lon": 67.0686117, "tags": {"name": "Vegetable & Fruit Shop", "shop": "greengrocer"}}, {"type": "node", "id": 6038356042, "lat": 24.8458079, "lon": 67.0689118, "tags": {"name": "Jadoon Vegetable Shop", "shop": "greengrocer"}}, {"type": "node", "id": 6039074272, "lat": 24.8446931, "lon": 67.0682001, "tags": {"name": "Bahri Whole Saler", "shop": "greengrocer"}}, {"type": "node", "id": 6055112158, "lat": 24.8440702, "lon": 67.0716605, "tags": {"name": "Sabzi ki Dukan", "shop": "greengrocer"}}, {"type": "node", "id": 6057699684, "lat": 24.8441805, "lon": 67.0717228, "tags": {"name": "Fruit Kiosk", "shop": "greengrocer"}}, {"type": "node", "id": 6057703030, "lat": 24.8441235, "lon": 67.0716954, "tags": {"name": "Vegetable Shop", "shop": "greengrocer"}}, {"type": "node", "id": 6057704516, "lat": 24.8444276, "lon": 67.0718991, "tags": {"name": "Vegetable Shop", "shop": "greengrocer"}}, {"type": "node", "id": 6057917341, "lat": 24.8444756, "lon": 67.0717961, "tags": {"name": "Vegetable Shop", "shop": "greengrocer"}}, {"type": "node", "id": 6073592353, "lat": 24.8458276, "lon": 67.0727917, "tags": {"name": "Vegetable Kiosk", "shop": "greengrocer"}}, {"type": "node", "id": 6073592354, "lat": 24.8458079, "lon": 67.0727775, "tags": {"name": "Vegetable Kiosk", "shop": "greengrocer"}}, {"type": "node", "id": 6073592355, "lat": 24.845787, "lon": 67.072766, "tags": {"name": "Vegetable Kiosk", "shop": "greengrocer"}}, {"type": "node", "id": 6073636278, "lat": 24.8458005, "lon": 67.0728596, "tags": {"name": "Fruit Kiosk", "shop": "greengrocer"}}, {"type": "node", "id": 6073636279, "lat": 24.8457748, "lon": 67.0728428, "tags": {"name": "Fruit Kiosk", "shop": "greengrocer"}}, {"type": "node", "id": 6073636280, "lat": 24.8457419, "lon": 67.0728207, "tags": {"name": "Vegetable Kiosk", "shop": "greengrocer"}}, {"type": "node", "id": 6073636281, "lat": 24.8457106, "lon": 67.0728003, "tags": {"name": "Vegetable Kiosk", "shop": "greengrocer"}}, {"type": "node", "id": 6073637583, "lat": 24.8456734, "lon": 67.0726721, "tags": {"name": "Vegetable Kiosk", "shop": "greengrocer"}}, {"type": "node", "id": 6073637584, "lat": 24.8456595, "lon": 67.0726623, "tags": {"name": "Vegetable Kiosk", "shop": "greengrocer"}}, {"type": "node", "id": 6073637985, "lat": 24.8456418, "lon": 67.0726496, "tags": {"name": "Vegetable Kiosk", "shop": "greengrocer"}}, {"type": "node", "id": 6076426105, "lat": 24.8453776, "lon": 67.072481, "tags": {"name": "Fruit Kiosk", "shop": "greengrocer"}}, {"type": "node", "id": 6076426106, "lat": 24.8453628, "lon": 67.0724709, "tags": {"name": "Fruit Kiosk", "shop": "greengrocer"}}, {"type": "node", "id": 6076426107, "lat": 24.8453407, "lon": 67.0724546, "tags": {"name": "Fruit Kiosk", "shop": "greengrocer"}}, {"type": "node", "id": 6085408293, "lat": 24.8475181, "lon": 67.0741878, "tags": {"name": "Fruit Kiosk (Thela)", "shop": "greengrocer"}}, {"type": "node", "id": 6085408294, "lat": 24.8477285, "lon": 67.0742721, "tags": {"name": "Fruit Kiosk (Thela)", "shop": "greengrocer"}}, {"type": "node", "id": 6085408295, "lat": 24.848208, "lon": 67.0746747, "tags": {"name": "Fruit Kiosk (Thela)", "shop": "greengrocer"}}, {"type": "node", "id": 6085408296, "lat": 24.8481665, "lon": 67.0746472, "tags": {"name": "Vegetable Kiosk (Thela)", "shop": "greengrocer"}}, {"type": "node", "id": 6085408297, "lat": 24.8481066, "lon": 67.0745964, "tags": {"name": "Vegetable Kiosk (Thela)", "shop": "greengrocer"}}, {"type": "node", "id": 6085408298, "lat": 24.84803, "lon": 67.0745466, "tags": {"name": "Vegetable Kiosk (Thela)", "shop": "greengrocer"}}, {"type": "node", "id": 6095366819, "lat": 24.8486514, "lon": 67.0749071, "tags": {"name": "Fruit Kiosk (Thela)", "shop": "greengrocer"}}, {"type": "node", "id": 3517199649, "lat": 33.64316, "lon": 73.161922, "tags": {"addr:city": "Islamabad", "addr:street": "Lehtrar Road", "name": "Bara Dari Chae Shop", "shop": "tea"}}, {"type": "node", "id": 4327680651, "lat": 32.5796665, "lon": 71.5465739, "tags": {"name": "Khuda Baksh Tea Hotel", "shop": "tea"}}, {"type": "node", "id": 4738119455, "lat": 24.9278448, "lon": 67.0329932, "tags": {"addr:city": "Karachi", "addr:country": "PK", "addr:place": "North Nazimabad Block A", "addr:postcode": "74700", "addr:province": "Sindh", "addr:street": "North Nazimabad Block A", "addr:suburb": "North Nazimabad Town", "name": "Chai Session", "shop": "tea"}}, {"type": "node", "id": 4739668167, "lat": 24.9393531, "lon": 67.0523565, "tags": {"addr:city": "Karachi", "addr:country": "PK", "addr:place": "North Nazimabad Block L", "addr:postcode": "74700", "addr:province": "Sindh", "addr:street": "Shahrah e Jahangir", "addr:suburb": "North Nazimabad Town", "name": "Quetta Bismillah Hotel", "shop": "tea"}}, {"type": "node", "id": 4764256799, "lat": 24.9054956, "lon": 67.0780198, "tags": {"addr:city": "Karachi", "addr:street": "University Road", "name": "Chai Hotel", "shop": "tea"}}, {"type": "node", "id": 4764256815, "lat": 24.9033446, "lon": 67.0754844, "tags": {"addr:city": "Karachi", "addr:street": "University Road", "name": "Quetta Pashen Hotel", "shop": "tea"}}, {"type": "node", "id": 4773096204, "lat": 24.9217906, "lon": 67.1027307, "tags": {"addr:city": "Karachi", "addr:street": "University Road", "name": "Quetta Darbar Hotel", "shop": "tea"}}, {"type": "node", "id": 4773267814, "lat": 24.8734854, "lon": 67.0565488, "tags": {"addr:city": "Karachi", "addr:country": "PK", "addr:place": "PECHS Block 2", "addr:postcode": "75460", "addr:province": "Sindh", "addr:street": "Khalid Bin Waleed Road - PECHS", "addr:suburb": "PECHS", "is_in": "PECHS", "name": "NRW Quetta Darbar Hotel", "shop": "tea"}}, {"type": "node", "id": 5088495577, "lat": 24.8770938, "lon": 67.0593835, "tags": {"addr:city": "Karachi", "addr:country": "PK", "addr:place": "PECHS Block 3", "addr:postcode": "75460", "addr:province": "Sindh", "addr:street": "Sir Syed Road", "addr:suburb": "PECHS", "is_in": "PECHS", "name": "Quetta Al Naseeb Hotel", "shop": "tea"}}, {"type": "node", "id": 5091027056, "lat": 24.8716713, "lon": 67.0594715, "tags": {"addr:city": "Karachi", "addr:country": "PK", "addr:place": "PECHS Block 2", "addr:postcode": "75460", "addr:province": "Sindh", "addr:street": "PECHS Block 2", "addr:suburb": "PECHS", "is_in": "PECHS", "name": "New Cafe Liberty Quetta Hotel", "shop": "tea"}}, {"type": "node", "id": 5117510171, "lat": 24.9272943, "lon": 67.0885961, "tags": {"addr:city": "Karachi", "addr:street": "Rashid Minhas Road", "name": "Quetta Imtiaz Hotel", "shop": "tea"}}, {"type": "node", "id": 5121933041, "lat": 24.8577726, "lon": 67.0030131, "tags": {"addr:city": "Karachi", "addr:street": "Napier Road", "name": "Buchal Tea", "shop": "tea"}}, {"type": "node", "id": 5121933045, "lat": 24.8568241, "lon": 67.0034763, "tags": {"addr:city": "Karachi", "addr:street": "Napier Road", "name": "Metro Tea", "shop": "tea"}}, {"type": "node", "id": 5128338326, "lat": 24.9037768, "lon": 67.027122, "tags": {"addr:city": "Karachi", "addr:country": "PK", "addr:place": "Nazimabad 1", "addr:province": "Sindh", "addr:street": "Nazimabad 1", "name": "Quetta Madina Hotel", "shop": "tea"}}, {"type": "node", "id": 5128521988, "lat": 24.9115599, "lon": 67.0221954, "tags": {"addr:city": "Karachi", "addr:street": "Nazimabad 3", "name": "Cafe Abaass", "shop": "tea"}}, {"type": "node", "id": 5128521994, "lat": 24.9112101, "lon": 67.0207001, "tags": {"addr:city": "Karachi", "addr:street": "Nazimabad 3", "name": "Cafe Siraj", "shop": "tea"}}, {"type": "node", "id": 5128625129, "lat": 24.9122033, "lon": 67.0224024, "tags": {"addr:city": "Karachi", "addr:street": "Nazimabad", "name": "Alamgir Hotel", "shop": "tea"}}, {"type": "node", "id": 5130517101, "lat": 24.9213298, "lon": 67.0212809, "tags": {"addr:city": "Karachi", "addr:country": "PK", "addr:postcode": "74700", "addr:province": "Sindh", "addr:street": "Nazimabad 5", "addr:suburb": "North Nazimabad Town", "name": "A 1 Tea Store", "shop": "tea"}}, {"type": "node", "id": 5131009356, "lat": 24.8431604, "lon": 67.1605863, "tags": {"addr:city": "Karachi", "addr:street": "Korangi Industrial Area", "name": "Tea House", "shop": "tea"}}, {"type": "node", "id": 5131009361, "lat": 24.8424456, "lon": 67.1607512, "tags": {"addr:city": "Karachi", "addr:street": "Shah Muhammad Road", "name": "Paydeen Chai Wala", "shop": "tea"}}, {"type": "node", "id": 5133425778, "lat": 24.8377576, "lon": 67.1801391, "tags": {"addr:city": "Karachi", "addr:street": "Landhi", "name": "RJ Network", "shop": "tea"}}, {"type": "node", "id": 5137562838, "lat": 24.9406322, "lon": 67.0989531, "tags": {"addr:city": "Karachi", "addr:street": "Abul Hassan Isphani Road", "name": "Marhaba Tea Hotel", "shop": "tea"}}, {"type": "node", "id": 5140968912, "lat": 24.9444024, "lon": 67.0368883, "tags": {"addr:city": "Karachi", "addr:country": "PK", "addr:postcode": "74700", "addr:province": "Sindh", "addr:street": "Shahrah Noor Jahan", "addr:suburb": "North Nazimabad Town", "name": "Chai Corner", "shop": "tea"}}, {"type": "node", "id": 5143101216, "lat": 24.8660367, "lon": 67.034328, "tags": {"addr:city": "Karachi", "addr:street": "Jacob Line", "name": "Cafe Karachi Tea Hotel", "shop": "tea"}}, {"type": "node", "id": 5143300448, "lat": 24.8739448, "lon": 67.0451062, "tags": {"addr:city": "Karachi", "addr:street": "PECHSa Block 1", "name": "Dhaba Cafe", "shop": "tea"}}, {"type": "node", "id": 5146789210, "lat": 24.8814013, "lon": 67.0673363, "tags": {"addr:city": "Karachi", "addr:country": "PK", "addr:postcode": "75460", "addr:province": "Sindh", "addr:street": "Bahadurabad", "addr:suburb": "PECHS", "is_in": "PECHS", "name": "Quetta Abaseen", "shop": "tea"}}, {"type": "node", "id": 5147427837, "lat": 24.8838085, "lon": 67.0647237, "tags": {"addr:city": "Karachi", "addr:country": "PK", "addr:postcode": "75460", "addr:province": "Sindh", "addr:street": "Alamgir Road", "addr:suburb": "PECHS", "is_in": "PECHS", "name": "Quetta MASHA ALLAH", "shop": "tea"}}, {"type": "node", "id": 5147519461, "lat": 24.8817549, "lon": 67.0631553, "tags": {"addr:city": "Karachi", "addr:country": "PK", "addr:postcode": "75460", "addr:province": "Sindh", "addr:street": "Jamaluddin Afghani Road", "addr:suburb": "PECHS", "is_in": "PECHS", "name": "Desi Chai Baithak", "shop": "tea"}}, {"type": "node", "id": 5147639135, "lat": 24.8849838, "lon": 67.0653787, "tags": {"addr:city": "Karachi", "addr:street": "BMCHS Road No. 11", "name": "Tea Town Cafe", "shop": "tea"}}, {"type": "node", "id": 5157372311, "lat": 24.9406639, "lon": 67.0129653, "tags": {"addr:city": "Karachi", "addr:street": "Orangi Town", "name": "Munna chai hotel", "shop": "tea"}}, {"type": "node", "id": 5172511734, "lat": 24.927804, "lon": 67.0427048, "tags": {"addr:city": "Karachi", "addr:country": "PK", "addr:place": "North Nazimabad Block F", "addr:postcode": "74700", "addr:province": "Sindh", "addr:street": "Shahrah e Humayun", "addr:suburb": "North Nazimabad Town", "name": "Carachi Chai", "shop": "tea"}}, {"type": "node", "id": 5175883631, "lat": 24.9412043, "lon": 67.058385, "tags": {"addr:city": "Karachi", "addr:country": "PK", "addr:place": "North Nazimabad Block L", "addr:postcode": "74700", "addr:province": "Sindh", "addr:street": "North Nazimabad Block L", "addr:suburb": "North Nazimabad Town", "name": "Rashid Gul Hotel", "shop": "tea"}}, {"type": "node", "id": 5175883666, "lat": 24.94091, "lon": 67.0598482, "tags": {"addr:city": "Karachi", "addr:country": "PK", "addr:place": "North Nazimabad Block L", "addr:postcode": "74700", "addr:province": "Sindh", "addr:street": "Allama Rasheed Turabi Road", "addr:suburb": "North Nazimabad Town", "name": "New Quetta Sadam Hotel", "shop": "tea"}}, {"type": "node", "id": 5185754377, "lat": 24.9477451, "lon": 67.0540197, "tags": {"addr:city": "Karachi", "addr:country": "PK", "addr:place": "North Nazimabad Block M", "addr:postcode": "74700", "addr:province": "Sindh", "addr:street": "North Nazimabad Block M", "addr:suburb": "North Nazimabad Town", "name": "Cafe Quetta Ajwa Hotel", "shop": "tea"}}, {"type": "node", "id": 5185956552, "lat": 24.9469304, "lon": 67.0535088, "tags": {"addr:city": "Karachi", "addr:country": "PK", "addr:place": "North Nazimabad Block M", "addr:postcode": "74700", "addr:province": "Sindh", "addr:street": "North Nazimabad Block M", "addr:suburb": "North Nazimabad Town", "name": "Ayyub Tea Hotel", "shop": "tea"}}, {"type": "node", "id": 5226070180, "lat": 24.9335187, "lon": 67.0311378, "tags": {"addr:city": "Karachi", "addr:country": "PK", "addr:place": "North Nazimabad Block A", "addr:postcode": "74700", "addr:province": "Sindh", "addr:street": "Qazi Musarrat Street", "addr:suburb": "North Nazimabad Town", "name": "Karachi Shandar Hotel", "shop": "tea"}}, {"type": "node", "id": 5253648581, "lat": 27.6881491, "lon": 68.8566, "tags": {"addr:city": "Sukkur", "addr:street": "Labe Mehran Road", "name": "Cafe Tea Point", "shop": "tea"}}, {"type": "node", "id": 5267407154, "lat": 31.5478608, "lon": 74.3570807, "tags": {"addr:city": "Lahore", "addr:street": "UBD Canal Bank Road", "name": "Skiandar Store", "opening_hours": "Mo-Su 10:00-22:00", "shop": "tea"}}, {"type": "node", "id": 5279568795, "lat": 31.5087799, "lon": 73.1095864, "tags": {"addr:city": "Faisalabad", "addr:street": "Millat Road", "name": "Tea House", "shop": "tea"}}, {"type": "node", "id": 5316245242, "lat": 24.9240634, "lon": 67.1377222, "tags": {"addr:city": "Karachi", "addr:street": "Johar Road", "name": "Quetta Tea Hotel", "shop": "tea"}}, {"type": "node", "id": 5926836274, "lat": 24.8483888, "lon": 67.066279, "tags": {"name": "Quetta Hotel", "shop": "tea"}}, {"type": "node", "id": 5961571130, "lat": 24.8448703, "lon": 67.0682389, "tags": {"name": "Quetta", "shop": "tea"}}, {"type": "node", "id": 6012416809, "lat": 24.8475051, "lon": 67.0695178, "tags": {"name": "New Subhan Quetta Hotel", "shop": "tea"}}, {"type": "node", "id": 6539484547, "lat": 24.8436154, "lon": 67.0199727, "tags": {"name": "tea shop", "shop": "tea"}}, {"type": "node", "id": 4319176093, "lat": 30.0702027, "lon": 71.3185958, "tags": {"name": "Multan Fish Farms", "shop": "seafood"}}, {"type": "node", "id": 4476249290, "lat": 34.1664502, "lon": 71.5935218, "tags": {"addr:postcode": "24630", "addr:street": "Shabqdar Road", "name": "Seafood Shop", "opening_hours": "Mo-Su 09:00-23:00", "shop": "seafood"}}, {"type": "node", "id": 4476250690, "lat": 34.1660869, "lon": 71.5936746, "tags": {"addr:postcode": "24630", "addr:street": "Peshawar Road", "name": "Seafood Shop", "opening_hours": "Mo-Su 09:00-23:00", "shop": "seafood"}}, {"type": "node", "id": 4476251690, "lat": 34.1661857, "lon": 71.5933765, "tags": {"addr:postcode": "24630", "addr:street": "shabqadar road", "name": "Seafood Shop", "opening_hours": "Mo-Su 09:00-23:00", "shop": "seafood"}}, {"type": "node", "id": 4476251691, "lat": 34.1642494, "lon": 71.5921728, "tags": {"addr:postcode": "24630", "addr:street": "Shabqadar Road", "name": "Seafood Shop", "opening_hours": "Mo-Su 09:00-23:00", "shop": "seafood"}}, {"type": "node", "id": 4572621491, "lat": 34.2050759, "lon": 71.5367679, "tags": {"addr:postcode": "24630", "addr:street": "Subhan Khwar Shabqadar Road", "name": "Seafood", "phone": "03349109937", "shop": "seafood"}}, {"type": "node", "id": 4581606589, "lat": 33.6619577, "lon": 73.0673938, "tags": {"name": "fish point", "name:en": "fish point", "shop": "seafood"}}, {"type": "node", "id": 4798720932, "lat": 24.8307004, "lon": 67.0415385, "tags": {"addr:city": "Karachi", "addr:street": "Khaleeq uz Zaman Road", "name": "Baba Fish House", "shop": "seafood"}}, {"type": "node", "id": 4798720938, "lat": 24.8329128, "lon": 67.039381, "tags": {"addr:city": "Karachi", "addr:place": "Clifton Block 8", "addr:street": "Khaleeq uz Zaman Road", "name": "Fish One", "shop": "seafood"}}, {"type": "node", "id": 5003421623, "lat": 34.1313403, "lon": 71.6907145, "tags": {"name": "fish hutt", "name:en": "fish hutt", "shop": "seafood"}}, {"type": "node", "id": 5153781727, "lat": 24.7845102, "lon": 67.1409848, "tags": {"addr:city": "Karachi", "addr:street": "Korangi Creek", "name": "Ibrahim Haidery Fishry", "shop": "seafood"}}, {"type": "node", "id": 6207358485, "lat": 24.7934435, "lon": 66.8835996, "tags": {"name": "toshiram main big phugya", "name:en": "toshiram main big phugya", "shop": "seafood"}}, {"type": "node", "id": 6534025086, "lat": 35.4157506, "lon": 72.1755021, "tags": {"name": "Fish Form", "shop": "seafood"}}, {"type": "node", "id": 6563488385, "lat": 34.2772322, "lon": 72.1477469, "tags": {"addr:housenumber": "1", "addr:postcode": "23200", "addr:street": "Bakhshali Road", "name": "Fish Hut", "opening_hours": "24/7", "shop": "seafood"}}, {"type": "node", "id": 1096925210, "lat": 25.3651731, "lon": 68.3660244, "tags": {"shop": "fishmonger"}}, {"type": "node", "id": 1096925213, "lat": 25.3652725, "lon": 68.3660432, "tags": {"shop": "fishmonger"}}]}