{"version": 0.6, "generator": "Overpass API 0.7.55.7 8b86ff77", "osm3s": {"timestamp_osm_base": "2019-07-30T13:08:02Z", "timestamp_areas_base": "2019-07-30T12:41:02Z", "copyright": "The data included in this document is from www.openstreetmap.org. The data is made available under ODbL."}, "elements": [{"type": "node", "id": 51230674, "lat": 59.381219, "lon": 17.8986158, "tags": {"addr:city": "Sp\u00e5nga", "addr:country": "SE", "addr:housenumber": "10", "addr:postcode": "163 51", "addr:street": "Sp\u00e5nga Torgv\u00e4g", "name": "Dennis K\u00f6tt & Charkuteri", "shop": "butcher", "source": "survey", "url": "http://www.denniskott.se/"}}, {"type": "node", "id": 361203804, "lat": 59.4582862, "lon": 17.923345, "tags": {"addr:city": "Sollentuna", "addr:country": "SE", "addr:housenumber": "2A", "addr:postcode": "192 67", "addr:street": "Kistav\u00e4gen", "name": "Percy's K\u00f6tt", "postal_code": "192 67", "shop": "butcher", "website": "www.percys.se"}}, {"type": "node", "id": 473009504, "lat": 63.7929437, "lon": 19.5697295, "tags": {"name": "\u00c5br\u00e5nets Limousin", "shop": "butcher"}}, {"type": "node", "id": 503107783, "lat": 65.7114079, "lon": 14.6138738, "tags": {"name": "T\u00e4rna Vilt, butikken", "shop": "butcher", "snowmobile": "yes"}}, {"type": "node", "id": 503187426, "lat": 61.8394583, "lon": 16.5472125, "tags": {"name": "Kristians g\u00e5rdsbutik", "shop": "butcher"}}, {"type": "node", "id": 819244908, "lat": 58.5075092, "lon": 15.9757275, "tags": {"addr:country": "SE", "addr:housenumber": "3", "addr:street": "Slussv\u00e4gen", "name": "Britta & Lennarts n\u00e4ra k\u00f6tt", "shop": "butcher"}}, {"type": "node", "id": 822258512, "lat": 57.1674561, "lon": 16.9940615, "tags": {"name": "Rosas", "shop": "butcher"}}, {"type": "node", "id": 883471949, "lat": 55.5932579, "lon": 13.0052529, "tags": {"addr:city": "Malm\u00f6", "addr:country": "SE", "addr:housenumber": "78", "addr:postcode": "214 20", "addr:street": "S\u00f6dra F\u00f6rstadsgatan", "name": "Triangelns K\u00f6tthandel", "shop": "butcher", "wheelchair": "yes"}}, {"type": "node", "id": 1171962897, "lat": 59.4098762, "lon": 17.9623197, "tags": {"name": "H\u00e5kan K\u00f6tt och Delikatess", "opening_hours": "Mo-Fr 10:00-18:00 Sa 10:00-15:00", "shop": "butcher"}}, {"type": "node", "id": 1204148709, "lat": 56.9434985, "lon": 12.3885668, "tags": {"name": "Thuressons G\u00e5rdsslakteri", "shop": "butcher"}}, {"type": "node", "id": 1279080918, "lat": 55.7051233, "lon": 13.1881422, "tags": {"name": "Ingelsta kalkon", "opening_hours": "Mo-Fr 10:00-18:00, Sa 10:00-14:00", "shop": "butcher", "wheelchair": "yes"}}, {"type": "node", "id": 1313226975, "lat": 58.5892673, "lon": 16.1857915, "tags": {"name": "Bitta och Lennarts N\u00e4ra K\u00f6tt", "shop": "butcher"}}, {"type": "node", "id": 1332646382, "lat": 59.2945498, "lon": 18.0326246, "tags": {"addr:country": "SE", "addr:housenumber": "14", "addr:street": "Marknadsv\u00e4gen", "name": "Tahira.com", "shop": "butcher"}}, {"type": "node", "id": 1365782610, "lat": 59.944416, "lon": 18.7919005, "tags": {"name": "Musk\u00f6 r\u00f6keri", "shop": "butcher"}}, {"type": "node", "id": 1385848148, "lat": 60.5524675, "lon": 14.3715883, "tags": {"name": "Gubbg\u00e5rdens slakteri", "old_name": "J\u00e4rnabygdens slakteri", "shop": "butcher"}}, {"type": "node", "id": 1505648494, "lat": 55.7763393, "lon": 14.1004074, "tags": {"name": "Lillehems Utegrisar", "shop": "butcher"}}, {"type": "node", "id": 1547236389, "lat": 59.3142339, "lon": 18.0707818, "tags": {"name": "Lulles", "phone": "+46-8-6448696", "shop": "butcher", "website": "www.lulles.se", "wheelchair": "yes"}}, {"type": "node", "id": 1562932501, "lat": 56.0419837, "lon": 12.7147547, "tags": {"name": "H\u00f6gaborg k\u00f6tt & chark", "phone": "+46 42 216900", "shop": "butcher"}}, {"type": "node", "id": 1576235296, "lat": 55.9298066, "lon": 14.2918679, "tags": {"shop": "butcher"}}, {"type": "node", "id": 1875710422, "lat": 57.122444, "lon": 12.2646175, "tags": {"name": "\u00c5rn\u00e4s K\u00f6tt & Charkdelikatesser", "shop": "butcher"}}, {"type": "node", "id": 1934607843, "lat": 55.6871241, "lon": 14.2277879, "tags": {"email": "butik@olafiskareskott.se", "name": "Ola fiskares k\u00f6ttbutik", "opening_hours": "Fr-Su 11:00-17:00", "phone": "+46 414 70700", "shop": "butcher", "website": "http://www.olafiskareskott.se/"}}, {"type": "node", "id": 2139231453, "lat": 57.7119011, "lon": 11.8915912, "tags": {"name": "Hisingens K\u00f6tthall", "opening_hours": "Mo-Fr 10:00-18:00; Sa 10:00-17:00", "shop": "butcher"}}, {"type": "node", "id": 2343492297, "lat": 56.2303028, "lon": 15.1148259, "tags": {"name": "Victor Olssons Chark", "opening_hours": "Fr 10:00-18:00;Sa 10:00-13:00", "phone": "+46 457 81005;+46 703 748065", "shop": "butcher", "website": "https://wiktorolssons.se/"}}, {"type": "node", "id": 2353645998, "lat": 60.544805, "lon": 15.5470922, "tags": {"name": "Bj\u00f6rsbo G\u00e5rdsslakteri", "shop": "butcher", "source": "survey", "website": "https://www.bjorsbogard.se/"}}, {"type": "node", "id": 2427537275, "lat": 63.731292, "lon": 15.4858698, "tags": {"name": "Hallvikens chark och styckning AB", "shop": "butcher"}}, {"type": "node", "id": 2440617161, "lat": 59.6264822, "lon": 14.9284434, "tags": {"name": "Tjurskallen", "shop": "butcher"}}, {"type": "node", "id": 2640791056, "lat": 59.0641598, "lon": 17.6060033, "tags": {"addr:city": "J\u00e4rna", "addr:country": "SE", "addr:housenumber": "5", "addr:postcode": "153 91", "addr:street": "Stensta", "shop": "butcher", "website": "http://www.devilda.se"}}, {"type": "node", "id": 2715607536, "lat": 55.588879, "lon": 13.007464, "tags": {"name": "Konya Mevlana", "shop": "butcher"}}, {"type": "node", "id": 2747390796, "lat": 55.5788481, "lon": 13.0356544, "tags": {"name": "Bulltofta K\u00f6tt", "shop": "butcher", "wheelchair": "no"}}, {"type": "node", "id": 3402696479, "lat": 55.5998, "lon": 13.008233, "tags": {"addr:city": "Malm\u00f6", "addr:country": "SE", "addr:housenumber": "10", "addr:postcode": "211 55", "addr:street": "Amiralsgatan", "name": "K\u00f6tt vilt deli", "shop": "butcher", "website": "http://www.viltspecialisten.se/"}}, {"type": "node", "id": 3595880923, "lat": 59.3236708, "lon": 17.9569248, "tags": {"addr:city": "Bromma", "addr:country": "SE", "addr:housenumber": "15", "addr:postcode": "167 65", "addr:street": "\u00c5lstensgatan", "alt_name": "Kalaset k\u00f6tt", "name": "\u00c5lstens k\u00f6tt", "opening_hours": "Tu-Th 11:00-18:00; Fr 11:00-19:00; Sa 11:00-15:00; Su-Mo off", "shop": "butcher", "website": "https://sv-se.facebook.com/pages/\u00c5lstens-k\u00f6tt", "wheelchair": "no"}}, {"type": "node", "id": 3606000598, "lat": 67.1278986, "lon": 20.6602648, "tags": {"name": "Karlgrens Slakteri AB / Vilt og Fiske", "phone": "+46 970 772258", "shop": "butcher", "website": "http://www.karlgrens.se/"}}, {"type": "node", "id": 3657929660, "lat": 57.1469779, "lon": 15.6622431, "tags": {"shop": "butcher"}}, {"type": "node", "id": 3674018652, "lat": 58.7840145, "lon": 12.1809544, "tags": {"opening_hours": "Th-Fr 10:00-18:00", "operator": "Axel Chark", "shop": "butcher"}}, {"type": "node", "id": 3778749804, "lat": 55.6730787, "lon": 13.0698549, "tags": {"amenity": "restaurant", "name": "Slaktaren", "outdoor_seating": "yes", "shop": "butcher"}}, {"type": "node", "id": 3873797949, "lat": 62.4637203, "lon": 17.2533279, "tags": {"name": "\u00d6rjans K\u00f6tt & Chark", "shop": "butcher"}}, {"type": "node", "id": 3939363661, "lat": 59.2780307, "lon": 15.2044257, "tags": {"addr:city": "\u00d6rebro", "addr:street": "L\u00f6vstagatan", "name": "K\u00f6tthandlar'n", "shop": "butcher", "wheelchair": "no"}}, {"type": "node", "id": 4300514203, "lat": 58.2222626, "lon": 11.9194818, "tags": {"addr:city": "Ljungskile", "addr:country": "SE", "addr:housenumber": "4A", "addr:street": "V\u00e4llebergsv\u00e4gen", "contact:email": "info@ljungskilechark.se", "contact:phone": "+46 736-457369", "contact:website": "http://www.ljungskilechark.se/", "name": "Ljungskile Chark", "shop": "butcher"}}, {"type": "node", "id": 4353066428, "lat": 63.3211518, "lon": 13.2334084, "tags": {"name": "Unders\u00e5ker charkuteriefabrik", "shop": "butcher"}}, {"type": "node", "id": 4422307291, "lat": 66.3483218, "lon": 22.821499, "tags": {"name": "Pondus", "shop": "butcher"}}, {"type": "node", "id": 4457896535, "lat": 56.2460401, "lon": 15.2861352, "tags": {"name": "Kallinge K\u00f6tt", "shop": "butcher"}}, {"type": "node", "id": 4496973299, "lat": 55.6079241, "lon": 12.9909694, "tags": {"name": "Limhamns K\u00f6tt & Vilt", "shop": "butcher"}}, {"type": "node", "id": 4534397102, "lat": 68.4387905, "lon": 22.4679806, "tags": {"addr:city": "KARESUANDO", "addr:country": "SE", "addr:housename": "K\u00f6tthallen", "addr:housenumber": "70", "addr:postcode": "980 16", "addr:street": "Laestadiusv\u00e4gen", "name": "K\u00f6tthallen", "opening_hours": "Mo-Fr 07:00-16:00; Sa-Su off", "operator": "W Eliassons Partiaff\u00e4r AB", "phone": "+4698120048", "shop": "butcher", "website": "http://www.renvilt.com"}}, {"type": "node", "id": 4770877914, "lat": 56.1041103, "lon": 13.915933, "tags": {"name": "K\u00f6ttboden", "shop": "butcher"}}, {"type": "node", "id": 4790398321, "lat": 55.5168338, "lon": 13.2430176, "tags": {"name": "Chark & Grillgrossisten", "name:sv": "Chark & Grillgrossisten", "opening_hours": "Mo-Fr 10:00-18:00; Sa 10:00-15:00", "shop": "butcher"}}, {"type": "node", "id": 4862701641, "lat": 57.7171025, "lon": 12.0323528, "tags": {"addr:country": "SE", "addr:housenumber": "51", "addr:street": "Bj\u00f6rcksgatan", "name": "John Karlssons K\u00f6tt & Chark", "shop": "butcher", "website": "http://www.johnkarlssons.se/"}}, {"type": "node", "id": 4896162411, "lat": 59.0538117, "lon": 12.7057037, "tags": {"diet:halal": "yes", "name": "Bana", "shop": "butcher"}}, {"type": "node", "id": 4922804338, "lat": 55.6030504, "lon": 13.642708, "tags": {"addr:city": "Blentarp", "addr:country": "SE", "addr:housenumber": "147", "addr:postcode": "27562", "addr:street": "Klingav\u00e4gen", "name": "Karups Nyg\u00e5rd", "opening_hours": "\"by appointment\"", "shop": "butcher", "website": "http://www.karupsnygard.se/"}}, {"type": "node", "id": 4983198299, "lat": 64.1985136, "lon": 19.7174146, "tags": {"name": "Vindelnr\u00f6kt g\u00e5rdsbutik", "opening_hours": "Th-Fr 10:00-16:00", "shop": "butcher"}}, {"type": "node", "id": 5169210923, "lat": 58.3748247, "lon": 15.7090061, "tags": {"addr:city": "Link\u00f6ping", "addr:country": "SE", "addr:housenumber": "38", "addr:street": "Hjulsbrov\u00e4gen", "email": "mathias@franzensekokott.se", "name": "Franz\u00e9ns ekok\u00f6tt", "opening_hours": "Th-Fr 11:00-18:00; Sa 11:00-14:00", "phone": "+46 733-30 90 59", "shop": "butcher", "website": "http://franzensekokott.se/"}}, {"type": "node", "id": 5352215415, "lat": 56.8399784, "lon": 12.7209471, "tags": {"name": "Mostorps G\u00e5rdsbutik", "shop": "butcher"}}, {"type": "node", "id": 5407102271, "lat": 55.9343154, "lon": 13.5420214, "tags": {"name": "Storgatans K\u00f6tt & Chark", "opening_hours": "Th-Fr 10:00-18:00; Sa 10:00-13:00", "shop": "butcher"}}, {"type": "node", "id": 5732143886, "lat": 57.8909128, "lon": 12.0282134, "tags": {"addr:city": "Kung\u00e4lv", "addr:country": "SE", "addr:housenumber": "260", "addr:postcode": "44249", "addr:street": "Marieberg", "contact:facebook": "https://www.facebook.com/Mariebergs-G%C3%A5rdsbutik-i-Kung%C3%A4lv-1406737822949638/", "name": "Mariebergs g\u00e5rdsbutik", "opening_hours": "Th 16:00-19:00, Sa 10:00-15:00", "organic": "only", "shop": "butcher", "website": "http://www.mariebergsgardsbutik.se/"}}, {"type": "node", "id": 5829563524, "lat": 59.6355515, "lon": 18.6895162, "tags": {"name": "M\u00f6rtsunda G\u00e5rd", "shop": "butcher", "source": "survey", "website": "www.mortsunda.se"}}, {"type": "node", "id": 5868610785, "lat": 57.7039699, "lon": 13.0679861, "tags": {"name": "Dalsj\u00f6fors K\u00f6tt", "shop": "butcher"}}, {"type": "node", "id": 6387783545, "lat": 58.1294219, "lon": 11.7228133, "tags": {"addr:city": "Varekil", "addr:housenumber": "126", "addr:postcode": "472 95", "addr:street": "Lundby", "name": "RJ N\u00e4rproducerat AB", "shop": "butcher"}}, {"type": "node", "id": 6428083433, "lat": 59.32874, "lon": 18.0459172, "tags": {"bulk_purchase": "yes", "name": "Taylors & Jones", "opening_hours": "Mo-Fr 09:00-18:00", "phone": "+46 8 651 29 10", "shop": "butcher", "website": "https://taylorsandjones.com/"}}, {"type": "node", "id": 288601587, "lat": 56.3921236, "lon": 13.3111518, "tags": {"name": "Holmana", "organic": "yes", "shop": "deli"}}, {"type": "node", "id": 436642512, "lat": 58.4431193, "lon": 14.9312949, "tags": {"amenity": "restaurant", "name": "Bondg\u00e5rd 206", "shop": "deli"}}, {"type": "node", "id": 503682501, "lat": 59.3158055, "lon": 18.0112277, "tags": {"name": "Gr\u00f6ndals Deli", "opening_hours": "Mo-Fr 08:00-20:00;Sa-Su 11:00-17:00", "phone": "+46-8-6455169", "shop": "deli", "website": "https://grondalsdeli.se/", "wheelchair": "no"}}, {"type": "node", "id": 667078976, "lat": 58.4103158, "lon": 15.6195573, "tags": {"addr:city": "Link\u00f6ping", "addr:country": "SE", "addr:housenumber": "54", "addr:postcode": "582 28", "addr:street": "Storgatan", "name": "Norins ost", "opening_hours": "Mo-Fr 10:00-18:00, Sa 10:00-15:00", "shop": "deli"}}, {"type": "node", "id": 668770700, "lat": 57.7055311, "lon": 11.9367709, "tags": {"alt_name": "Esters caf\u00e9", "amenity": "restaurant", "cuisine": "coffee_shop", "name": "Esters Salutorg", "opening_hours": "Mo-Fr 09:30-14:30", "shop": "deli"}}, {"type": "node", "id": 676743400, "lat": 56.0523377, "lon": 12.6870299, "tags": {"addr:city": "Helsingborg", "addr:country": "SE", "addr:housenumber": "100", "addr:street": "Drottninggatan", "cheese": "yes", "contact:email": "hallenhbg@gmail.com", "contact:phone": "+46 42-303 49 81", "contact:website": "https://www.hallenhbg.se/", "name": "Hallen", "opening_hours": "Mo-Sa 10:00-19:00; Fr 10:00-21:00", "seafood": "no", "shop": "deli", "wheelchair": "no"}}, {"type": "node", "id": 914809272, "lat": 58.4112985, "lon": 15.628072, "tags": {"name": "Dolce delikatesser", "shop": "deli"}}, {"type": "node", "id": 914809298, "lat": 58.4115024, "lon": 15.6299431, "tags": {"addr:country": "SE", "addr:housenumber": "6", "addr:postcode": "582 23", "addr:street": "Storgatan", "name": "Siam Shop", "opening_hours": "Mo-Fr 10:00-18:00; Sa 10:00-15:00; Su 11:00-15:00", "phone": "+46 13-12 12 13", "shop": "deli"}}, {"type": "node", "id": 976738216, "lat": 56.1572657, "lon": 14.884702, "tags": {"name": "W\u00e4gga Fisk- & Delikatessr\u00f6keri", "shop": "deli", "website": "https://www.delikatessrokeri.se/"}}, {"type": "node", "id": 1127865440, "lat": 56.8346148, "lon": 13.9422124, "tags": {"addr:street": "F\u00f6reningsgatan", "name": "Matmagasinet", "shop": "deli"}}, {"type": "node", "id": 1211807289, "lat": 55.5913843, "lon": 13.0070998, "tags": {"name": "M\u00f6llans Ost", "shop": "deli"}}, {"type": "node", "id": 1225095857, "lat": 55.7063946, "lon": 13.1927317, "tags": {"name": "Reko Deli", "shop": "deli", "website": "http://rekodeli.se/", "wheelchair": "limited"}}, {"type": "node", "id": 1225095860, "lat": 55.7041489, "lon": 13.1899142, "tags": {"name": "Bengtssons ost", "shop": "deli"}}, {"type": "node", "id": 1233020645, "lat": 62.3893601, "lon": 17.3012297, "tags": {"name": "Hellgrens Deli", "shop": "deli"}}, {"type": "node", "id": 1286550518, "lat": 56.0485065, "lon": 12.6894621, "tags": {"amenity": "restaurant", "name": "Lagmark gastronomi", "opening_hours": "Mo-We 11:30-18:00; Th-Fr 11:30-23:00; Sa 11:30-18:00", "phone": "+46 42 148575", "shop": "deli", "website": "http://www.lagmark.se/"}}, {"type": "node", "id": 1329575806, "lat": 56.048888, "lon": 12.6914168, "tags": {"addr:city": "Helsingborg", "addr:country": "SE", "addr:housenumber": "3", "addr:postcode": "252 20", "addr:street": "\u00c5lgr\u00e4nden", "email": "info@ostboden.se", "name": "\u00c5lgr\u00e4ndens Ost & Delikatesser", "phone": "+46 42 149645", "shop": "deli", "website": "http://www.algrandensost.se/"}}, {"type": "node", "id": 1349204484, "lat": 63.8249299, "lon": 20.2608534, "tags": {"addr:city": "Ume\u00e5", "addr:country": "SE", "addr:housenumber": "46", "addr:postcode": "903 26", "addr:street": "Storgatan", "name": "DU\u00c5", "name_1": "Open/Closed", "shop": "deli", "website": "http://www.duaumea.se/"}}, {"type": "node", "id": 1366732959, "lat": 63.1752055, "lon": 14.636388, "tags": {"addr:city": "\u00d6stersund", "addr:country": "SE", "addr:housenumber": "9", "addr:street": "Thom\u00e9egr\u00e4nd", "name": "Gr\u00e4ndens deli", "shop": "deli"}}, {"type": "node", "id": 1388384376, "lat": 59.3365519, "lon": 18.0757289, "tags": {"name": "Ingelsta kalkon", "opening_hours": "Mo-Fr 10:00-18:00;Sa 10:00-14:00;Su off", "phone": "+4686603366", "shop": "deli", "website": "https://www.ingelstakalkon.se/"}}, {"type": "node", "id": 1582408012, "lat": 59.3764581, "lon": 17.0297844, "tags": {"name": "Ostaff\u00e4ren", "shop": "deli"}}, {"type": "node", "id": 1670510427, "lat": 55.6640629, "lon": 13.3460137, "tags": {"name": "Systrarna Nymans Kaffe & Deli", "opening_hours": "Mo-Fr 10:00-18:00;Sa 10:00-14:00", "shop": "deli"}}, {"type": "node", "id": 1685947838, "lat": 55.7017856, "lon": 13.1946575, "tags": {"name": "Holmgrens & co", "note": "sausage", "shop": "deli"}}, {"type": "node", "id": 1685947839, "lat": 55.701595, "lon": 13.1946987, "tags": {"cuisine": "seafood", "name": "Malmstens fisk & k\u00f6k", "note": "fish", "shop": "deli"}}, {"type": "node", "id": 1685947879, "lat": 55.7017083, "lon": 13.1949541, "tags": {"name": "Osthuset", "note": "cheese", "shop": "deli"}}, {"type": "node", "id": 1688786605, "lat": 55.7040257, "lon": 13.189664, "tags": {"name": "Grand Deli", "shop": "deli"}}, {"type": "node", "id": 1716367101, "lat": 55.4953961, "lon": 14.1829734, "tags": {"name": "Gunnarsh\u00f6gs G\u00e5rdsbutik", "shop": "deli"}}, {"type": "node", "id": 1716367271, "lat": 55.467112, "lon": 13.9283805, "tags": {"addr:city": "K\u00f6pingebro", "addr:country": "SE", "addr:housenumber": "363", "addr:postcode": "27022", "addr:street": "Karlsf\u00e4ltsv\u00e4gen", "description": "Home made ice cream, local organic spices, and a conference center for 30-60 people.", "email": "info@osterlenkryddor.se", "name": "\u00d6sterlenkryddor", "opening_hours": "Mo-Fr 10:00-18:00,Sa-Su 10:00-15:00", "shop": "deli", "website": "https://www.osterlenkryddor.se/"}}, {"type": "node", "id": 1765365666, "lat": 55.7013524, "lon": 13.1976, "tags": {"amenity": "restaurant", "contact:website": "http://www.korvhuset.com/", "name": "Korvhuset", "opening_hours": "Mo-Fr 11:00-18:00; Sa 11:00-16:00; Su 12:00-16:00", "shop": "deli", "website": "http://www.korvhuset.com/"}}, {"type": "node", "id": 1781742668, "lat": 57.6934522, "lon": 11.956322, "tags": {"addr:city": "G\u00f6teborg", "addr:country": "SE", "addr:housenumber": "21", "addr:postcode": "41314", "addr:street": "\u00d6vre Husargatan", "contact:email": "info@delitalia.se", "contact:phone": "+46-31-711 02 47", "contact:website": "http://www.delitalia.se/", "cuisine": "italian", "name": "Delitalia", "opening_hours": "Mo-Fr 11:00-18:00; Sa 11:00-15:00", "shop": "deli"}}, {"type": "node", "id": 1809420023, "lat": 57.6914949, "lon": 11.9811891, "tags": {"name": "Yrdeli", "opening_hours:signed": "no", "shop": "deli"}}, {"type": "node", "id": 1827373982, "lat": 64.6464397, "lon": 16.6162083, "tags": {"name": "Vilhelmina g\u00e5rdsbutik", "shop": "deli"}}, {"type": "node", "id": 1834482690, "lat": 60.6718522, "lon": 17.1474481, "tags": {"name": "S\u00f6ders Deli", "shop": "deli"}}, {"type": "node", "id": 1836787390, "lat": 57.4883096, "lon": 12.0771868, "tags": {"name": "Te experten", "shop": "deli"}}, {"type": "node", "id": 1843197088, "lat": 56.0289367, "lon": 14.1578378, "tags": {"contact:email": "info@ohlssonsost.se", "contact:phone": "+46 44 210110", "contact:website": "http://www.ohlssonsost.se/", "name": "Ohlssons Ost & Delikatesser", "opening_hours": "Mo-Fr 09:00-18:00; Sa 10:00-15:00", "shop": "deli", "wheelchair": "yes"}}, {"type": "node", "id": 1902750757, "lat": 59.339993, "lon": 18.046854, "tags": {"amenity": "restaurant", "cuisine": "fish", "name": "Melanders", "shop": "deli", "website": "http://www.melanders.se/Dalagatan.php"}}, {"type": "node", "id": 1950611134, "lat": 55.6783354, "lon": 14.2384746, "tags": {"name": "Kivik\u00e5s", "shop": "deli"}}, {"type": "node", "id": 2027288008, "lat": 57.7121946, "lon": 11.9994123, "tags": {"name": "V\u00e4xtdelikatessen", "opening_hours": "Fr 11:30-15:00", "shop": "deli", "website": "http://www.vxtdeli.se"}}, {"type": "node", "id": 2057864281, "lat": 63.6872655, "lon": 20.300843, "tags": {"name": "Gamla salteriet", "shop": "deli", "website": "http://www.gamlasalteriet.se/"}}, {"type": "node", "id": 2058308108, "lat": 59.861239, "lon": 17.6293301, "tags": {"cuisine": "chinese", "name": "Huj Bai Jia", "shop": "deli"}}, {"type": "node", "id": 2078806872, "lat": 57.700188, "lon": 11.974742, "tags": {"name": "Avenyns H\u00e4lsokost", "opening_hours": "Mo-Fr 10:00-19:00; Sa 10:00-17:00", "shop": "deli"}}, {"type": "node", "id": 2144014664, "lat": 57.70518, "lon": 11.96734, "tags": {"name": "Downtown Deli", "shop": "deli"}}, {"type": "node", "id": 2151827024, "lat": 57.7037954, "lon": 11.9687074, "tags": {"amenity": "restaurant", "cuisine": "italian", "name": "Aldardo", "shop": "deli", "wheelchair": "no"}}, {"type": "node", "id": 2214756312, "lat": 57.7149525, "lon": 11.998487, "tags": {"addr:country": "SE", "addr:housenumber": "4", "addr:street": "Olskrokstorget", "name": "Mer \u00e4n Ost", "opening_hours": "Mo-Fr 10:00-18:00; Sa 09:00-15:00", "shop": "deli"}}, {"type": "node", "id": 2239356001, "lat": 60.3391675, "lon": 18.4405402, "tags": {"name": "\u00d6regrunds Skafferi", "shop": "deli"}}, {"type": "node", "id": 2283252953, "lat": 55.701694, "lon": 13.1947754, "tags": {"name": "Bj\u00e4ref\u00e5gel", "shop": "deli"}}, {"type": "node", "id": 2283252958, "lat": 55.7015691, "lon": 13.1947916, "tags": {"name": "Widerbergs Gr\u00f6na Deli", "shop": "deli"}}, {"type": "node", "id": 2286832064, "lat": 59.4214459, "lon": 16.4701448, "tags": {"addr:country": "SE", "addr:housenumber": "23", "addr:postcode": "64431", "addr:street": "Storgatan", "name": "Torsh\u00e4lla Delikatesser", "shop": "deli", "website": "http://www.torshalladelikatesser.se/"}}, {"type": "node", "id": 2293729001, "lat": 55.6047664, "lon": 12.9994313, "tags": {"name": "Osthuset f\u00f6r gourmeter", "opening_hours": "Mo-Fr 10:00-18:00; Sa 10:00-16:00; Su off", "shop": "deli"}}, {"type": "node", "id": 2298272167, "lat": 55.6758084, "lon": 13.0652552, "tags": {"addr:city": "Lomma", "addr:country": "SE", "addr:housenumber": "8", "addr:street": "Kajgatan", "name": "Seaside Deli", "opening_hours": "Tu-Fr 11:00-18:00;Sa 10:00-15:00", "phone": "+46-40-41\u200616\u200610", "shop": "deli", "source": "http://www.seasidedeli.se/", "wheelchair": "yes"}}, {"type": "node", "id": 2311493367, "lat": 60.4769859, "lon": 15.433208, "tags": {"contact:phone": "+46-243-793454", "cuisine": "thai;nordic", "name": "Noi's Thaibutik Nordiska Delikatesser", "opening_hours": "Mo 10:00-17:00; Tu 11:00-18:00; We-Fr 10:00-18:00; Sa 10:00-16:00", "shop": "deli"}}, {"type": "node", "id": 2315968099, "lat": 57.7032039, "lon": 11.956902, "tags": {"name": "Extreme Food", "shop": "deli"}}, {"type": "node", "id": 2334787613, "lat": 59.3300056, "lon": 18.0635281, "tags": {"cuisine": "polish", "name": "Polenspecialisten", "opening_hours": "Mo-Fr 10:00-18:00;Sa 10:00-15:00;Su 10:00-14:00", "shop": "deli"}}, {"type": "node", "id": 2385519021, "lat": 56.0954164, "lon": 14.6577258, "tags": {"name": "Karlis Bratwurst", "shop": "deli"}}, {"type": "node", "id": 2415163824, "lat": 59.3157495, "lon": 18.0726663, "tags": {"alt_name": "Den franska ostbutiken", "description": "French cheese", "name": "Androuet", "opening_hours": "Mo off;Tu-We 11:00-18:00;Th-Fr 11:00-19:00;Sa 11:00-17:00;Su off", "phone": "+46-8-6419020", "shop": "deli", "website": "http://www.androuet.nu"}}, {"type": "node", "id": 2466676055, "lat": 57.708565, "lon": 11.97257, "tags": {"level": "0", "name": "Salt och sill", "shop": "deli"}}, {"type": "node", "id": 2515644412, "lat": 59.2799977, "lon": 17.995766, "tags": {"addr:city": "\u00c4lvsj\u00f6", "addr:country": "SE", "addr:housenumber": "253", "addr:postcode": "12534", "addr:street": "Johan Skyttes V\u00e4g", "name": "Nacka k\u00f6ttprodukter (fabriksf\u00f6rs\u00e4ljning)", "opening_hours": "Mo-Th 07:00-14:00; Fr 07:00-11:00", "shop": "deli", "website": "http://www.nackakott.se/"}}, {"type": "node", "id": 2521336638, "lat": 59.3449361, "lon": 18.0600119, "tags": {"name": "Ostbutiken", "shop": "deli"}}, {"type": "node", "id": 2527625316, "lat": 59.304673, "lon": 18.1313949, "tags": {"addr:city": "Nacka", "addr:country": "SE", "addr:housenumber": "7", "addr:street": "Siroccogatan", "amenity": "restaurant", "name": "Erssons", "shop": "deli"}}, {"type": "node", "id": 2542956565, "lat": 57.6983311, "lon": 11.9590305, "tags": {"addr:city": "G\u00f6teborg", "addr:country": "SE", "addr:housenumber": "27B", "addr:street": "Haga Nygata", "contact:phone": "+46-31-12 03 70", "contact:website": "http://www.indiskakryddor.se/", "entrance": "yes", "name": "Curry House", "shop": "deli"}}, {"type": "node", "id": 2577496639, "lat": 59.19392, "lon": 17.7490447, "tags": {"shop": "deli", "source": "knowledge"}}, {"type": "node", "id": 2649604228, "lat": 59.3559469, "lon": 18.0874994, "tags": {"amenity": "cafe", "cuisine": "coffee_shop", "email": "info@selmadeli.se", "name": "Selma Deli", "opening_hours": "Mo off; Tu-Fr 10:00-21:00; Sa-Su 11:00-17:00", "phone": "+46 8-54614454", "shop": "deli", "smoking": "no", "source": "http://www.selmadeli.se", "website": "http://www.selmadeli.se/", "wheelchair": "yes"}}, {"type": "node", "id": 2698671558, "lat": 59.3363099, "lon": 18.0799087, "tags": {"name": "Kutterkonfekt", "product": "chocolate", "shop": "deli"}}, {"type": "node", "id": 2741639940, "lat": 59.3370598, "lon": 18.0919627, "tags": {"name": "Svensk Konfityr", "shop": "deli"}}, {"type": "node", "id": 2808916927, "lat": 56.1629607, "lon": 15.5888835, "tags": {"name": "Smedjegatans delikatesser", "shop": "deli"}}, {"type": "node", "id": 2931024101, "lat": 57.69908, "lon": 11.98571, "tags": {"addr:city": "G\u00f6teborg", "addr:country": "SE", "addr:housenumber": "26", "addr:postcode": "412 52", "addr:street": "Tegn\u00e9rsgatan", "amenity": "cafe", "name": "Fratelli Gridelli", "opening_hours": "Mo-Fr 08:00-19:00; Sa 08:00-15:00", "shop": "deli", "website": "https://www.facebook.com/fgridelli/"}}, {"type": "node", "id": 2949021806, "lat": 59.3582156, "lon": 15.0847709, "tags": {"name": "H\u00e4llebytorps G\u00e5rdshandel", "shop": "deli"}}, {"type": "node", "id": 2975820468, "lat": 56.5416132, "lon": 15.5797437, "tags": {"email": "thina@malatorp.se", "name": "M\u00e5latorps Viltr\u00f6keri", "opening_hours": "We 14:00-17:00;Th 14:00-20:00;Fr 14:00-17:00", "phone": "+66 706 888199;+66 705 564327", "shop": "deli", "website": "https://malatorp.se/"}}, {"type": "node", "id": 3017812998, "lat": 59.4544653, "lon": 17.805627, "tags": {"addr:city": "J\u00e4rf\u00e4lla", "addr:street": "Gjutarplan", "name": "J\u00e4rf\u00e4lla k\u00f6tt & delikatess", "shop": "deli"}}, {"type": "node", "id": 3186231270, "lat": 57.731486, "lon": 12.062966, "tags": {"name": "S\u00e4vedalens Saluhall", "shop": "deli"}}, {"type": "node", "id": 3390634057, "lat": 57.6944047, "lon": 11.9525879, "tags": {"access": "yes", "addr:city": "G\u00f6teborg", "addr:country": "SE", "addr:housenumber": "46", "addr:postcode": "41308", "addr:street": "Linn\u00e9gatan", "contact:email": "linne@linnegatansost.se", "contact:phone": "+46-31-775 04 60", "contact:website": "http://ostar.nu/goteborg/", "entrance": "yes", "name": "Linn\u00e9gatans ostaff\u00e4r", "opening_hours": "Tu-Th 11:00-18:00; Fr 11:00-18:30; Sa 10:00-15:00", "shop": "deli"}}, {"type": "node", "id": 3390634059, "lat": 57.6945013, "lon": 11.9525476, "tags": {"access": "yes", "addr:city": "G\u00f6teborg", "addr:country": "SE", "addr:housenumber": "44", "addr:postcode": "41308", "addr:street": "Linn\u00e9gatan", "contact:facebook": "https://sv-se.facebook.com/sassasskafferi", "contact:phone": "+46-31-14 02 00", "entrance": "yes", "name": "Sassas Skafferi", "shop": "deli"}}, {"type": "node", "id": 3402696465, "lat": 59.592781, "lon": 16.51353, "tags": {"name": "Carlstr\u00f6ms charkuteri", "product": "k\u00f6tt", "shop": "deli"}}, {"type": "node", "id": 3402696466, "lat": 56.16134, "lon": 15.583765, "tags": {"name": "Choco latte", "product": "chocolate", "shop": "deli"}}, {"type": "node", "id": 3402696472, "lat": 55.607441, "lon": 13.003763, "tags": {"name": "Ingelsta kalkon", "shop": "deli"}}, {"type": "node", "id": 3402696489, "lat": 59.594266, "lon": 16.491711, "tags": {"name": "Polska stugan", "shop": "deli"}}, {"type": "node", "id": 3402696793, "lat": 59.591589, "lon": 16.514393, "tags": {"name": "Saluhallen Slakteriet", "opening_hours": "Mo off", "shop": "deli"}}, {"type": "node", "id": 3402696803, "lat": 56.161918, "lon": 15.584702, "tags": {"name": "t-boden", "product": "tea", "shop": "deli"}}, {"type": "node", "id": 3455910487, "lat": 59.3179232, "lon": 18.0487671, "tags": {"name": "Polska Delikatesser", "shop": "deli"}}, {"type": "node", "id": 3493093693, "lat": 57.652487, "lon": 11.909085, "tags": {"name": "Fr\u00f6lunda lilla ost & delikatess", "opening_hours": "Mo-Fr 10:00-18:00; Sa 10:00-15:00", "shop": "deli"}}, {"type": "node", "id": 3537386615, "lat": 56.743881, "lon": 15.9068881, "tags": {"shop": "deli"}}, {"type": "node", "id": 3554625953, "lat": 58.8968992, "lon": 17.5481415, "tags": {"name": "Ost & Delikatess", "shop": "deli"}}, {"type": "node", "id": 3567970955, "lat": 56.1622263, "lon": 15.5826341, "tags": {"addr:city": "Karlskrona", "addr:country": "SE", "addr:housenumber": "19", "addr:street": "Borgm\u00e4staregatan 19", "name": "Sturk\u00f6 R\u00f6keri och Catering", "phone": "+46 455 386388", "shop": "deli"}}, {"type": "node", "id": 3590440559, "lat": 57.697476, "lon": 11.950485, "tags": {"contact:email": "gothenburg@englishshop.se", "contact:phone": "+46-31 240 078", "contact:website": "http://www.englishshop.se", "name": "The English Shop", "shop": "deli"}}, {"type": "node", "id": 3621543594, "lat": 56.6755508, "lon": 12.8579114, "tags": {"name": "di Mare", "shop": "deli"}}, {"type": "node", "id": 3623537427, "lat": 59.314333, "lon": 18.0819908, "tags": {"bulk_purchase": "yes", "name": "Re Orient", "shop": "deli"}}, {"type": "node", "id": 3635511897, "lat": 57.687791, "lon": 11.920689, "tags": {"name": "Gudagott", "shop": "deli"}}, {"type": "node", "id": 3684658304, "lat": 60.887549, "lon": 15.118083, "tags": {"name": "Dala Choklad", "shop": "deli"}}, {"type": "node", "id": 3684658316, "lat": 60.885482, "lon": 15.120706, "tags": {"addr:country": "SE", "addr:housenumber": "12", "addr:postcode": "R\u00e4ttvik", "addr:street": "Vasagatan", "contact:phone": "+46 248-109 37", "name": "R\u00e4ttviks Tunnbr\u00f6dsbageri", "shop": "deli", "web": "www.tuttul.nu"}}, {"type": "node", "id": 3684728254, "lat": 59.254394, "lon": 15.170924, "tags": {"name": "Robertsons charkuteri", "shop": "deli"}}, {"type": "node", "id": 3696210531, "lat": 59.2177287, "lon": 18.153685, "tags": {"addr:city": "Skog\u00e5s", "addr:country": "SE", "addr:housenumber": "9", "addr:postcode": "142 30", "addr:street": "Skog\u00e5splan", "name": "Katjusja Delikatesser", "opening_hours": "Mo-Fr 10:00-19:30; Sa,Su 11:00-16:00", "phone": "+46 8 93 14 77", "shop": "deli", "website": "http://www.katjusja.se/", "wheelchair": "yes"}}, {"type": "node", "id": 3717473360, "lat": 58.4125876, "lon": 11.3364119, "tags": {"name": "KustCharken", "opening_hours": "Mo-Th 10:00-18:00; Fr 10:00-19:00; Sa-Su 10:00-17:00", "shop": "deli"}}, {"type": "node", "id": 3717473371, "lat": 58.353463, "lon": 11.224719, "tags": {"name": "N\u00f6t- & lakritsboden", "shop": "deli"}}, {"type": "node", "id": 3717479514, "lat": 60.606042, "lon": 15.633425, "tags": {"name": "Falu ost & deli", "product": "cheese", "shop": "deli"}}, {"type": "node", "id": 3717482245, "lat": 60.609541, "lon": 15.627237, "tags": {"name": "Te & kaffehandel", "product": "coffee", "shop": "deli"}}, {"type": "node", "id": 3744635801, "lat": 55.5999935, "lon": 13.0080019, "tags": {"name": "G\u00f6ta kaffe", "product": "coffee", "shop": "deli"}}, {"type": "node", "id": 3754763563, "lat": 55.6045393, "lon": 13.0017816, "tags": {"name": "Peter Beiet Schokolade", "product": "chocolate", "shop": "deli"}}, {"type": "node", "id": 3796891703, "lat": 58.4100983, "lon": 15.625362, "tags": {"addr:city": "Link\u00f6ping", "addr:country": "SE", "addr:housenumber": "21A", "addr:street": "Nygatan", "name": "Norins ost", "opening_hours": "Mo-Fr 10:00-18:00, Sa 10:00-15:00", "shop": "deli"}}, {"type": "node", "id": 3817158024, "lat": 56.1622151, "lon": 15.5859358, "tags": {"addr:city": "Karlskrona", "addr:country": "SE", "addr:housenumber": "42", "addr:street": "Ronnebygatan", "name": "Wiktor Olssons slakt & chark", "note": "Locally produced meat", "product": "meat", "shop": "deli", "wheelchair": "yes"}}, {"type": "node", "id": 3822905068, "lat": 59.6089296, "lon": 16.5500845, "tags": {"name": "M\u00e4larChocolaterie", "opening_hours": "Mo-Fr 11:00-18:00; Sa 10:00-15:00; Su off", "product": "chocolate", "shop": "deli"}}, {"type": "node", "id": 3850832857, "lat": 59.3367198, "lon": 18.0807044, "tags": {"name": "Gourmandise", "product": "chocolate", "shop": "deli"}}, {"type": "node", "id": 3880246663, "lat": 59.2766992, "lon": 17.9039344, "tags": {"name": "Al Shami", "shop": "deli"}}, {"type": "node", "id": 3900395171, "lat": 59.324173, "lon": 18.0705269, "tags": {"name": "Resta g\u00e5rd", "phone": "+46-171-466280", "shop": "deli", "website": "http://restagard.se/"}}, {"type": "node", "id": 3917437257, "lat": 59.6134623, "lon": 16.4666895, "tags": {"addr:city": "V\u00e4ster\u00e5s", "addr:housenumber": "7", "addr:street": "Traversgatan", "name": "Fiskarn", "product": "fish", "shop": "deli"}}, {"type": "node", "id": 3978771249, "lat": 56.162058, "lon": 15.586255, "tags": {"name": "Elit choklad", "product": "chocolate", "shop": "deli"}}, {"type": "node", "id": 4080208033, "lat": 60.4030963, "lon": 15.811829, "tags": {"addr:city": "Stora Skedvi", "addr:country": "SE", "addr:housenumber": "38", "addr:postcode": "783 92", "addr:street": "Landsv\u00e4gen", "alt_name": "Visthusboden i Stora Skedvi", "description": "En liten saluhall i Stora Skedvi", "name": "Visthusboden", "phone": "+46-225-270075", "shop": "deli", "short_name": "Prioleva", "website": "http://visthusbodenistoraskedvi.se"}}, {"type": "node", "id": 4199304035, "lat": 56.8344582, "lon": 13.9407951, "tags": {"name": "Lilla Skafferiet", "shop": "deli"}}, {"type": "node", "id": 4380823586, "lat": 56.1684808, "lon": 14.8654381, "tags": {"name": "Fa Thai Livs", "shop": "deli"}}, {"type": "node", "id": 4380843597, "lat": 56.1728407, "lon": 14.8600936, "tags": {"name": "H\u00e4lsokraft", "shop": "deli"}}, {"type": "node", "id": 4408263725, "lat": 56.0519849, "lon": 14.5854073, "tags": {"name": "Ostbutiken", "shop": "deli"}}, {"type": "node", "id": 4644061743, "lat": 63.8252175, "lon": 20.2604187, "tags": {"capacity": "44", "cuisine": "seafood", "name": "Tv\u00e5 fiskare", "shop": "deli"}}, {"type": "node", "id": 4646559645, "lat": 58.3439301, "lon": 11.9328505, "tags": {"name": "Washington Ohlsons Charkuteri", "shop": "deli"}}, {"type": "node", "id": 4674201882, "lat": 57.6960313, "lon": 11.9330855, "tags": {"addr:city": "G\u00f6teborg", "addr:country": "SE", "addr:housenumber": "31", "addr:postcode": "41462", "addr:street": "Djurg\u00e5rdsgatan", "contact:fax": "+46-31-12 11 02", "contact:phone": "+46-31-14 05 72", "contact:website": "www.msh.se", "name": "Majornas Sm\u00f6rg\u00e5sh\u00f6rna", "shop": "deli"}}, {"type": "node", "id": 4960736548, "lat": 58.953207, "lon": 16.8635426, "tags": {"name": "S\u00f6rby-Oppg\u00e5rd g\u00e5rdsbutik", "shop": "deli", "url": "http://www.sorbyoppgard.se/"}}, {"type": "node", "id": 5008018121, "lat": 57.6922969, "lon": 11.9779161, "tags": {"name": "BOV", "shop": "deli"}}, {"type": "node", "id": 5158308835, "lat": 59.3477432, "lon": 18.0609524, "tags": {"name": "Stockholm ost & chark", "opening_hours": "Mo-Fr 10:00-18:00; Sa 10:00-15:00; Su off", "shop": "deli"}}, {"type": "node", "id": 5162443257, "lat": 59.3483114, "lon": 18.0578787, "tags": {"name": "Salmantinos spanska delikatesser", "shop": "deli"}}, {"type": "node", "id": 5309298434, "lat": 59.3948505, "lon": 15.8408206, "tags": {"addr:city": "Arboga", "addr:street": "J\u00e4rntorgsgatan", "name": "Anns ost", "opening_hours": "We-Fr 10:00-18:00; Sa 10:00-15:00", "shop": "deli"}}, {"type": "node", "id": 5314309717, "lat": 57.6962053, "lon": 11.9520213, "tags": {"name": "R\u00e5da Gelato", "shop": "deli"}}, {"type": "node", "id": 5334913928, "lat": 59.3060612, "lon": 18.0326387, "tags": {"name": "Iran", "shop": "deli"}}, {"type": "node", "id": 5779722222, "lat": 59.3022188, "lon": 18.0817272, "tags": {"name": "Reorient", "shop": "deli"}}, {"type": "node", "id": 6123410454, "lat": 59.2362967, "lon": 17.9826335, "tags": {"name": "Delikatessboden", "shop": "deli"}}, {"type": "node", "id": 6328175115, "lat": 59.3245189, "lon": 18.3840989, "tags": {"addr:city": "Gustavsberg", "addr:country": "SE", "addr:housenumber": "3", "addr:postcode": "134 40", "addr:street": "Odelbergs v\u00e4g", "name": "Deliverkstan", "opening_hours": "Mo-Fr 10:00-19:00; Sa 10:00-17:00; Su 11:00-16:00", "phone": "+46857024246", "shop": "deli", "website": "http://www.deliverkstan.se/"}}, {"type": "node", "id": 6428112943, "lat": 59.3412388, "lon": 18.0436039, "tags": {"bulk_purchase": "yes", "name": "\u00d6sterqvist Delikatesser", "opening_hours": "Mo-Su 10:00-18:30", "phone": "+46 8 121 474 74", "shop": "deli", "website": "osterqvist.se"}}, {"type": "node", "id": 6612668115, "lat": 59.8562534, "lon": 17.6459745, "tags": {"name": "Best of Iran", "opening_hours": "Mo-Fr 10:00-18:30; Sa 11:00-18:00; Su 12:00-17:00", "phone": "073 330 6232", "shop": "deli", "website": "https://bestofiran.se/"}}, {"type": "node", "id": 1239298270, "lat": 59.3183614, "lon": 18.0595074, "tags": {"name": "Gamla Amsterdam", "opening_hours": "Mo 14:00-18:30; Tu-Fr 11:00-18:30; Sa 11:00-17:00; Su 12:00-16:00", "shop": "cheese", "website": "https://www.gamla-amsterdam.se/"}}, {"type": "node", "id": 1346751910, "lat": 59.3340625, "lon": 18.0770672, "tags": {"name": "Androuet", "opening_hours": "Mo-Fr 10:00-18:00; Sa 10:00-16:00", "shop": "cheese", "website": "http://www.androuet.nu/"}}, {"type": "node", "id": 1632019570, "lat": 57.7033887, "lon": 11.9680201, "tags": {"name": "Ost-Anders", "shop": "cheese"}}, {"type": "node", "id": 3473372565, "lat": 59.3296281, "lon": 18.0462998, "tags": {"bulk_purchase": "no", "name": "Wijnjas grosshandel", "shop": "cheese"}}, {"type": "node", "id": 3790713919, "lat": 55.968324, "lon": 13.4647156, "tags": {"addr:housenumber": "303", "addr:place": "\u00d6stra Nyrup", "name": "Nyrups Osteria", "opening_hours": "Fr 13:00-18:00; Sa 11:00-15:00", "shop": "cheese"}}, {"type": "node", "id": 4353770385, "lat": 58.379401, "lon": 12.322216, "tags": {"addr:city": "V\u00e4nersborg", "addr:country": "SE", "addr:housenumber": "14", "addr:postcode": "462 33", "addr:street": "Edsgatan", "contact:phone": "+46 52110923", "contact:website": "http://www.osthallen.se", "name": "Ost Hallen", "shop": "cheese", "wheelchair": "yes"}}, {"type": "node", "id": 5407102270, "lat": 55.9343368, "lon": 13.5419633, "tags": {"name": "Moster Fridas Ost & Delikatesser", "shop": "cheese", "website": "http://www.mosterfridas.se/"}}, {"type": "node", "id": 5777994664, "lat": 56.8782367, "lon": 14.8064442, "tags": {"name": "Joels Ost", "shop": "cheese", "website": "http://www.joelsost.com/joelsost"}}, {"type": "node", "id": 5893750102, "lat": 57.6557817, "lon": 12.013387, "tags": {"name": "Ostbutiken", "shop": "cheese"}}, {"type": "node", "id": 6419500810, "lat": 59.3793992, "lon": 13.497737, "tags": {"name": "Nilssons ost", "shop": "cheese"}}, {"type": "node", "id": 2406457058, "lat": 60.490374, "lon": 15.830008, "tags": {"addr:city": "Falun", "addr:country": "SE", "addr:housenumber": "113", "addr:postcode": "791 92", "addr:street": "Lun\u00e5n", "amenity": "cafe", "ele": "161.55384799999999", "name": "Stora Lun\u00e5n G\u00e5rdsmejeri", "phone": "+46-70-5235325", "shop": "dairy", "website": "http://www.storalunan.se"}}, {"type": "node", "id": 3826433657, "lat": 57.748658, "lon": 12.1464856, "tags": {"addr:city": "Jonsered", "addr:postcode": "433 76", "addr:street": "K\u00e5h\u00f6gs g\u00e5rd", "name": "K\u00e5h\u00f6gs Mj\u00f6lk", "opening_hours": "Mo-Sa 09:00-18:00", "operator": "K\u00e5h\u00f6gs G\u00e5rd AB", "phone": "+46 705956480", "shop": "dairy", "website": "http://www.kahogsgard.se"}}, {"type": "node", "id": 4847717367, "lat": 57.9895498, "lon": 13.0578005, "tags": {"name": "G\u00e4sene Mejeri", "shop": "dairy"}}, {"type": "node", "id": 544477142, "lat": 56.181026, "lon": 14.3285007, "tags": {"shop": "farm"}}, {"type": "node", "id": 698691791, "lat": 59.9792127, "lon": 18.829995, "tags": {"name": "V\u00e4dd\u00e5 g\u00e5rdsmejeri", "phone": "+4617650103", "shop": "farm"}}, {"type": "node", "id": 701552636, "lat": 59.192036, "lon": 14.8813589, "tags": {"name": "\u00c4ggbod", "opening_hours": "Mo-Su 06:00-22:00", "products": "egg", "shop": "farm"}}, {"type": "node", "id": 819213436, "lat": 58.7541258, "lon": 16.7043658, "tags": {"name": "Rinkeby Struts & Kalkonfarm", "shop": "farm"}}, {"type": "node", "id": 876728391, "lat": 56.3159304, "lon": 12.8911237, "tags": {"shop": "farm"}}, {"type": "node", "id": 983277766, "lat": 55.9568436, "lon": 13.520506, "tags": {"description": "G\u00e5rdsbutik", "description:da": "G\u00e5rdbutik", "description:de": "Hofladen", "description:en": "Farm Shop", "description:no": "G\u00e5rdsbutikk", "name": "Ekastiga G\u00e5rdsbutik", "opening_hours": "Fr-Sa 10:00-16:00", "shop": "farm", "website": "https://www.ekastiga.com/"}}, {"type": "node", "id": 1253548064, "lat": 60.4079022, "lon": 15.6007872, "tags": {"alt_name": "Storhaga Potatis", "name": "Bullerg\u00e5rdens handelsbod", "old_name": "Potatisbutiken", "opening_hours": "We 14:00-18:00;Sa 10:00-13:00", "shop": "farm"}}, {"type": "node", "id": 1315261774, "lat": 59.1963176, "lon": 18.7325085, "tags": {"shop": "farm"}}, {"type": "node", "id": 1376839316, "lat": 56.1917934, "lon": 14.1039792, "tags": {"shop": "farm"}}, {"type": "node", "id": 1423673675, "lat": 60.4550782, "lon": 15.4950235, "tags": {"ele": "133.75", "email": "sahlin@sahlinsstruts.se", "name": "Sahlins struts", "phone": "+46-243-233137", "shop": "farm", "source": "survey", "website": "https://www.sahlinsstruts.se/"}}, {"type": "node", "id": 1963451016, "lat": 55.7241737, "lon": 13.0981069, "tags": {"name": "Soln\u00e4s g\u00e5rdsbutik", "shop": "farm"}}, {"type": "node", "id": 2412501283, "lat": 56.8672188, "lon": 16.7279753, "tags": {"addr:city": "K\u00f6pingsvik", "addr:country": "SE", "addr:housename": "Solberga G\u00e5rd G\u00e5rdsbutik", "addr:housenumber": "45", "addr:postcode": "387 90", "addr:street": "Rams\u00e4ttrav\u00e4gen", "name": "Solberga G\u00e5rd G\u00e5rdsbutik", "shop": "farm", "source": "GPS", "website": "https://www.solbergagard.se/"}}, {"type": "node", "id": 2484948277, "lat": 58.4060243, "lon": 15.0802733, "tags": {"email": "gripenbergsgardsbutik@gmail.com", "name": "Gripenbergs g\u00e5rdsbutik", "opening_hours": "Mo-Fr 09:00-18:00; Sa-Su 10:00-16:00", "phone": "+46 706-52 99 99", "shop": "farm", "website": "http://www.gripenbergs.com/"}}, {"type": "node", "id": 2626324397, "lat": 58.01469, "lon": 16.423576, "tags": {"name": "Smultronboda", "shop": "farm"}}, {"type": "node", "id": 2780884269, "lat": 59.9759929, "lon": 17.7426094, "tags": {"name": "\u00c4ngeby g\u00e5rdsbutik", "organic": "yes", "shop": "farm"}}, {"type": "node", "id": 2905274133, "lat": 56.3218627, "lon": 16.0368104, "tags": {"shop": "farm"}}, {"type": "node", "id": 2905283088, "lat": 56.3057956, "lon": 15.5397918, "tags": {"email": "jwidebrant@gmail.com", "name": "Askunga Dovvilt", "phone": "+46 73 3441270", "shop": "farm", "website": "www.askungadovvilt.se"}}, {"type": "node", "id": 2936027076, "lat": 61.7043329, "lon": 17.5166243, "tags": {"name": "Fisk", "shop": "farm"}}, {"type": "node", "id": 3102038376, "lat": 59.8629948, "lon": 18.9228426, "tags": {"addr:city": "Norrt\u00e4lje", "addr:street": "Holmsundsv\u00e4gen", "alt_name": "Petra's f\u00e5rbod", "name": "Petras f\u00e5rbod", "shop": "farm"}}, {"type": "node", "id": 3148990602, "lat": 57.8686098, "lon": 16.2338167, "tags": {"name": "M\u00e5n\u00e4ngens g\u00e5rdsbutik och musteri", "shop": "farm"}}, {"type": "node", "id": 3155553717, "lat": 58.3764374, "lon": 12.6935088, "tags": {"description": "G\u00e5rdsbutik", "description:da": "G\u00e5rdbutik", "description:de": "Hofladen", "description:en": "Farm Shop", "description:no": "G\u00e5rdsbutikk", "name": "J\u00f6nslanna gr\u00f6nt och fint", "organic": "only", "shop": "farm"}}, {"type": "node", "id": 3602641619, "lat": 58.0817045, "lon": 12.8511494, "tags": {"addr:city": "V\u00e5rg\u00e5rda", "addr:country": "SE", "addr:housenumber": "1", "addr:postcode": "447 91", "addr:street": "Landarkullen", "contact:email": "info@landarkullen.se", "contact:phone": "+46 705-744138", "contact:website": "http://landarkullen-se.webnode.se/", "description": "G\u00e5rdsbutik", "description:da": "G\u00e5rdbutik", "description:de": "Hofladen", "description:en": "Farm Shop", "description:no": "G\u00e5rdsbutikk", "name": "Landarkullen", "operator": "Landarkullen AB", "shop": "farm"}}, {"type": "node", "id": 3635859864, "lat": 58.2742573, "lon": 15.0981981, "tags": {"email": "info@bleckenstad.se", "name": "Bleckenstad G\u00e5rdsbutik", "opening_hours": "Mo-Fr 14:00-18:00;Sa 10:00-14:00;Su 13:00-16:00", "phone": "+46 142 10113", "shop": "farm", "website": "https://www.bleckenstad.se/"}}, {"type": "node", "id": 3655688732, "lat": 56.1726091, "lon": 15.4794748, "tags": {"opening_hours": "10:00-17:00", "shop": "farm"}}, {"type": "node", "id": 3695843896, "lat": 56.231918, "lon": 15.0231786, "tags": {"name": "G\u00e5rdsbutik", "shop": "farm"}}, {"type": "node", "id": 3711019237, "lat": 56.1574093, "lon": 12.5891752, "tags": {"description": "G\u00e5rdsbutik", "description:da": "G\u00e5rdbutik", "description:de": "Hofladen", "description:en": "Farm Shop", "description:no": "G\u00e5rdsbutikk", "name": "Larsviken g\u00e5rdsbutik", "operator": "Lanthandeln i Viken AB", "shop": "farm", "website": "https://larsviken.se/"}}, {"type": "node", "id": 3750725362, "lat": 59.1668945, "lon": 18.2396435, "tags": {"name": "Tyresta lanthandel", "shop": "farm"}}, {"type": "node", "id": 3793526173, "lat": 55.8370777, "lon": 13.7003288, "tags": {"name": "Jima Lantbruk", "opening_hours": "Fr 15:00-18:00", "shop": "farm"}}, {"type": "node", "id": 3985568959, "lat": 60.4209928, "lon": 15.6604291, "tags": {"name": "Widichs - G\u00e5rdsprodukter fr\u00e5n Gustafs", "organic": "yes", "shop": "farm", "website": "http://www.widichs.se"}}, {"type": "node", "id": 4017147904, "lat": 60.42646, "lon": 15.7564755, "tags": {"name": "Catarinas Spr\u00e4tth\u00f6nseri", "organic": "yes", "produce": "egg", "shop": "farm", "website": "http://www.catarinasspratthonseri.se"}}, {"type": "node", "id": 4064423782, "lat": 56.7123667, "lon": 12.83985, "tags": {"addr:city": "Halmstad", "addr:country": "SE", "addr:housenumber": "215", "addr:place": "Wapn\u00f6 G\u00e5rd", "addr:postcode": "30591", "contact:website": "http://www.wapno.se", "name": "Wapn\u00f6 G\u00e5rdsbutik", "opening_hours": "Th,Fr 12:00-18:00; Sa 10:00-15:00", "shop": "farm"}}, {"type": "node", "id": 4311473481, "lat": 56.1371047, "lon": 13.8966751, "tags": {"name": "Fl\u00e4derg\u00e5rden", "shop": "farm"}}, {"type": "node", "id": 4357627531, "lat": 56.2541047, "lon": 15.1171712, "tags": {"name": "R\u00f6aby B\u00e4r", "shop": "farm"}}, {"type": "node", "id": 4382594814, "lat": 60.2323604, "lon": 16.2933567, "tags": {"addr:city": "Fors", "addr:country": "SE", "addr:housenumber": "94", "addr:street": "Kolarbo", "name": "Muddus hjortron", "shop": "farm", "website": "http://www.muddus-hjortron.se"}}, {"type": "node", "id": 4407346622, "lat": 60.6815004, "lon": 15.6763331, "tags": {"name": "Hult\u00e5sa g\u00e5rd", "shop": "farm", "website": "http://www.hultasagard.se"}}, {"type": "node", "id": 4423322108, "lat": 55.6961258, "lon": 13.3126027, "tags": {"name": "R\u00f6gle blommor & b\u00e4r", "shop": "farm"}}, {"type": "node", "id": 4486252411, "lat": 59.1380729, "lon": 12.9278428, "tags": {"contact:email": "lindgrensfrukt@telia.com", "contact:phone": "+46 533-108 42", "contact:website": "http://www.lindgrensgronsaker.se/", "description": "G\u00e5rdsbutik", "description:da": "G\u00e5rdbutik", "description:de": "Hofladen", "description:en": "Farm Shop", "description:no": "G\u00e5rdsbutikk", "name": "Lindgrens Frukt & Gr\u00f6nt AB", "operator": "Lindgrens Frukt & Gr\u00f6nsaker AB", "shop": "farm"}}, {"type": "node", "id": 4554204399, "lat": 60.0958096, "lon": 16.278244, "tags": {"name": "Lilla Alsbo \u00c4gg", "shop": "farm", "website": "https://alsboagg.se/"}}, {"type": "node", "id": 4643215650, "lat": 56.1890614, "lon": 15.9451725, "tags": {"name": "Orran\u00e4s g\u00e5rdsmejeri", "shop": "farm", "website": "http://www.orranasgardsmejeri.se/"}}, {"type": "node", "id": 4644044697, "lat": 56.1756581, "lon": 15.9357927, "tags": {"shop": "farm"}}, {"type": "node", "id": 4754332239, "lat": 58.5251647, "lon": 11.5552253, "tags": {"addr:city": "Dingle", "addr:country": "SE", "addr:housenumber": "21", "addr:postcode": "455 97", "addr:street": "B\u00e4rby", "contact:email": "mail@barbyoster.se", "contact:phone": "+46 524-40608", "contact:website": "http://www.barbyoster.se", "description": "G\u00e5rdsbutik", "description:da": "G\u00e5rdbutik", "description:de": "Hofladen", "description:en": "Farm Shop", "description:no": "G\u00e5rdsbutikk", "name": "B\u00e4rby \u00d6sterg\u00e5rd", "shop": "farm"}}, {"type": "node", "id": 4754484486, "lat": 58.1229839, "lon": 11.7225329, "tags": {"addr:city": "Varekil", "addr:country": "SE", "addr:housenumber": "102", "addr:postcode": "472 95", "addr:street": "Borgen", "contact:phone": "+46 704-26 25 71", "contact:website": "http://orusthandlarn.se", "description": "G\u00e5rdsbutik", "description:da": "G\u00e5rdbutik", "description:de": "Hofladen", "description:en": "Farm Shop", "description:no": "G\u00e5rdsbutikk", "name": "Orusthandlarn", "shop": "farm"}}, {"type": "node", "id": 4754749421, "lat": 57.7964975, "lon": 11.9099005, "tags": {"addr:city": "S\u00e4ve", "addr:country": "SE", "addr:housenumber": "10", "addr:postcode": "423 73", "addr:street": "B\u00e4rby Herrg\u00e5rdsv\u00e4g", "contact:phone": "+46-31-96 08 77", "contact:website": "http://www.plocka.nu/", "description": "G\u00e5rdsbutik", "description:da": "G\u00e5rdbutik", "description:de": "Hofladen", "description:en": "Farm Shop", "description:no": "G\u00e5rdsbutikk", "name": "B\u00e4rby sj\u00e4lvplock", "shop": "farm"}}, {"type": "node", "id": 4754874009, "lat": 57.7177192, "lon": 11.9586557, "tags": {"addr:city": "G\u00f6teborg", "addr:country": "SE", "addr:housenumber": "7", "addr:postcode": "414 55", "addr:street": "Frihamnen", "contact:email": "kajodlingen@gmail.com", "contact:phone": "+46-723-360566", "contact:website": "http://www.kajodlingen.se/", "description": "G\u00e5rdsbutik", "description:da": "G\u00e5rdbutik", "description:de": "Hofladen", "description:en": "Farm Shop", "description:no": "G\u00e5rdsbutikk", "name": "Kajodlingen", "shop": "farm"}}, {"type": "node", "id": 4754885677, "lat": 58.4180172, "lon": 11.3827076, "tags": {"contact:website": "http://www.rodsgubben.se/", "description": "G\u00e5rdsbutik", "description:da": "G\u00e5rdbutik", "description:de": "Hofladen", "description:en": "Farm Shop", "description:no": "G\u00e5rdsbutikk", "name": "R\u00f6dsgubben", "shop": "farm"}}, {"type": "node", "id": 4754967334, "lat": 57.7596262, "lon": 11.8204978, "tags": {"addr:city": "Torslanda", "addr:country": "SE", "addr:housenumber": "41 B", "addr:postcode": "423 00", "addr:street": "Bj\u00f6rlanda", "contact:phone": "+46-31-925500", "contact:website": "http://www.bjorlandagard.se/", "name": "Bj\u00f6rlanda G\u00e5rd", "shop": "farm"}}, {"type": "node", "id": 4754978624, "lat": 58.8826244, "lon": 11.1516005, "tags": {"addr:city": "Str\u00f6mstad", "addr:country": "SE", "addr:housenumber": "8", "addr:postcode": "452 96", "addr:street": "Kvarnb\u00e4cksv\u00e4gen, Tj\u00e4rn\u00f6", "amenity": "cafe", "contact:email": "info@silje-ekshavtorn.com", "contact:phone": "+46 26 - 252 18", "contact:website": "http://www.silje-ekshavtorn.com/", "description": "G\u00e5rdsbutik", "description:da": "G\u00e5rdbutik", "description:de": "Hofladen", "description:en": "Farm Shop", "description:no": "G\u00e5rdsbutikk", "name": "Silje-Eks Havtorn", "opening_hours": "Sa 12:00-15:00", "shop": "farm"}}, {"type": "node", "id": 4754991322, "lat": 58.6894911, "lon": 11.9888279, "tags": {"addr:city": "F\u00e4rgelanda", "addr:country": "SE", "addr:housenumber": "6", "addr:postcode": "458 30", "addr:street": "H\u00e5bynv\u00e4gen", "contact:email": "info@dalsspira.se", "contact:website": "http://www.dalsspira.se/", "description": "G\u00e5rdsbutik", "description:da": "G\u00e5rdbutik", "description:de": "Hofladen", "description:en": "Farm Shop", "description:no": "G\u00e5rdsbutikk", "name": "DalsSpira Mejeri", "shop": "farm"}}, {"type": "node", "id": 4755008384, "lat": 58.8672793, "lon": 11.3640348, "tags": {"addr:city": "Str\u00f6mstad", "addr:country": "SE", "addr:housenumber": "1", "addr:postcode": "452 94", "addr:street": "H\u00e4mmen", "contact:email": "elisabeth.arvidsson@telia.com", "contact:phone": "+46 70 6851964", "contact:website": "http://www.hammen.se/", "description": "G\u00e5rdsbutik", "description:da": "G\u00e5rdbutik", "description:de": "Hofladen", "description:en": "Farm Shop", "description:no": "G\u00e5rdsbutikk", "name": "H\u00e4mmens G\u00e5rd", "shop": "farm", "tourism": "guest_house"}}, {"type": "node", "id": 4755034466, "lat": 58.0653416, "lon": 12.1334083, "tags": {"amenity": "cafe", "contact:phone": "+46 702 898025", "contact:website": "https://skorsbogard.wordpress.com/", "description": "G\u00e5rdsbutik", "description:da": "G\u00e5rdbutik", "description:de": "Hofladen", "description:en": "Farm Shop", "description:no": "G\u00e5rdsbutikk", "name": "Sk\u00f6rsbo G\u00e5rd", "opening_hours": "Sa,Su 11:00-15:00", "shop": "farm"}}, {"type": "node", "id": 4846940234, "lat": 59.2973856, "lon": 18.3574194, "tags": {"name": "Western our way", "shop": "farm"}}, {"type": "node", "id": 4930645201, "lat": 60.2619737, "lon": 17.4566424, "tags": {"amenity": "cafe", "name": "Caf\u00e9 Strutsen", "shop": "farm"}}, {"type": "node", "id": 4934598965, "lat": 59.8745832, "lon": 17.6282817, "tags": {"name": "Svenska Delikatesser", "shop": "farm"}}, {"type": "node", "id": 4954716967, "lat": 56.5615102, "lon": 14.8711364, "tags": {"name": "Gaardsbutik", "opening_hours": "24/7", "shop": "farm"}}, {"type": "node", "id": 4959419055, "lat": 57.7109279, "lon": 18.4058118, "tags": {"shop": "farm"}}, {"type": "node", "id": 4959419056, "lat": 57.7077527, "lon": 18.4083331, "tags": {"shop": "farm"}}, {"type": "node", "id": 5003787114, "lat": 59.784759, "lon": 18.2615764, "tags": {"name": "\u00c4ggboden", "name:en": "The Egg Booth", "opening_hours": "24/7", "shop": "farm"}}, {"type": "node", "id": 5021925922, "lat": 65.4924374, "lon": 21.4077703, "tags": {"name": "Alterhedens", "shop": "farm"}}, {"type": "node", "id": 5092826540, "lat": 57.8599907, "lon": 16.2002353, "tags": {"shop": "farm"}}, {"type": "node", "id": 5096457552, "lat": 58.0151705, "lon": 16.4228264, "tags": {"name": "Smultronboda", "shop": "farm"}}, {"type": "node", "id": 5161738237, "lat": 60.2989188, "lon": 15.8618429, "tags": {"name": "Pellasg\u00e5rden", "organic": "yes", "shop": "farm"}}, {"type": "node", "id": 5263391731, "lat": 58.9334678, "lon": 17.5263666, "tags": {"description": "hembygdsg\u00e5rd", "name": "Trostorp", "shop": "farm"}}, {"type": "node", "id": 5368329981, "lat": 57.9272622, "lon": 12.0484883, "tags": {"addr:city": "Romelanda", "addr:country": "SE", "addr:housenumber": "210", "addr:postcode": "44291", "addr:street": "H\u00e5ffrekullen", "name": "Hoffrekullens handelstr\u00e4dg\u00e5rd", "opening_hours": "Mo-Fr 10:00-18:00, Sa 10:00-13:00", "shop": "farm", "website": "http://www.hoffrekullen.se/"}}, {"type": "node", "id": 5677130302, "lat": 55.8430151, "lon": 13.5981211, "tags": {"amenity": "cafe", "name": "Vidablick, g\u00e5rdsbutik", "organic": "yes", "shop": "farm"}}, {"type": "node", "id": 5732630162, "lat": 64.5869537, "lon": 16.7397791, "tags": {"shop": "farm"}}, {"type": "node", "id": 5756655067, "lat": 56.2049869, "lon": 15.3318278, "tags": {"name": "\u00c4ggaboden", "shop": "farm", "website": "https://www.aggaboden.se/"}}, {"type": "node", "id": 5784971151, "lat": 57.810753, "lon": 18.530167, "tags": {"name": "Grausne G\u00e5rdsf\u00f6rs\u00e4ljning", "shop": "farm"}}, {"type": "node", "id": 5796296086, "lat": 63.1568076, "lon": 14.2190837, "tags": {"addr:city": "Hallen", "addr:country": "SE", "addr:housenumber": "525", "addr:postcode": "845 91", "addr:street": "Trappn\u00e4s", "name": "Trappn\u00e4s G\u00e5rd AB", "opening_hours": "Mo-Su 09:00-21:00", "payment:cash": "yes", "payment:credit_cards": "yes", "payment:mastercard": "yes", "payment:telephone_cards": "yes", "payment:visa": "yes", "shop": "farm"}}, {"type": "node", "id": 5927011693, "lat": 60.3424283, "lon": 15.8603108, "tags": {"name": "Karlersg\u00e5rdens Mejeri & Butik", "shop": "farm"}}, {"type": "node", "id": 5998011980, "lat": 56.2744937, "lon": 15.2487439, "tags": {"name": "Hasselstad Lantbod", "shop": "farm"}}, {"type": "node", "id": 6041341010, "lat": 56.7414121, "lon": 12.6580055, "tags": {"name": "S\u00e4rdals Kvarns g\u00e5rdsbutik", "shop": "farm"}}, {"type": "node", "id": 6080316673, "lat": 56.7852749, "lon": 14.8347516, "tags": {"name": "Ekoboxen", "shop": "farm", "website": "http://www.ekoboxen.se"}}, {"type": "node", "id": 6321894872, "lat": 55.8039645, "lon": 13.3721215, "tags": {"name": "G\u00e5rdsbutik Skarhults slott", "organic": "yes", "shop": "farm", "url": "http://skarhult.se/41/skarhult/gardsbutik", "vending": "eggs"}}, {"type": "node", "id": 6334460672, "lat": 56.1107409, "lon": 12.6286608, "tags": {"contact:website": "http://www.gardsbutikenkulla.se", "name": "Kulla Gunnarstorp g\u00e5rdsbutik", "shop": "farm"}}, {"type": "node", "id": 6548295043, "lat": 56.4509835, "lon": 15.1205724, "tags": {"shop": "farm"}}, {"type": "node", "id": 6617522890, "lat": 56.4090551, "lon": 15.0985005, "tags": {"name": "\u00c4gg", "shop": "farm"}}, {"type": "node", "id": 6617522891, "lat": 56.4096501, "lon": 15.0988626, "tags": {"name": "\u00c4gg", "shop": "farm"}}, {"type": "node", "id": 6638587741, "lat": 64.3766343, "lon": 19.4050861, "tags": {"payment:cash": "yes", "product": "vegetables", "shop": "farm"}}, {"type": "node", "id": 988657969, "lat": 59.8582422, "lon": 17.6390457, "tags": {"name": "B\u00f6nor & Blad", "opening_hours": "Mo-Fr 10:00-18:00; Sa 10:00-17:00", "shop": "coffee"}}, {"type": "node", "id": 1035762953, "lat": 57.6940531, "lon": 11.9870809, "tags": {"amenity": "cafe", "name": "Kajsas Kaf\u00e9", "shop": "coffee"}}, {"type": "node", "id": 1674642143, "lat": 56.6635038, "lon": 16.3639392, "tags": {"drink:coffee": "yes", "drink:tea": "yes", "name": "Gerdas Te & Kaffe", "shop": "coffee"}}, {"type": "node", "id": 1802803158, "lat": 58.3887186, "lon": 13.8450892, "tags": {"addr:city": "Sk\u00f6vde", "addr:country": "SE", "addr:housenumber": "13", "addr:street": "Storgatan", "name": "Record", "shop": "coffee"}}, {"type": "node", "id": 2078806787, "lat": 57.699104, "lon": 11.976299, "tags": {"name": "Nespresso", "opening_hours": "Mo-Fr 10:00-18:00; Sa 10:00-16:00; Su 12:00-16:00", "shop": "coffee"}}, {"type": "node", "id": 2293728988, "lat": 55.6046786, "lon": 13.0000102, "tags": {"name": "Nespresso", "shop": "coffee"}}, {"type": "node", "id": 2304864384, "lat": 57.7132825, "lon": 12.0071732, "tags": {"addr:country": "SE", "addr:housenumber": "91", "addr:street": "Danska V\u00e4gen", "name": "Kaffelunden", "opening_hours": "Mo-Fr 11:00-18:00, Sa 10:00-15:00", "shop": "coffee", "website": "https://kaffelunden.se/"}}, {"type": "node", "id": 2696484907, "lat": 57.6979503, "lon": 11.9525493, "tags": {"name": "Kaffelabbet", "opening_hours": "Mo-Fr 10:00-18:00; Sa 11:00-15:00", "shop": "coffee"}}, {"type": "node", "id": 3051074380, "lat": 55.5949073, "lon": 13.0033788, "tags": {"description": "The & Kaffehandel", "name": "Kahls", "shop": "coffee"}}, {"type": "node", "id": 3253731669, "lat": 58.0742478, "lon": 11.8234916, "tags": {"name": "Kaffe & Tebod", "opening_hours": "Tu-Fr 10:00-18:00; Sa 10:00-14:00", "shop": "coffee"}}, {"type": "node", "id": 3377732376, "lat": 59.3362171, "lon": 18.0701628, "tags": {"name": "Nespresso", "opening_hours": "Mo-Fr 10:00-19:00; Sa 10:00-17:00; Su 12:00-16:00", "shop": "coffee"}}, {"type": "node", "id": 3817837466, "lat": 59.3330974, "lon": 18.0627798, "tags": {"name": "Kahls", "shop": "coffee"}}, {"type": "node", "id": 4118896690, "lat": 63.8073011, "lon": 20.254823, "tags": {"name": "Kahls", "shop": "coffee"}}, {"type": "node", "id": 4151284489, "lat": 63.8177043, "lon": 20.2982249, "tags": {"level": "0", "name": "Kahls", "shop": "coffee", "wheelchair": "yes"}}, {"type": "node", "id": 4168157668, "lat": 63.8471477, "lon": 20.1564429, "tags": {"fee": "no", "indoor": "yes", "operator": "Media Markt", "shop": "coffee"}}, {"type": "node", "id": 4890455136, "lat": 59.3237424, "lon": 18.0713196, "tags": {"name": "Lisa's", "shop": "coffee"}}, {"type": "node", "id": 5302734867, "lat": 59.3661769, "lon": 18.1353571, "tags": {"name": "Pressbyr\u00e5n", "shop": "coffee"}}, {"type": "node", "id": 6174640785, "lat": 59.6437824, "lon": 17.9292227, "tags": {"brand": "Starbucks", "cuisine": "coffee_shop", "level": "0", "name": "Starbucks", "shop": "coffee", "wheelchair": "yes"}}, {"type": "node", "id": 6428052295, "lat": 59.3369123, "lon": 18.0803868, "tags": {"bulk_purchase": "yes", "name": "Sibyllans Kaffe & Tehandel", "opening_hours": "Mo-Su 10:00-18:00", "phone": "+46 8 662 06 63", "shop": "coffee", "website": "https://sibyllans.se/"}}, {"type": "node", "id": 6656937370, "lat": 59.3080824, "lon": 18.0740798, "tags": {"addr:city": "Stockholm", "addr:housenumber": "132", "addr:postcode": "118 62", "addr:street": "G\u00f6tgatan", "bulk_purchase": "yes", "name": "B\u00f6nor och Blad", "shop": "coffee"}}, {"type": "node", "id": 567173646, "lat": 59.2764964, "lon": 17.9071009, "tags": {"amenity": "marketplace", "name": "Torghandel", "outdoor": "yes", "shop": "greengrocer"}}, {"type": "node", "id": 662898243, "lat": 55.4711215, "lon": 13.019002, "tags": {"shop": "greengrocer"}}, {"type": "node", "id": 756635651, "lat": 57.7523961, "lon": 12.0319562, "tags": {"name": "Kortedala Frukt & Gr\u00f6nt", "shop": "greengrocer"}}, {"type": "node", "id": 1251653375, "lat": 59.4453452, "lon": 17.9666248, "tags": {"shop": "greengrocer"}}, {"type": "node", "id": 1326129924, "lat": 59.3286056, "lon": 18.0468825, "tags": {"name": "Fruktaff\u00e4ren", "shop": "greengrocer"}}, {"type": "node", "id": 1332646377, "lat": 59.294595, "lon": 18.0326622, "tags": {"addr:country": "SE", "addr:housenumber": "14", "addr:street": "Marknadsv\u00e4gen", "name": "Allgr\u00f6nt", "shop": "greengrocer"}}, {"type": "node", "id": 1332646387, "lat": 59.2944005, "lon": 18.0325282, "tags": {"addr:country": "SE", "addr:housenumber": "14", "addr:street": "Marknadsv\u00e4gen", "name": "Fruktg\u00e5rden i \u00c5rsta", "shop": "greengrocer"}}, {"type": "node", "id": 1332646396, "lat": 59.2952579, "lon": 18.0329384, "tags": {"addr:country": "SE", "addr:housenumber": "10", "addr:street": "Marknadsv\u00e4gen", "name": "Lotus Frukt och Gr\u00f6nt", "shop": "greengrocer"}}, {"type": "node", "id": 1332654778, "lat": 59.2939116, "lon": 18.0321902, "tags": {"addr:country": "SE", "addr:housenumber": "14", "addr:street": "Marknadsv\u00e4gen", "name": "Lindus Frukt och Gr\u00f6nt", "shop": "greengrocer"}}, {"type": "node", "id": 1332654783, "lat": 59.293791, "lon": 18.0320774, "tags": {"addr:country": "SE", "addr:housenumber": "18", "addr:street": "Marknadsv\u00e4gen", "name": "Gr\u00f6nkvist Gr\u00f6nsaker", "shop": "greengrocer"}}, {"type": "node", "id": 1372886768, "lat": 57.1165469, "lon": 12.2772003, "tags": {"name": "Gr\u00f6nsakslandet", "shop": "greengrocer", "source": "GPS"}}, {"type": "node", "id": 1547233683, "lat": 59.3147163, "lon": 18.0710156, "tags": {"name": "S\u00f6derhallarna Frukt & Gr\u00f6nt", "shop": "greengrocer"}}, {"type": "node", "id": 1570367012, "lat": 57.6920856, "lon": 11.9780694, "tags": {"name": "Gibraltargatans Frukt och Gr\u00f6nt", "shop": "greengrocer"}}, {"type": "node", "id": 1574975249, "lat": 57.68677, "lon": 11.9857877, "tags": {"name": "Gr\u00f6na Oasen", "opening_hours": "Mo-Fr 09:00-20:00; Sa,Su 09:00-19:00", "shop": "greengrocer"}}, {"type": "node", "id": 1594535405, "lat": 57.7146158, "lon": 11.9977292, "tags": {"name": "4-Frukt", "shop": "greengrocer"}}, {"type": "node", "id": 1619210728, "lat": 57.7117933, "lon": 12.0074598, "tags": {"name": "Toppen Frukt och Gr\u00f6nt", "opening_hours": "Mo-Fr 08:00-20:00, Sa 09:00-19:00, Su 09:00-18:00", "shop": "greengrocer", "source": "Local Knowledge"}}, {"type": "node", "id": 1670453051, "lat": 55.7061207, "lon": 13.1829483, "tags": {"addr:country": "SE", "addr:housenumber": "11B", "addr:street": "Byggm\u00e4staregatan", "name": "Tant Gurka", "opening_hours": "Th,Fr 12:00-18:00; Sa 10:00-14:00; PH off", "organic": "yes", "phone": "+46 46-123110", "shop": "greengrocer", "website": "http://www.tantgurka.se/"}}, {"type": "node", "id": 1726889282, "lat": 55.5910612, "lon": 13.0062983, "tags": {"name": "Sami frukt & gr\u00f6nt", "shop": "greengrocer"}}, {"type": "node", "id": 1780649115, "lat": 57.1071279, "lon": 12.2503513, "tags": {"name": "Frukt", "shop": "greengrocer"}}, {"type": "node", "id": 1830592375, "lat": 59.9665143, "lon": 18.8496042, "tags": {"name": "Senneby g\u00e5rd", "shop": "greengrocer"}}, {"type": "node", "id": 1831920377, "lat": 59.347775, "lon": 18.0041034, "tags": {"name": "V\u00e4stra Livs & Gr\u00f6nt", "opening_hours": "Mo-Sa 09:00-22:00; Su 11:00-18:00", "phone": "276778", "shop": "greengrocer", "source": "survey"}}, {"type": "node", "id": 1844283629, "lat": 56.6731221, "lon": 16.3511431, "tags": {"name": "Nilsson& Lindblom frukt o. gr\u00f6nt", "shop": "greengrocer"}}, {"type": "node", "id": 1855024989, "lat": 57.0818997, "lon": 12.30712, "tags": {"name": "Vareborgs B\u00e4rodling", "shop": "greengrocer"}}, {"type": "node", "id": 1897902192, "lat": 57.7190399, "lon": 12.0261208, "tags": {"name": "Munkeb\u00e4cks Frukt & Gr\u00f6nt", "shop": "greengrocer"}}, {"type": "node", "id": 1944192746, "lat": 55.6816, "lon": 13.1891063, "tags": {"addr:city": "Staffanstorp", "addr:country": "SE", "addr:housename": "H\u00f6jebrom\u00f6lla", "addr:postcode": "24593", "contact:email": "info@hojebromolla.se", "contact:phone": "+46 46-78 00 212", "contact:website": "http://www.hojebromolla.se/", "name": "H\u00f6jebrom\u00f6lla", "shop": "greengrocer"}}, {"type": "node", "id": 1958044242, "lat": 59.3753898, "lon": 17.9698706, "tags": {"shop": "greengrocer"}}, {"type": "node", "id": 1966406448, "lat": 59.7942308, "lon": 17.3705302, "tags": {"shop": "greengrocer"}}, {"type": "node", "id": 2139231460, "lat": 57.7123163, "lon": 11.8918798, "tags": {"name": "V\u00e5rv\u00e4ders Frukthall", "shop": "greengrocer"}}, {"type": "node", "id": 2152041812, "lat": 57.7032724, "lon": 11.9675338, "tags": {"shop": "greengrocer"}}, {"type": "node", "id": 2284766652, "lat": 59.2850489, "lon": 17.9213117, "tags": {"level": "0", "name": "Livets frukt och gr\u00f6nt", "shop": "greengrocer", "source": "knowledge"}}, {"type": "node", "id": 2347965612, "lat": 57.174459, "lon": 12.2787554, "tags": {"name": "Warberg Tomat", "shop": "greengrocer"}}, {"type": "node", "id": 2428938085, "lat": 59.1776743, "lon": 17.4317738, "tags": {"shop": "greengrocer"}}, {"type": "node", "id": 2466637568, "lat": 57.8705221, "lon": 11.9797668, "tags": {"name": "Frukt & Gr\u00f6nt", "shop": "greengrocer"}}, {"type": "node", "id": 2515672705, "lat": 57.6958224, "lon": 11.9427836, "tags": {"access": "yes", "addr:city": "G\u00f6teborg", "addr:country": "SE", "addr:housenumber": "26", "addr:postcode": "41317", "addr:street": "Fj\u00e4llgatan", "contact:facebook": "https://www.facebook.com/pages/Lustg%C3%A5rdens-Gr%C3%B6nsaksbutik/149987241719582", "contact:phone": "+46 31 12 20 88", "entrance": "yes", "name": "Lustg\u00e5rdens Gr\u00f6nsaksbutik", "shop": "greengrocer"}}, {"type": "node", "id": 2829498054, "lat": 55.6168436, "lon": 13.0341726, "tags": {"addr:city": "Malm\u00f6", "addr:country": "SE", "addr:housenumber": "2", "addr:street": "\u00d6cker\u00f6gatan", "entrance": "yes", "name": "Centrumgrossisten i Malm\u00f6 AB", "shop": "greengrocer"}}, {"type": "node", "id": 2929162417, "lat": 55.9540624, "lon": 12.7728239, "tags": {"name": "G\u00e5rdsbutiken - Nylanders R\u00f6tt & Gr\u00f6nt", "shop": "greengrocer"}}, {"type": "node", "id": 3372075652, "lat": 58.41516, "lon": 13.8798089, "tags": {"addr:city": "Sk\u00f6vde", "addr:country": "SE", "addr:housenumber": "6", "addr:postcode": "54139", "addr:street": "Titanv\u00e4gen", "contact:email": "info@gronsakshuset.se", "contact:fax": "+46500413160", "contact:phone": "+46500471665", "contact:website": "http://gronsakshuset.se", "name": "Gr\u00f6nsakshuset Sk\u00f6vde", "opening_hours": "Mo-Fr 08:00-17:30; Sa 09:30-16:00; PH Su off", "operator": "AB Sk\u00f6vde Gr\u00f6nsakshus", "organic": "yes", "shop": "greengrocer"}}, {"type": "node", "id": 3660101925, "lat": 57.702744, "lon": 11.963843, "tags": {"name": "Satco", "shop": "greengrocer"}}, {"type": "node", "id": 3687284617, "lat": 63.8121803, "lon": 20.315234, "tags": {"name": "Fresh Grocery Store", "shop": "greengrocer"}}, {"type": "node", "id": 3708473287, "lat": 59.0038681, "lon": 17.1061003, "tags": {"addr:country": "SE", "addr:housenumber": "3", "addr:street": "Kleva Peterslund", "name": "Peterslunds ekoodling", "opening_hours": "Fr 15:00-18:00, Sa 11:00-16:00", "shop": "greengrocer"}}, {"type": "node", "id": 3728114486, "lat": 56.162935, "lon": 15.5863304, "tags": {"name": "Parken Frukt & Gr\u00f6nt", "shop": "greengrocer"}}, {"type": "node", "id": 3882917041, "lat": 57.6935321, "lon": 11.9583827, "tags": {"name": "4 Frukt", "shop": "greengrocer"}}, {"type": "node", "id": 4001051234, "lat": 55.5899558, "lon": 13.0123113, "tags": {"name": "Al Hilo Market", "shop": "greengrocer", "wheelchair": "no"}}, {"type": "node", "id": 4232013289, "lat": 57.845043, "lon": 14.2802829, "tags": {"addr:country": "SE", "addr:housenumber": "50", "addr:postcode": "56192", "addr:street": "Rudu", "name": "Rudenstams G\u00e5rdsbutik", "opening_hours": "Mo-Fr 10:00-18:00; Sa 09:00-14:00", "payment:cash": "yes", "payment:credit_cards": "yes", "phone": "+46 363-300500", "shop": "greengrocer", "website": "https://www.rudenstam.se/gardsbutik/"}}, {"type": "node", "id": 4307974546, "lat": 55.4353443, "lon": 13.0667777, "tags": {"name": "Hallong\u00e5rden", "shop": "greengrocer"}}, {"type": "node", "id": 4315542289, "lat": 61.8061792, "lon": 16.774394, "tags": {"name": "bl\u00e5b\u00e4r", "shop": "greengrocer"}}, {"type": "node", "id": 4343144369, "lat": 58.3856712, "lon": 13.4378914, "tags": {"shop": "greengrocer"}}, {"type": "node", "id": 4356741063, "lat": 55.5771283, "lon": 13.0234096, "tags": {"name": "Frukthuset", "shop": "greengrocer"}}, {"type": "node", "id": 4409184611, "lat": 57.7503058, "lon": 11.983478, "tags": {"addr:city": "Hisings Backa", "addr:country": "SE", "addr:housenumber": "12", "addr:street": "Selma Lagerl\u00f6fs Torg", "name": "Selmas Frukthall", "shop": "greengrocer"}}, {"type": "node", "id": 4496973301, "lat": 55.6079226, "lon": 12.9906046, "tags": {"name": "FG Hallen", "shop": "greengrocer"}}, {"type": "node", "id": 4563538683, "lat": 59.8004825, "lon": 18.9681643, "tags": {"level": "0", "name": "V\u00e4t\u00f6 Sj\u00e4lvplock", "payment:credit_cards": "yes", "payment:swish": "yes", "phone": "070-2464970", "shop": "greengrocer", "website": "http://vatosjalvplock.dinstudio.se", "wheelchair": "no"}}, {"type": "node", "id": 4963715683, "lat": 55.7295078, "lon": 13.0665342, "tags": {"name": "Fl\u00e4die sj\u00e4lvplock.", "shop": "greengrocer"}}, {"type": "node", "id": 5051953096, "lat": 57.6926192, "lon": 11.9182928, "tags": {"name": "Karl Johans Frukt & Gr\u00f6nt", "shop": "greengrocer"}}, {"type": "node", "id": 5105103624, "lat": 59.3583923, "lon": 17.9990022, "tags": {"shop": "greengrocer"}}, {"type": "node", "id": 5226070621, "lat": 59.9194534, "lon": 13.5625092, "tags": {"name": "Torfolk G\u00e5rd", "opening_hours": "Th-Fr 15:00-18:00; Sa 12:00-15:00", "phone": "+46 563-723 68", "shop": "greengrocer", "website": "http://torfolk.se"}}, {"type": "node", "id": 5523491170, "lat": 60.4038494, "lon": 15.6953575, "tags": {"name": "Lisselstugans Gr\u00f6nsaker", "shop": "greengrocer", "website": "http://lisselstugans.se"}}, {"type": "node", "id": 5612177962, "lat": 57.8747282, "lon": 11.9734479, "tags": {"name": "Fru B\u00e4r", "shop": "greengrocer"}}, {"type": "node", "id": 5754268822, "lat": 56.5745314, "lon": 14.7943143, "tags": {"name": "\u00d6ppen Gardsbod", "shop": "greengrocer", "website": "http://www.gardsbod.se"}}, {"type": "node", "id": 5799464942, "lat": 57.6864215, "lon": 11.9174578, "tags": {"name": "Picknick i Majorna", "old_name": "Gr\u00f6nsakslandet", "shop": "greengrocer", "start_date": "2017"}}, {"type": "node", "id": 5825546362, "lat": 58.425222, "lon": 14.1642375, "tags": {"name": "Blommans Frukt & Gr\u00f6nt", "shop": "greengrocer"}}, {"type": "node", "id": 6302316116, "lat": 57.7565469, "lon": 12.0723078, "tags": {"shop": "greengrocer"}}, {"type": "node", "id": 6450813485, "lat": 59.3384109, "lon": 17.9383028, "tags": {"shop": "greengrocer"}}, {"type": "node", "id": 6450813486, "lat": 59.3383541, "lon": 17.9384315, "tags": {"organic": "yes", "shop": "greengrocer"}}, {"type": "node", "id": 6593130556, "lat": 60.9169428, "lon": 14.6075519, "tags": {"amenity": "cafe", "ele": "188.36039700000001", "name": "Soller\u00f6 Jordgubbar", "shop": "greengrocer", "source": "survey"}}, {"type": "node", "id": 6597636903, "lat": 55.8507623, "lon": 13.6609723, "tags": {"name": "City Frukt & Gr\u00f6nt", "shop": "greengrocer"}}, {"type": "node", "id": 6653696486, "lat": 59.3538847, "lon": 18.0886558, "tags": {"email": "muazzem74@yahoo.com", "name": "Sunny Delikatess", "opening_hours": "Mo-Fr 10:00-20:00; Sa 09:00-18:00; Su 10:00-17:00", "phone": "0735301638", "shop": "greengrocer", "website": "http://www.sunydelikatess.se"}}, {"type": "node", "id": 1547264370, "lat": 59.3147582, "lon": 18.0708907, "tags": {"fixme": "sells tea, candy and coffee, also serves", "name": "Himalaya Te", "shop": "tea", "website": "himalayanet.se"}}, {"type": "node", "id": 1668970743, "lat": 55.7014779, "lon": 13.1939174, "tags": {"name": "Tehuset Java", "opening_hours": "Mo-Fr 10:00-18:30; Sa 10:00-16:00", "shop": "tea", "wheelchair": "limited"}}, {"type": "node", "id": 2151827354, "lat": 57.7039479, "lon": 11.9690846, "tags": {"name": "Thehuset", "shop": "tea"}}, {"type": "node", "id": 2154571510, "lat": 57.7051601, "lon": 11.9659353, "tags": {"name": "Indiska The & Kaffe Magasinet", "opening_hours": "Mo-Fr 10:00-18:00; Sa 10:00-15:00", "shop": "tea"}}, {"type": "node", "id": 2165234244, "lat": 57.7234744, "lon": 11.9539738, "tags": {"name": "Kahls The & Kaffehandel", "shop": "tea"}}, {"type": "node", "id": 2293728929, "lat": 55.6046602, "lon": 13.0009351, "tags": {"name": "Five o'clock The-handel", "shop": "tea"}}, {"type": "node", "id": 2315799494, "lat": 64.7502336, "lon": 20.9575182, "tags": {"name": "T-magasinet", "shop": "tea", "website": "http://www.t-magasinet.se"}}, {"type": "node", "id": 2367039302, "lat": 59.814029, "lon": 17.1086416, "tags": {"name": "Pekoe ekologiskt te", "phone": "+46-171-142090", "shop": "tea", "website": "https://www.pekoe.se/"}}, {"type": "node", "id": 2456831957, "lat": 59.3192282, "lon": 18.0643163, "tags": {"name": "The Tea Centre of Stockholm", "phone": "+46-8-6404210", "shop": "tea", "website": "http://www.theteacentre.se/"}}, {"type": "node", "id": 3136564790, "lat": 65.5838122, "lon": 22.1530965, "tags": {"name": "Th\u00e9 shoppen", "opening_hours": "Mo-Fr 10:00-19:00;Sa 10:00-16:00;Su 12:00-16:00;Nov 1 12:00-16:00;Dec 25 off", "shop": "tea"}}, {"type": "node", "id": 3202868061, "lat": 57.708429, "lon": 11.970525, "tags": {"name": "G\u00f6theborgs Te & Kaffehandel", "opening_hours": "Mo-Fr 10:00-20:00; Sa-Su 10:00-18:00", "shop": "tea"}}, {"type": "node", "id": 3296461361, "lat": 58.3544092, "lon": 11.8097671, "tags": {"fixme": "resurvey", "name": "Kahls", "shop": "tea"}}, {"type": "node", "id": 3592057498, "lat": 57.699448, "lon": 11.950706, "tags": {"name": "Tekultur", "shop": "tea"}}, {"type": "node", "id": 3835367605, "lat": 59.3344736, "lon": 18.0597405, "tags": {"name": "Thehuset", "opening_hours": "Mo-Fr 10:00-18:00; Sa 10:00-16:00", "shop": "tea", "website": "https://thehuset.se/", "wheelchair": "no"}}, {"type": "node", "id": 4303105745, "lat": 56.5132281, "lon": 13.0437911, "tags": {"shop": "tea"}}, {"type": "node", "id": 4339483507, "lat": 59.8607954, "lon": 17.6345921, "tags": {"addr:city": "Uppsala", "addr:housenumber": "16A", "addr:street": "Svartb\u00e4cksgatan", "bulk_purchase": "yes", "name": "Teh\u00f6rnan", "opening_hours": "Mo-Fr 10:00-18:00; Sa 10:00-15:00; Su off", "phone": "+46 18 101125", "shop": "tea", "website": "https://www.tehornan.se"}}, {"type": "node", "id": 4345612592, "lat": 59.342405, "lon": 18.049715, "tags": {"name": "Testugan", "shop": "tea", "website": "https://testugan.se/"}}, {"type": "node", "id": 5007919488, "lat": 63.1778465, "lon": 14.6373735, "tags": {"addr:city": "\u00d6stersund", "addr:country": "SE", "addr:housenumber": "13", "addr:postcode": "83131", "addr:street": "Biblioteksgatan", "name": "Te-Centralen", "shop": "tea", "website": "https://www.tecentralen.se/"}}, {"type": "node", "id": 5549708373, "lat": 59.3096164, "lon": 18.1646853, "tags": {"addr:city": "Nacka", "addr:country": "SE", "addr:housenumber": "12", "addr:postcode": "131 53", "addr:street": "Forumv\u00e4gen", "level": "1", "name": "Nacka te & kaffe handel", "phone": "+46 08-718 30 20", "shop": "tea", "source": "local knowledge"}}, {"type": "node", "id": 5583897933, "lat": 59.3452555, "lon": 18.0612768, "tags": {"name": "Tehuset Java", "opening_hours": "Mo-Fr 10:00-18:30; Sa 10:00-17:00; Su 12:00-16:00", "shop": "tea", "website": "https://www.tehusetjava.se/"}}, {"type": "node", "id": 5645241701, "lat": 59.3419016, "lon": 18.0517607, "tags": {"name": "In the Mood for Tea", "opening_hours": "Tu-Fr 12:00-18:00; Sa 11:00-15:00; Mo,Su off", "shop": "tea", "website": "https://www.inthemoodfortea.se/"}}, {"type": "node", "id": 5764202506, "lat": 59.3981502, "lon": 18.0361711, "tags": {"name": "Danderyds te och kaffehandel", "shop": "tea"}}, {"type": "node", "id": 6247410820, "lat": 55.87046, "lon": 12.8322734, "tags": {"addr:housenumber": "16", "addr:street": "\u00d6stergatan", "name": "Flizans Te & Kaffe", "opening_hours": "Mo-Fr 10:00-18:00; Sa 10:00-16:00", "shop": "tea"}}, {"type": "node", "id": 6459851904, "lat": 59.3369142, "lon": 18.0803852, "tags": {"name": "Sibyllans Caffe och Te", "opening_hours": "Mo-Fr 10:00-18:00; Sa 10:00-16:00", "shop": "tea"}}, {"type": "node", "id": 6515021981, "lat": 59.8580652, "lon": 17.6405668, "tags": {"name": "Teh\u00f6rnan", "phone": "+46 18 101125", "shop": "tea", "website": "https://www.tehornan.se/"}}, {"type": "node", "id": 6555766581, "lat": 59.3604814, "lon": 17.9993539, "tags": {"name": "Solna te & kaffe", "opening_hours": "Mo-Fr 10:00-20:00, 09:00-18:00; Sa 10:00-18:00; Su 11:00-18:00", "shop": "tea"}}, {"type": "node", "id": 1931190366, "lat": 63.8291219, "lon": 20.2671463, "tags": {"addr:city": "Ume\u00e5", "addr:country": "SE", "addr:housenumber": "18C", "addr:postcode": "903 28", "addr:street": "R\u00e5dhusesplanaden", "name": "Ume\u00e5 Orienthuset", "shop": "spices"}}, {"type": "node", "id": 4721784568, "lat": 57.7151719, "lon": 12.0021401, "tags": {"addr:country": "SE", "addr:housenumber": "24", "addr:street": "Redbergsv\u00e4gen", "operator": "Kryddhuset", "shop": "spices", "website": "http://www.kryddhuset.nu/"}}]}