{
  "version": 0.6,
  "generator": "Overpass API 0.7.55.7 8b86ff77",
  "osm3s": {
    "timestamp_osm_base": "2019-07-02T21:00:02Z",
    "timestamp_areas_base": "2019-07-02T20:11:02Z",
    "copyright": "The data included in this document is from www.openstreetmap.org. The data is made available under ODbL."
  },
  "elements": [
    {
      "type": "node",
      "id": 28230521,
      "lat": -25.784945,
      "lon": 28.3076047,
      "tags": {
        "created_by": "JOSM",
        "name": "Hokaai Shopping Centre",
        "shop": "butcher"
      }
    },
    {
      "type": "node",
      "id": 80566426,
      "lat": -26.1162845,
      "lon": 27.9720493,
      "tags": {
        "shop": "butcher"
      }
    },
    {
      "type": "node",
      "id": 253039025,
      "lat": -26.1619033,
      "lon": 28.0120536,
      "tags": {
        "created_by": "JOSM",
        "name": "Komatie",
        "shop": "butcher"
      }
    },
    {
      "type": "node",
      "id": 290403202,
      "lat": -25.73367,
      "lon": 28.30301,
      "tags": {
        "name": "Silver",
        "shop": "butcher"
      }
    },
    {
      "type": "node",
      "id": 290403275,
      "lat": -25.73438,
      "lon": 28.30013,
      "tags": {
        "name": "Uitkyk",
        "shop": "butcher"
      }
    },
    {
      "type": "node",
      "id": 290409811,
      "lat": -25.70587,
      "lon": 28.27357,
      "tags": {
        "name": "Rudi se Duitse",
        "shop": "butcher"
      }
    },
    {
      "type": "node",
      "id": 291445889,
      "lat": -26.06276,
      "lon": 27.90232,
      "tags": {
        "name": "Bud's",
        "shop": "butcher"
      }
    },
    {
      "type": "node",
      "id": 292277373,
      "lat": -25.76886,
      "lon": 28.29081,
      "tags": {
        "name": "Groenkloof",
        "shop": "butcher"
      }
    },
    {
      "type": "node",
      "id": 292558631,
      "lat": -25.7780338,
      "lon": 28.2835166,
      "tags": {
        "name": "Chubby Chick",
        "shop": "butcher"
      }
    },
    {
      "type": "node",
      "id": 292559225,
      "lat": -25.76122,
      "lon": 28.25098,
      "tags": {
        "name": "Lynnpark",
        "shop": "butcher"
      }
    },
    {
      "type": "node",
      "id": 293714861,
      "lat": -25.7894381,
      "lon": 28.3144166,
      "tags": {
        "name": "The Meat Masters",
        "shop": "butcher",
        "source": "survey"
      }
    },
    {
      "type": "node",
      "id": 294145162,
      "lat": -25.75267,
      "lon": 28.20535,
      "tags": {
        "addr:city": "Pretoria",
        "addr:street": "Robert Sobukwe Street",
        "name": "Bronberg",
        "shop": "butcher"
      }
    },
    {
      "type": "node",
      "id": 294145233,
      "lat": -25.7539,
      "lon": 28.20833,
      "tags": {
        "addr:city": "Pretoria",
        "addr:street": "Robert Sobukwe Street",
        "name": "Afia",
        "shop": "butcher"
      }
    },
    {
      "type": "node",
      "id": 296434923,
      "lat": -25.7031518,
      "lon": 28.2426267,
      "tags": {
        "name": "Waverly Butchery",
        "shop": "butcher"
      }
    },
    {
      "type": "node",
      "id": 296435001,
      "lat": -25.7021312,
      "lon": 28.2422702,
      "tags": {
        "name": "Bloubul",
        "shop": "butcher"
      }
    },
    {
      "type": "node",
      "id": 296435384,
      "lat": -25.7183,
      "lon": 28.22797,
      "tags": {
        "shop": "butcher"
      }
    },
    {
      "type": "node",
      "id": 296435462,
      "lat": -25.71876,
      "lon": 28.21819,
      "tags": {
        "shop": "butcher"
      }
    },
    {
      "type": "node",
      "id": 296498461,
      "lat": -25.7090102,
      "lon": 28.20119,
      "tags": {
        "shop": "butcher"
      }
    },
    {
      "type": "node",
      "id": 296498526,
      "lat": -25.70715,
      "lon": 28.2003,
      "tags": {
        "name": "King",
        "shop": "butcher"
      }
    },
    {
      "type": "node",
      "id": 296498872,
      "lat": -25.72481,
      "lon": 28.2032,
      "tags": {
        "name": "Caprivi",
        "shop": "butcher"
      }
    },
    {
      "type": "node",
      "id": 298122362,
      "lat": -26.09355,
      "lon": 28.00485,
      "tags": {
        "name": "Prime",
        "shop": "butcher"
      }
    },
    {
      "type": "node",
      "id": 300376425,
      "lat": -25.8271348,
      "lon": 28.258963,
      "tags": {
        "name": "Meat World",
        "shop": "butcher"
      }
    },
    {
      "type": "node",
      "id": 300386002,
      "lat": -25.8580538,
      "lon": 28.1889874,
      "tags": {
        "name": "Hokaai",
        "shop": "butcher"
      }
    },
    {
      "type": "node",
      "id": 300386155,
      "lat": -25.8437751,
      "lon": 28.2089299,
      "tags": {
        "name": "Meat Buzz",
        "shop": "butcher"
      }
    },
    {
      "type": "node",
      "id": 302077484,
      "lat": -25.74971,
      "lon": 28.30415,
      "tags": {
        "name": "Alma",
        "shop": "butcher"
      }
    },
    {
      "type": "node",
      "id": 302089579,
      "lat": -25.6783816,
      "lon": 28.2397882,
      "tags": {
        "name": "Hokaai",
        "shop": "butcher"
      }
    },
    {
      "type": "node",
      "id": 303800460,
      "lat": -25.88324,
      "lon": 28.16249,
      "tags": {
        "name": "Meat World",
        "shop": "butcher"
      }
    },
    {
      "type": "node",
      "id": 303800711,
      "lat": -25.8559076,
      "lon": 28.216444,
      "tags": {
        "name": "Espaninie's",
        "shop": "butcher"
      }
    },
    {
      "type": "node",
      "id": 305453318,
      "lat": -25.73325,
      "lon": 28.33055,
      "tags": {
        "name": "Prime Universal",
        "shop": "butcher"
      }
    },
    {
      "type": "node",
      "id": 305745546,
      "lat": -26.0438197,
      "lon": 28.0149185,
      "tags": {
        "name": "Sloane Meat Market",
        "shop": "butcher"
      }
    },
    {
      "type": "node",
      "id": 305745848,
      "lat": -26.01505,
      "lon": 28.01258,
      "tags": {
        "name": "Ocean Fresh",
        "shop": "butcher"
      }
    },
    {
      "type": "node",
      "id": 307692764,
      "lat": -25.7399,
      "lon": 28.19359,
      "tags": {
        "name": "Waltloo",
        "shop": "butcher"
      }
    },
    {
      "type": "node",
      "id": 307692851,
      "lat": -25.74037,
      "lon": 28.1926,
      "tags": {
        "name": "Union",
        "shop": "butcher"
      }
    },
    {
      "type": "node",
      "id": 307693035,
      "lat": -25.74041,
      "lon": 28.19197,
      "tags": {
        "name": "OBC",
        "shop": "butcher"
      }
    },
    {
      "type": "node",
      "id": 309434609,
      "lat": -25.8192771,
      "lon": 28.2892217,
      "tags": {
        "shop": "butcher"
      }
    },
    {
      "type": "node",
      "id": 313775172,
      "lat": -25.8919985,
      "lon": 28.3860751,
      "tags": {
        "shop": "butcher"
      }
    },
    {
      "type": "node",
      "id": 320685284,
      "lat": -25.87582,
      "lon": 28.22385,
      "tags": {
        "shop": "butcher"
      }
    },
    {
      "type": "node",
      "id": 325243773,
      "lat": -25.71559,
      "lon": 28.10472,
      "tags": {
        "name": "Sandfontein",
        "shop": "butcher"
      }
    },
    {
      "type": "node",
      "id": 325243878,
      "lat": -25.7224873,
      "lon": 27.9779229,
      "tags": {
        "name": "Bynes",
        "shop": "butcher"
      }
    },
    {
      "type": "node",
      "id": 343491645,
      "lat": -26.07005,
      "lon": 28.24576,
      "tags": {
        "name": "Glenaire",
        "shop": "butcher"
      }
    },
    {
      "type": "node",
      "id": 373384922,
      "lat": -26.07913,
      "lon": 27.9258,
      "tags": {
        "name": "Fish Citi",
        "shop": "butcher"
      }
    },
    {
      "type": "node",
      "id": 373385356,
      "lat": -26.08034,
      "lon": 27.92708,
      "tags": {
        "name": "Mingles",
        "shop": "butcher"
      }
    },
    {
      "type": "node",
      "id": 373385602,
      "lat": -26.095759,
      "lon": 27.927801,
      "tags": {
        "name": "Delft",
        "shop": "butcher"
      }
    },
    {
      "type": "node",
      "id": 384039873,
      "lat": -26.1355515,
      "lon": 28.3712996,
      "tags": {
        "shop": "butcher"
      }
    },
    {
      "type": "node",
      "id": 386158410,
      "lat": -25.73173,
      "lon": 28.26079,
      "tags": {
        "name": "Prima",
        "shop": "butcher"
      }
    },
    {
      "type": "node",
      "id": 386158428,
      "lat": -25.7043737,
      "lon": 28.2358933,
      "tags": {
        "name": "Sommies",
        "shop": "butcher"
      }
    },
    {
      "type": "node",
      "id": 386204085,
      "lat": -25.79789,
      "lon": 28.15336,
      "tags": {
        "name": "Van Zyl's",
        "shop": "butcher"
      }
    },
    {
      "type": "node",
      "id": 386204093,
      "lat": -25.79775,
      "lon": 28.15222,
      "tags": {
        "name": "Doreen",
        "shop": "butcher"
      }
    },
    {
      "type": "node",
      "id": 537112072,
      "lat": -33.9345134,
      "lon": 18.4453217,
      "tags": {
        "shop": "butcher"
      }
    },
    {
      "type": "node",
      "id": 550179555,
      "lat": -25.8085627,
      "lon": 28.299027,
      "tags": {
        "name": "Boma",
        "shop": "butcher"
      }
    },
    {
      "type": "node",
      "id": 550180710,
      "lat": -25.7895914,
      "lon": 28.2887918,
      "tags": {
        "shop": "butcher"
      }
    },
    {
      "type": "node",
      "id": 624638291,
      "lat": -26.0402193,
      "lon": 28.0464112,
      "tags": {
        "name": "Sandton Butchery",
        "shop": "butcher"
      }
    },
    {
      "type": "node",
      "id": 656667447,
      "lat": -25.99839,
      "lon": 28.12932,
      "tags": {
        "name": "Nelson's",
        "shop": "butcher",
        "source": "survey"
      }
    },
    {
      "type": "node",
      "id": 656847957,
      "lat": -26.0826528,
      "lon": 28.0854043,
      "tags": {
        "shop": "butcher",
        "source": "survey"
      }
    },
    {
      "type": "node",
      "id": 666706961,
      "lat": -34.2031003,
      "lon": 21.585749,
      "tags": {
        "name": "Albertinia Wors",
        "shop": "butcher"
      }
    },
    {
      "type": "node",
      "id": 669205125,
      "lat": -33.9712291,
      "lon": 22.4464237,
      "tags": {
        "name": "Watsons",
        "shop": "butcher"
      }
    },
    {
      "type": "node",
      "id": 670269194,
      "lat": -26.2464497,
      "lon": 27.9986728,
      "tags": {
        "name": "Halaal Meat Zone",
        "shop": "butcher"
      }
    },
    {
      "type": "node",
      "id": 688360086,
      "lat": -25.6799668,
      "lon": 27.216159,
      "tags": {
        "name": "Driewiel vleismark",
        "shop": "butcher"
      }
    },
    {
      "type": "node",
      "id": 688949830,
      "lat": -25.6666488,
      "lon": 27.2402725,
      "tags": {
        "name": "Watloo Meat and Chicken",
        "shop": "butcher"
      }
    },
    {
      "type": "node",
      "id": 690745646,
      "lat": -26.1086614,
      "lon": 27.8548412,
      "tags": {
        "name": "Alf's",
        "shop": "butcher"
      }
    },
    {
      "type": "node",
      "id": 798855293,
      "lat": -27.7695355,
      "lon": 30.7898562,
      "tags": {
        "addr:street": "Kerk Street",
        "name": "Biltong & Braai",
        "opening_hours": "Mo-Fr 08:00-17:00; Sa 08:00-12:00",
        "shop": "butcher"
      }
    },
    {
      "type": "node",
      "id": 846363668,
      "lat": -28.9566162,
      "lon": 31.7564168,
      "tags": {
        "shop": "butcher"
      }
    },
    {
      "type": "node",
      "id": 858377587,
      "lat": -33.8707519,
      "lon": 20.1464173,
      "tags": {
        "name": "Happy Hog Butchery",
        "shop": "butcher"
      }
    },
    {
      "type": "node",
      "id": 859397914,
      "lat": -26.1212338,
      "lon": 27.9768168,
      "tags": {
        "name": "Meat 2000",
        "shop": "butcher"
      }
    },
    {
      "type": "node",
      "id": 965084436,
      "lat": -33.3634426,
      "lon": 18.9441794,
      "tags": {
        "name": "Deli-Co",
        "shop": "butcher"
      }
    },
    {
      "type": "node",
      "id": 995923428,
      "lat": -34.0928414,
      "lon": 18.4794589,
      "tags": {
        "description": "Shop that sells dried Meat",
        "name": "The Biltong Man",
        "opening_hours": "Mo 11:00-18:00, 10:00-18:00; Tu-Fr 10:00-18:00, 09:00-18:00; Sa 09:00-14:00",
        "shop": "butcher"
      }
    },
    {
      "type": "node",
      "id": 1001181808,
      "lat": -25.6851694,
      "lon": 28.2383352,
      "tags": {
        "name": "Mara's",
        "shop": "butcher"
      }
    },
    {
      "type": "node",
      "id": 1107841142,
      "lat": -33.9462274,
      "lon": 19.8301481,
      "tags": {
        "name": "McGregor Butchery",
        "shop": "butcher"
      }
    },
    {
      "type": "node",
      "id": 1133883789,
      "lat": -33.9051441,
      "lon": 20.7196126,
      "tags": {
        "shop": "butcher"
      }
    },
    {
      "type": "node",
      "id": 1196283821,
      "lat": -33.0098629,
      "lon": 17.943804,
      "tags": {
        "name": "Cartol",
        "shop": "butcher"
      }
    },
    {
      "type": "node",
      "id": 1222863903,
      "lat": -25.7653056,
      "lon": 28.317175,
      "tags": {
        "name": "Brooklyn Biltong",
        "shop": "butcher"
      }
    },
    {
      "type": "node",
      "id": 1240719137,
      "lat": -33.8939285,
      "lon": 18.6366386,
      "tags": {
        "name": "Piet's Biltong",
        "shop": "butcher"
      }
    },
    {
      "type": "node",
      "id": 1272153171,
      "lat": -30.2089839,
      "lon": 17.933103,
      "tags": {
        "name": "Kamieskroon Slaghuis",
        "shop": "butcher"
      }
    },
    {
      "type": "node",
      "id": 1281786301,
      "lat": -30.558366,
      "lon": 17.989983,
      "tags": {
        "name": "Namakwa Slaghuis",
        "shop": "butcher"
      }
    },
    {
      "type": "node",
      "id": 1319227857,
      "lat": -28.7771957,
      "lon": 20.6207877,
      "tags": {
        "name": "Van's Meat Market",
        "shop": "butcher"
      }
    },
    {
      "type": "node",
      "id": 1320937637,
      "lat": -33.9225851,
      "lon": 18.5392826,
      "tags": {
        "addr:postcode": "7460",
        "addr:street": "Sipres Avenue",
        "name": "Chris & Harry's Butcher",
        "shop": "butcher"
      }
    },
    {
      "type": "node",
      "id": 1324563797,
      "lat": -26.1252969,
      "lon": 27.8649099,
      "tags": {
        "name": "Joe's Butcher",
        "shop": "butcher"
      }
    },
    {
      "type": "node",
      "id": 1333940743,
      "lat": -25.6988507,
      "lon": 28.1832014,
      "tags": {
        "name": "Biltong Deli",
        "shop": "butcher"
      }
    },
    {
      "type": "node",
      "id": 1333940838,
      "lat": -25.7020783,
      "lon": 28.2099741,
      "tags": {
        "name": "Noordelike Slaghuis",
        "shop": "butcher"
      }
    },
    {
      "type": "node",
      "id": 1337285969,
      "lat": -25.6975953,
      "lon": 28.1443447,
      "tags": {
        "shop": "butcher"
      }
    },
    {
      "type": "node",
      "id": 1337285994,
      "lat": -25.7050036,
      "lon": 28.1860244,
      "tags": {
        "name": "Maders",
        "shop": "butcher"
      }
    },
    {
      "type": "node",
      "id": 1342466860,
      "lat": -33.3751086,
      "lon": 18.3785142,
      "tags": {
        "name": "Darling Meat Market",
        "shop": "butcher"
      }
    },
    {
      "type": "node",
      "id": 1362783588,
      "lat": -33.593423,
      "lon": 22.2055298,
      "tags": {
        "shop": "butcher"
      }
    },
    {
      "type": "node",
      "id": 1387502376,
      "lat": -25.765412,
      "lon": 28.278608,
      "tags": {
        "name": "Kings Meat",
        "shop": "butcher"
      }
    },
    {
      "type": "node",
      "id": 1415691737,
      "lat": -25.6020891,
      "lon": 28.373591,
      "tags": {
        "shop": "butcher"
      }
    },
    {
      "type": "node",
      "id": 1525117011,
      "lat": -26.0895743,
      "lon": 27.8178441,
      "tags": {
        "shop": "butcher"
      }
    },
    {
      "type": "node",
      "id": 1545101212,
      "lat": -25.7708646,
      "lon": 28.0911423,
      "tags": {
        "name": "Royal Butchery",
        "shop": "butcher"
      }
    },
    {
      "type": "node",
      "id": 1545703853,
      "lat": -26.0167925,
      "lon": 28.2139146,
      "tags": {
        "name": "Waltloo Meat and Chicken",
        "shop": "butcher"
      }
    },
    {
      "type": "node",
      "id": 1546890263,
      "lat": -26.1795497,
      "lon": 28.2452389,
      "tags": {
        "name": "Meat World",
        "shop": "butcher"
      }
    },
    {
      "type": "node",
      "id": 1546990282,
      "lat": -25.7148061,
      "lon": 28.3338821,
      "tags": {
        "name": "Waltloo Meat and Chicken",
        "shop": "butcher"
      }
    },
    {
      "type": "node",
      "id": 1572762653,
      "lat": -27.395036,
      "lon": 26.6158624,
      "tags": {
        "name": "Bothaville Vleismark",
        "shop": "butcher"
      }
    },
    {
      "type": "node",
      "id": 1579752773,
      "lat": -25.6818764,
      "lon": 28.1920372,
      "tags": {
        "name": "Meat World",
        "shop": "butcher"
      }
    },
    {
      "type": "node",
      "id": 1596034152,
      "lat": -26.6016978,
      "lon": 27.8467036,
      "tags": {
        "name": "Roots Butchery",
        "shop": "butcher"
      }
    },
    {
      "type": "node",
      "id": 1654314991,
      "lat": -26.1093326,
      "lon": 27.8045202,
      "tags": {
        "name": "Big Five Meat Market",
        "shop": "butcher"
      }
    },
    {
      "type": "node",
      "id": 1675002542,
      "lat": -26.1598403,
      "lon": 28.279982,
      "tags": {
        "name": "Summerfields Butcher",
        "shop": "butcher"
      }
    },
    {
      "type": "node",
      "id": 1682068929,
      "lat": -26.125238,
      "lon": 27.848268,
      "tags": {
        "name": "Norbert's German Butchery",
        "shop": "butcher"
      }
    },
    {
      "type": "node",
      "id": 1799247549,
      "lat": -28.2691406,
      "lon": 29.1244188,
      "tags": {
        "name": "Country meat market",
        "shop": "butcher",
        "source:shop": "survey"
      }
    },
    {
      "type": "node",
      "id": 1827464975,
      "lat": -33.9070423,
      "lon": 18.592235,
      "tags": {
        "name": "Ranch Meat",
        "shop": "butcher"
      }
    },
    {
      "type": "node",
      "id": 1827787320,
      "lat": -34.0853405,
      "lon": 18.8535914,
      "tags": {
        "name": "Dew Harvest",
        "shop": "butcher"
      }
    },
    {
      "type": "node",
      "id": 1851614761,
      "lat": -34.0823389,
      "lon": 18.8507829,
      "tags": {
        "name": "Ollie's Deli",
        "shop": "butcher"
      }
    },
    {
      "type": "node",
      "id": 1902669520,
      "lat": -33.8646252,
      "lon": 25.5595649,
      "tags": {
        "name": "Lifa and Mafa Butchery",
        "phone": "+27 785774476",
        "shop": "butcher"
      }
    },
    {
      "type": "node",
      "id": 1932209537,
      "lat": -29.8544416,
      "lon": 30.9969078,
      "tags": {
        "name": "Butcher Block",
        "shop": "butcher"
      }
    },
    {
      "type": "node",
      "id": 1978477506,
      "lat": -25.6959369,
      "lon": 27.2547477,
      "tags": {
        "name": "Meat World",
        "shop": "butcher"
      }
    },
    {
      "type": "node",
      "id": 1992166664,
      "lat": -25.2832215,
      "lon": 26.4256841,
      "tags": {
        "name": "Matholdi`s Fresh Produce a Butchery",
        "shop": "butcher"
      }
    },
    {
      "type": "node",
      "id": 2058957279,
      "lat": -34.4706194,
      "lon": 19.895361,
      "tags": {
        "name": "Napier Slagtery",
        "shop": "butcher"
      }
    },
    {
      "type": "node",
      "id": 2062840856,
      "lat": -26.1548887,
      "lon": 26.1619875,
      "tags": {
        "shop": "butcher"
      }
    },
    {
      "type": "node",
      "id": 2094418951,
      "lat": -24.9315809,
      "lon": 30.8415952,
      "tags": {
        "name": "BiltongLand",
        "shop": "butcher",
        "source:name": "survey"
      }
    },
    {
      "type": "node",
      "id": 2156921254,
      "lat": -29.2218989,
      "lon": 30.0016739,
      "tags": {
        "name": "One Stop Biltong",
        "shop": "butcher"
      }
    },
    {
      "type": "node",
      "id": 2215745011,
      "lat": -34.0402326,
      "lon": 23.0520215,
      "tags": {
        "name": "Greeff's Butchery and Meat market",
        "shop": "butcher"
      }
    },
    {
      "type": "node",
      "id": 2291484822,
      "lat": -33.8799271,
      "lon": 18.5269373,
      "tags": {
        "shop": "butcher"
      }
    },
    {
      "type": "node",
      "id": 2292002356,
      "lat": -34.1250825,
      "lon": 18.8386465,
      "tags": {
        "name": "Save More Meat Market",
        "phone": "+27 21 8538203",
        "shop": "butcher"
      }
    },
    {
      "type": "node",
      "id": 2300341272,
      "lat": -34.5352528,
      "lon": 20.0471893,
      "tags": {
        "name": "Suidpunt Slaghuis",
        "shop": "butcher"
      }
    },
    {
      "type": "node",
      "id": 2309541386,
      "lat": -32.9562537,
      "lon": 27.9322219,
      "tags": {
        "name": "Billie Boys (Biltong Shop)",
        "shop": "butcher"
      }
    },
    {
      "type": "node",
      "id": 2319203646,
      "lat": -33.6813778,
      "lon": 26.6693117,
      "tags": {
        "name": "Surf&Turf",
        "shop": "butcher"
      }
    },
    {
      "type": "node",
      "id": 2349534353,
      "lat": -28.2710206,
      "lon": 29.1200272,
      "tags": {
        "name": "Eskaleni",
        "shop": "butcher"
      }
    },
    {
      "type": "node",
      "id": 2349545110,
      "lat": -28.2705989,
      "lon": 29.1271114,
      "tags": {
        "name": "Slaghuis",
        "shop": "butcher"
      }
    },
    {
      "type": "node",
      "id": 2349569306,
      "lat": -28.5808556,
      "lon": 28.8285785,
      "tags": {
        "name": "Stadium Butchery",
        "shop": "butcher"
      }
    },
    {
      "type": "node",
      "id": 2381626487,
      "lat": -26.1411377,
      "lon": 27.9926966,
      "tags": {
        "name": "Rembrandt Butchery",
        "shop": "butcher"
      }
    },
    {
      "type": "node",
      "id": 2400569116,
      "lat": -30.9083657,
      "lon": 28.9917838,
      "tags": {
        "name": "Eat Sum",
        "shop": "butcher"
      }
    },
    {
      "type": "node",
      "id": 2407378269,
      "lat": -26.1957293,
      "lon": 28.0375342,
      "tags": {
        "name": "Braamfontein Meat",
        "shop": "butcher"
      }
    },
    {
      "type": "node",
      "id": 2412280324,
      "lat": -33.9630139,
      "lon": 22.4769834,
      "tags": {
        "name": "Hartmann",
        "shop": "butcher"
      }
    },
    {
      "type": "node",
      "id": 2451555276,
      "lat": -34.1919484,
      "lon": 22.04971,
      "tags": {
        "name": "Danabaai Slaghuis",
        "name:en": "Dana Bay Butchery",
        "shop": "butcher"
      }
    },
    {
      "type": "node",
      "id": 2479617667,
      "lat": -25.8820952,
      "lon": 28.0846486,
      "tags": {
        "name": "Mnandi Butcher",
        "shop": "butcher"
      }
    },
    {
      "type": "node",
      "id": 2514857473,
      "lat": -29.5995872,
      "lon": 30.3785118,
      "tags": {
        "addr:housename": "Mndeni Butchery",
        "addr:housenumber": "41",
        "addr:postcode": "3201",
        "addr:street": "Assurance street",
        "name": "Mndeni Butchery",
        "shop": "butcher"
      }
    },
    {
      "type": "node",
      "id": 2516524615,
      "lat": -26.2612178,
      "lon": 28.1163754,
      "tags": {
        "name": "Meat World",
        "shop": "butcher"
      }
    },
    {
      "type": "node",
      "id": 2571356905,
      "lat": -28.5274137,
      "lon": 28.8331502,
      "tags": {
        "name": "Country Meat Market",
        "shop": "butcher"
      }
    },
    {
      "type": "node",
      "id": 2586422018,
      "lat": -26.0828034,
      "lon": 27.9760299,
      "tags": {
        "name": "Seemann's",
        "shop": "butcher"
      }
    },
    {
      "type": "node",
      "id": 2665276906,
      "lat": -28.8924139,
      "lon": 31.4692612,
      "tags": {
        "name": "Eshowe Supermeats",
        "shop": "butcher"
      }
    },
    {
      "type": "node",
      "id": 2666669143,
      "lat": -30.6493371,
      "lon": 24.0125961,
      "tags": {
        "name": "Premier Slagtery",
        "name:af": "Premier Slagtery",
        "name:en": "Premier Butcher",
        "shop": "butcher"
      }
    },
    {
      "type": "node",
      "id": 2742088800,
      "lat": -34.1404144,
      "lon": 18.4299312,
      "tags": {
        "name": "Watson's Meat Market",
        "shop": "butcher"
      }
    },
    {
      "type": "node",
      "id": 2783003508,
      "lat": -23.8307396,
      "lon": 30.160904,
      "tags": {
        "name": "Super Meat City",
        "shop": "butcher"
      }
    },
    {
      "type": "node",
      "id": 2815874420,
      "lat": -34.0177919,
      "lon": 18.4644734,
      "tags": {
        "name": "Blackforest German Butcher",
        "shop": "butcher"
      }
    },
    {
      "type": "node",
      "id": 2858727506,
      "lat": -32.9923046,
      "lon": 27.917896,
      "tags": {
        "name": "Continental Butchery",
        "shop": "butcher"
      }
    },
    {
      "type": "node",
      "id": 2909028886,
      "lat": -26.0687875,
      "lon": 28.2282712,
      "tags": {
        "name": "Die Vleisfabriek",
        "opening_hours": "09:00-18:00",
        "shop": "butcher"
      }
    },
    {
      "type": "node",
      "id": 2917999018,
      "lat": -33.6536756,
      "lon": 26.4079967,
      "tags": {
        "name": "Anton's Slagtery",
        "shop": "butcher"
      }
    },
    {
      "type": "node",
      "id": 3055671730,
      "lat": -26.0198644,
      "lon": 28.0133922,
      "tags": {
        "name": "Country Meats",
        "shop": "butcher",
        "website": "http://www.countrymeat.co.za/"
      }
    },
    {
      "type": "node",
      "id": 3114681358,
      "lat": -29.6627829,
      "lon": 17.8905488,
      "tags": {
        "shop": "butcher"
      }
    },
    {
      "type": "node",
      "id": 3162957590,
      "lat": -33.2861291,
      "lon": 19.1390231,
      "tags": {
        "name": "Tulbagh Butchery",
        "shop": "butcher"
      }
    },
    {
      "type": "node",
      "id": 3176432529,
      "lat": -34.081582,
      "lon": 18.8486413,
      "tags": {
        "name": "German Butcher",
        "shop": "butcher"
      }
    },
    {
      "type": "node",
      "id": 3228376524,
      "lat": -34.2974212,
      "lon": 21.9127076,
      "tags": {
        "shop": "butcher"
      }
    },
    {
      "type": "node",
      "id": 3376274293,
      "lat": -27.960794,
      "lon": 30.997732,
      "tags": {
        "addr:province": "Kwazulu Natal",
        "name": "Babanango Biltong",
        "shop": "butcher",
        "wheelchair": "limited"
      }
    },
    {
      "type": "node",
      "id": 3728851637,
      "lat": -25.8590848,
      "lon": 28.1674809,
      "tags": {
        "shop": "butcher"
      }
    },
    {
      "type": "node",
      "id": 3733210303,
      "lat": -25.8407803,
      "lon": 28.16854,
      "tags": {
        "shop": "butcher"
      }
    },
    {
      "type": "node",
      "id": 3782329453,
      "lat": -27.9130807,
      "lon": 26.7965138,
      "tags": {
        "name": "Drive Inn Buchery",
        "shop": "butcher"
      }
    },
    {
      "type": "node",
      "id": 3793354289,
      "lat": -26.1682313,
      "lon": 27.9295155,
      "tags": {
        "name": "Roodt Vleis",
        "shop": "butcher"
      }
    },
    {
      "type": "node",
      "id": 3797949064,
      "lat": -33.0169579,
      "lon": 27.914794,
      "tags": {
        "name": "Quniey Meats",
        "shop": "butcher"
      }
    },
    {
      "type": "node",
      "id": 3797950235,
      "lat": -33.0163731,
      "lon": 27.912895,
      "tags": {
        "shop": "butcher"
      }
    },
    {
      "type": "node",
      "id": 3931817541,
      "lat": -28.3149464,
      "lon": 28.7033857,
      "tags": {
        "addr:city": "Kestell",
        "addr:street": "Blignaut Street",
        "name": "Kestell Butchery",
        "shop": "butcher"
      }
    },
    {
      "type": "node",
      "id": 4087697631,
      "lat": -33.9398971,
      "lon": 20.1006024,
      "tags": {
        "addr:city": "Bonnievale",
        "name": "Bonnievale Slagtery",
        "shop": "butcher"
      }
    },
    {
      "type": "node",
      "id": 4210502889,
      "lat": -33.0186899,
      "lon": 27.9037037,
      "tags": {
        "name": "EatSumMeat Butchery",
        "shop": "butcher"
      }
    },
    {
      "type": "node",
      "id": 4249941094,
      "lat": -34.3402298,
      "lon": 19.0303928,
      "tags": {
        "name": "Werner's Butchery",
        "shop": "butcher"
      }
    },
    {
      "type": "node",
      "id": 4277205567,
      "lat": -26.6868558,
      "lon": 25.4580206,
      "tags": {
        "shop": "butcher"
      }
    },
    {
      "type": "node",
      "id": 4277205579,
      "lat": -26.6900552,
      "lon": 25.4552251,
      "tags": {
        "shop": "butcher"
      }
    },
    {
      "type": "node",
      "id": 4280742176,
      "lat": -28.7123109,
      "lon": 20.9810783,
      "tags": {
        "shop": "butcher"
      }
    },
    {
      "type": "node",
      "id": 4315359190,
      "lat": -26.5113091,
      "lon": 28.3765421,
      "tags": {
        "name": "Escort",
        "shop": "butcher"
      }
    },
    {
      "type": "node",
      "id": 4316752918,
      "lat": -34.2267273,
      "lon": 19.2065102,
      "tags": {
        "name": "Couga Butchery",
        "name:af": "Couga Slaghuis",
        "shop": "butcher"
      }
    },
    {
      "type": "node",
      "id": 4316774889,
      "lat": -34.231936,
      "lon": 19.4253042,
      "tags": {
        "addr:street": "Prince Alfred Road",
        "name": "Doreen's Meatproducts",
        "name:af": "Doreen's Vleisprodukte",
        "shop": "butcher"
      }
    },
    {
      "type": "node",
      "id": 4388548689,
      "lat": -25.4694952,
      "lon": 28.1323079,
      "tags": {
        "name": "Supa Save Butcher",
        "name:en": "Supa Save Butcher",
        "shop": "butcher"
      }
    },
    {
      "type": "node",
      "id": 4459129788,
      "lat": -33.8333378,
      "lon": 18.6725211,
      "tags": {
        "name": "Tara Butchery",
        "opening_hours": "Mo-Tu 8:30-17:30, We-Fr 8:30-18:30, Sa 8:30-15:00",
        "phone": "+2721 975 1435",
        "shop": "butcher"
      }
    },
    {
      "type": "node",
      "id": 4468809318,
      "lat": -33.9014413,
      "lon": 18.6234445,
      "tags": {
        "name": "Allies Meat Market",
        "shop": "butcher"
      }
    },
    {
      "type": "node",
      "id": 4485913189,
      "lat": -25.903552,
      "lon": 28.1393157,
      "tags": {
        "shop": "butcher"
      }
    },
    {
      "type": "node",
      "id": 4508029189,
      "lat": -29.748526,
      "lon": 25.316045,
      "tags": {
        "name": "Fauresmith Vleismark",
        "name:en": "Fauresmith Vleismark",
        "shop": "butcher"
      }
    },
    {
      "type": "node",
      "id": 4509628179,
      "lat": -33.8295177,
      "lon": 18.6496493,
      "tags": {
        "name": "Elgin Free Range Chickens",
        "shop": "butcher"
      }
    },
    {
      "type": "node",
      "id": 4509628181,
      "lat": -33.8300236,
      "lon": 18.6497311,
      "tags": {
        "name": "Krazy Kiwi Butchery",
        "shop": "butcher"
      }
    },
    {
      "type": "node",
      "id": 4509628184,
      "lat": -33.8293377,
      "lon": 18.6504821,
      "tags": {
        "level": "0",
        "name": "Kekkel En Kraai",
        "phone": "+2721 976 6967",
        "shop": "butcher"
      }
    },
    {
      "type": "node",
      "id": 4546705345,
      "lat": -33.9953718,
      "lon": 18.468748,
      "tags": {
        "name": "Super Meat Market",
        "shop": "butcher"
      }
    },
    {
      "type": "node",
      "id": 4638821263,
      "lat": -29.8891916,
      "lon": 30.9332427,
      "tags": {
        "name": "Naven's Butchery",
        "shop": "butcher"
      }
    },
    {
      "type": "node",
      "id": 4711605123,
      "lat": -34.4198754,
      "lon": 19.2200009,
      "tags": {
        "shop": "butcher"
      }
    },
    {
      "type": "node",
      "id": 4925231860,
      "lat": -25.0475916,
      "lon": 31.1298667,
      "tags": {
        "name": "Pioneer Buthery",
        "shop": "butcher"
      }
    },
    {
      "type": "node",
      "id": 4936525534,
      "lat": -26.14349,
      "lon": 28.0426167,
      "tags": {
        "name": "meat.etc",
        "shop": "butcher"
      }
    },
    {
      "type": "node",
      "id": 5023475353,
      "lat": -30.8521463,
      "lon": 30.3788947,
      "tags": {
        "name": "Henry's",
        "shop": "butcher"
      }
    },
    {
      "type": "node",
      "id": 5139660410,
      "lat": -25.8482631,
      "lon": 28.1907389,
      "tags": {
        "name": "Friendly Butcher",
        "opening_hours": "Mo-Fr 08:00-17:00; Sa 08:00-16:00",
        "shop": "butcher"
      }
    },
    {
      "type": "node",
      "id": 5187978025,
      "lat": -33.9864108,
      "lon": 18.479206,
      "tags": {
        "name": "Butchery",
        "shop": "butcher"
      }
    },
    {
      "type": "node",
      "id": 5202522621,
      "lat": -26.0963424,
      "lon": 27.9456083,
      "tags": {
        "name": "Organic Lifestyle",
        "shop": "butcher"
      }
    },
    {
      "type": "node",
      "id": 5211506721,
      "lat": -34.5336051,
      "lon": 20.0460634,
      "tags": {
        "name": "Elim Slaghuis",
        "shop": "butcher"
      }
    },
    {
      "type": "node",
      "id": 5265347418,
      "lat": -29.8117878,
      "lon": 30.9135362,
      "tags": {
        "name": "Westville North Butchery",
        "shop": "butcher"
      }
    },
    {
      "type": "node",
      "id": 5276890574,
      "lat": -26.0831644,
      "lon": 27.8018535,
      "tags": {
        "name": "Silvino's Butchery",
        "shop": "butcher"
      }
    },
    {
      "type": "node",
      "id": 5346634017,
      "lat": -26.0777434,
      "lon": 27.9469954,
      "tags": {
        "name": "Boemels Biltong",
        "shop": "butcher"
      }
    },
    {
      "type": "node",
      "id": 5394198993,
      "lat": -27.2018344,
      "lon": 25.9835361,
      "tags": {
        "addr:city": "Wolmaransstad",
        "addr:housenumber": "12B",
        "addr:postcode": "2630",
        "addr:street": "Broadbent",
        "name": "Wolmaransstad Cold Meat Factory & Butchery",
        "shop": "butcher"
      }
    },
    {
      "type": "node",
      "id": 5394198994,
      "lat": -27.1948565,
      "lon": 25.9762271,
      "tags": {
        "addr:city": "Wolmaransstad",
        "addr:postcode": "2630",
        "addr:street": "Kruger",
        "name": "The Butchery",
        "phone": "+27185961874",
        "shop": "butcher"
      }
    },
    {
      "type": "node",
      "id": 5407518319,
      "lat": -26.1444132,
      "lon": 27.9807573,
      "tags": {
        "name": "Impala Meat",
        "shop": "butcher"
      }
    },
    {
      "type": "node",
      "id": 5412856625,
      "lat": -27.2005844,
      "lon": 25.9664219,
      "tags": {
        "email": "carelgagiano@gmail.com",
        "name": "Wolmaransstad Abattoir",
        "phone": "+27833203375",
        "product": "meat",
        "shop": "butcher"
      }
    },
    {
      "type": "node",
      "id": 5422774920,
      "lat": -27.2318532,
      "lon": 25.8513156,
      "tags": {
        "man_made": "works",
        "name": "Slagplek",
        "product": "meat",
        "shop": "butcher"
      }
    },
    {
      "type": "node",
      "id": 5483022380,
      "lat": -25.1113041,
      "lon": 30.4476794,
      "tags": {
        "name": "Spekboom",
        "shop": "butcher"
      }
    },
    {
      "type": "node",
      "id": 5657109226,
      "lat": -26.1573148,
      "lon": 28.1502231,
      "tags": {
        "name": "Dunvegan butchery",
        "shop": "butcher"
      }
    },
    {
      "type": "node",
      "id": 5657109228,
      "lat": -26.1600538,
      "lon": 28.1704346,
      "tags": {
        "shop": "butcher"
      }
    },
    {
      "type": "node",
      "id": 5660470724,
      "lat": -27.2021066,
      "lon": 22.961907,
      "tags": {
        "shop": "butcher"
      }
    },
    {
      "type": "node",
      "id": 5662884158,
      "lat": -30.0954829,
      "lon": 30.8567044,
      "tags": {
        "name": "Bluff Meat Supplies",
        "shop": "butcher"
      }
    },
    {
      "type": "node",
      "id": 5850066023,
      "lat": -26.1104947,
      "lon": 28.0882591,
      "tags": {
        "addr:street": "Watt Avenue",
        "name": "Alex Fresh Meat Butchery",
        "shop": "butcher"
      }
    },
    {
      "type": "node",
      "id": 5888497402,
      "lat": -26.2018331,
      "lon": 28.0343521,
      "tags": {
        "addr:street": "Lilian Ngoyi Street",
        "name": "Bree Street Butchery",
        "shop": "butcher"
      }
    },
    {
      "type": "node",
      "id": 5955307696,
      "lat": -25.9199284,
      "lon": 28.0180228,
      "tags": {
        "name": "Sizabantu Butchery",
        "shop": "butcher"
      }
    },
    {
      "type": "node",
      "id": 6088368383,
      "lat": -28.5115824,
      "lon": 28.4256563,
      "tags": {
        "name": "Horeb Butchery Trading Store",
        "shop": "butcher"
      }
    },
    {
      "type": "node",
      "id": 6183825686,
      "lat": -23.9070667,
      "lon": 29.4509428,
      "tags": {
        "addr:city": "Polokwane",
        "addr:housenumber": "73",
        "addr:postcode": "0699",
        "addr:street": "Market Street",
        "name": "Roots Butchery",
        "shop": "butcher"
      }
    },
    {
      "type": "node",
      "id": 6189296548,
      "lat": -26.0793502,
      "lon": 27.978455,
      "tags": {
        "name": "The Meat Boss",
        "shop": "butcher"
      }
    },
    {
      "type": "node",
      "id": 6205264745,
      "lat": -34.1552581,
      "lon": 18.8724375,
      "tags": {
        "name": "Akeru Butcher Shop & Deli",
        "shop": "butcher"
      }
    },
    {
      "type": "node",
      "id": 6209754590,
      "lat": -25.534119,
      "lon": 31.3327241,
      "tags": {
        "name": "Kruger National Park Butchery",
        "shop": "butcher"
      }
    },
    {
      "type": "node",
      "id": 6248732685,
      "lat": -26.1309274,
      "lon": 28.0348371,
      "tags": {
        "addr:street": "Jan Smuts Avenue",
        "name": "R&M Meats",
        "opening_hours": "Mo-Fr 07:30-18:00; Sa 07:30-15:00; Su 07:30-13:00",
        "phone": "+27 11 341 0170",
        "shop": "butcher"
      }
    },
    {
      "type": "node",
      "id": 6271251894,
      "lat": -26.1981834,
      "lon": 28.0426916,
      "tags": {
        "name": "ALPHA BUTCHERY",
        "shop": "butcher"
      }
    },
    {
      "type": "node",
      "id": 6271255290,
      "lat": -26.1979189,
      "lon": 28.0437191,
      "tags": {
        "name": "ALPHA BUTCHERY",
        "shop": "butcher"
      }
    },
    {
      "type": "node",
      "id": 6403419294,
      "lat": -25.7244204,
      "lon": 28.1351223,
      "tags": {
        "addr:city": "Pretoria",
        "addr:street": "Louise Street",
        "shop": "butcher"
      }
    },
    {
      "type": "node",
      "id": 6434046926,
      "lat": -25.6432838,
      "lon": 28.1019761,
      "tags": {
        "name": "Hartebeeshoek",
        "shop": "butcher"
      }
    },
    {
      "type": "node",
      "id": 6451109137,
      "lat": -25.7527305,
      "lon": 28.2026744,
      "tags": {
        "name": "Sunnyside Meat & Chicken",
        "shop": "butcher"
      }
    },
    {
      "type": "node",
      "id": 6508478373,
      "lat": -25.7187721,
      "lon": 28.1487154,
      "tags": {
        "addr:city": "Pretoria",
        "addr:street": "Gustav Adolf Street",
        "name": "Sue's Biltong & Braai",
        "shop": "butcher"
      }
    },
    {
      "type": "node",
      "id": 6510345774,
      "lat": -25.7191015,
      "lon": 28.1506541,
      "tags": {
        "addr:city": "Pretoria",
        "addr:postcode": "0019",
        "name": "Mona Lisa",
        "shop": "butcher"
      }
    },
    {
      "type": "node",
      "id": 6548826542,
      "lat": -25.6852605,
      "lon": 28.1890078,
      "tags": {
        "name": "Fleisherei",
        "shop": "butcher"
      }
    },
    {
      "type": "node",
      "id": 6552492910,
      "lat": -25.7107015,
      "lon": 28.136479,
      "tags": {
        "name": "Hyper Slaghuis",
        "shop": "butcher"
      }
    },
    {
      "type": "way",
      "id": 154334704,
      "nodes": [
        1668799094,
        1668798994,
        1668798943,
        1668799417,
        1668799094
      ],
      "tags": {
        "building": "retail",
        "name": "Hanover Meats",
        "shop": "butcher",
        "source": "Visit"
      }
    },
    {
      "type": "way",
      "id": 207186792,
      "nodes": [
        2173435919,
        2173435921,
        2173435923,
        2173435917,
        2173435922,
        2173435918,
        2173435920,
        2173435916,
        2173435919
      ],
      "tags": {
        "atm": "yes",
        "building": "yes",
        "building:levels": "1",
        "building:walls": "brick",
        "name": "Tony's Butchery",
        "phone": "+27 28 514 3343",
        "shop": "butcher"
      }
    },
    {
      "type": "way",
      "id": 213720597,
      "nodes": [
        2233742597,
        2233742593,
        2233742591,
        2233742580,
        2233742589,
        2233742586,
        2233742610,
        2233742606,
        2233742611,
        2233742616,
        2233742621,
        2233742623,
        2233742627,
        2233742628,
        2233742597
      ],
      "tags": {
        "building": "yes",
        "name": "Van Rensburg's",
        "shop": "butcher"
      }
    },
    {
      "type": "way",
      "id": 324756539,
      "nodes": [
        3314361075,
        3314361076,
        3314361077,
        3314361078,
        3314361075
      ],
      "tags": {
        "building": "yes",
        "name": "Seemann's Deli",
        "shop": "butcher"
      }
    },
    {
      "type": "way",
      "id": 334674792,
      "nodes": [
        3417348425,
        6551962012,
        6551962013,
        3417348426,
        3417348427,
        3417348428,
        3417348429,
        3417348430,
        3417348425
      ],
      "tags": {
        "building": "yes",
        "name": "LÃ¼neburg Butchery",
        "shop": "butcher"
      }
    },
    {
      "type": "way",
      "id": 353063702,
      "nodes": [
        3588439383,
        3588439384,
        3588439385,
        3588439386,
        3588439387,
        3588439388,
        3588439383
      ],
      "tags": {
        "building": "yes",
        "shop": "butcher"
      }
    },
    {
      "type": "way",
      "id": 364676124,
      "nodes": [
        3687251026,
        3687250420,
        3687251031,
        3687251033,
        3687251026
      ],
      "tags": {
        "amenity": "bbq",
        "building": "yes",
        "fuel": "wood",
        "shop": "butcher"
      }
    },
    {
      "type": "way",
      "id": 380154581,
      "nodes": [
        3834977874,
        3834977875,
        3834977877,
        3834977876,
        3834977874
      ],
      "tags": {
        "building": "yes",
        "shop": "butcher"
      }
    },
    {
      "type": "way",
      "id": 381942739,
      "nodes": [
        3851443111,
        3851443112,
        3851443113,
        3851443114,
        3851443111
      ],
      "tags": {
        "building": "yes",
        "name": "Jan Vleis",
        "shop": "butcher"
      }
    },
    {
      "type": "way",
      "id": 421049819,
      "nodes": [
        4208901248,
        4208901258,
        4208901255,
        4208901249,
        4208901250,
        4208901251,
        4208901252,
        4208901253,
        4208901254,
        4208901248
      ],
      "tags": {
        "amenity": "shop",
        "building": "commercial",
        "shop": "butcher"
      }
    },
    {
      "type": "way",
      "id": 518301926,
      "nodes": [
        5056125571,
        5056125572,
        5056125573,
        5056125578,
        5056125574,
        5056125571
      ],
      "tags": {
        "building": "yes",
        "name": "Stenta",
        "shop": "butcher"
      }
    },
    {
      "type": "way",
      "id": 518301947,
      "nodes": [
        5056126002,
        5056126003,
        5056125999,
        5056126004,
        5056126002
      ],
      "tags": {
        "building": "yes",
        "shop": "butcher"
      }
    },
    {
      "type": "way",
      "id": 522160409,
      "nodes": [
        5086309900,
        5086309901,
        5086309902,
        5086309903,
        5086309904,
        5086309905,
        5086309900
      ],
      "tags": {
        "building": "yes",
        "name": "Die Volkskombuis",
        "shop": "butcher"
      }
    },
    {
      "type": "way",
      "id": 543845341,
      "nodes": [
        5257258589,
        5257258590,
        5257258591,
        5257258592,
        5257258589
      ],
      "tags": {
        "building": "yes",
        "name": "Hyper Slaghuis",
        "shop": "butcher"
      }
    },
    {
      "type": "way",
      "id": 544632687,
      "nodes": [
        5264528303,
        5264528304,
        5264528305,
        5264528306,
        5264528303
      ],
      "tags": {
        "building": "yes",
        "name": "Ismail's Butchery",
        "shop": "butcher"
      }
    },
    {
      "type": "way",
      "id": 556801258,
      "nodes": [
        5370691296,
        5370691297,
        5370691298,
        5370691299,
        5370691296
      ],
      "tags": {
        "building": "yes",
        "shop": "butcher"
      }
    },
    {
      "type": "way",
      "id": 560993631,
      "nodes": [
        5409726390,
        5409726391,
        5409726392,
        5409726393,
        5409726394,
        5409726395,
        5409726396,
        5409726397,
        5409726398,
        5409726399,
        5409726390
      ],
      "tags": {
        "building": "yes",
        "name": "Tladis Butchery",
        "shop": "butcher"
      }
    },
    {
      "type": "way",
      "id": 592762637,
      "nodes": [
        5656518019,
        5656518018,
        5656518017,
        5656518016,
        5656521821,
        5656518020,
        5656521823,
        5656521822,
        5656518019
      ],
      "tags": {
        "building": "commercial",
        "name": "Biltong Factory",
        "shop": "butcher",
        "source": "ngi-aerial"
      }
    },
    {
      "type": "way",
      "id": 614957112,
      "nodes": [
        5816152258,
        5816152255,
        5816152256,
        5816152257,
        5816152258
      ],
      "tags": {
        "addr:street": "High Street",
        "building": "commercial",
        "name": "Brixton Wholesale Meat Supply",
        "shop": "butcher",
        "source": "Kaart Ground Survey 2018"
      }
    },
    {
      "type": "way",
      "id": 615020092,
      "nodes": [
        5816648706,
        5816648703,
        5816648704,
        5816648705,
        5816648706
      ],
      "tags": {
        "addr:street": "Hans Strijdon Street",
        "building": "yes",
        "name": "New Nhlapo's Butchery",
        "shop": "butcher",
        "source": "Kaart Ground Survey 2018"
      }
    },
    {
      "type": "way",
      "id": 616717455,
      "nodes": [
        5830241831,
        5830241830,
        5830241829,
        5830241828,
        5830241831
      ],
      "tags": {
        "addr:street": "Italian Road",
        "building": "commercial",
        "name": "Rahim's Meat Market",
        "shop": "butcher",
        "source": "Kaart Ground Survey 2018"
      }
    },
    {
      "type": "way",
      "id": 632718361,
      "nodes": [
        5973809194,
        5973809193,
        5973809192,
        5973809190,
        5973809191,
        5973809194
      ],
      "tags": {
        "addr:street": "Stockdale Street",
        "building": "yes",
        "name": "Al-Rashid Butchery",
        "shop": "butcher"
      }
    },
    {
      "type": "way",
      "id": 632718373,
      "nodes": [
        5973809209,
        5973809206,
        5973809205,
        5973809204,
        5973809207,
        5973809208,
        5973809209
      ],
      "tags": {
        "addr:street": "Phakamile Mabija Street",
        "building": "yes",
        "name": "N12 Butchery Biltong Den",
        "shop": "butcher"
      }
    },
    {
      "type": "way",
      "id": 661091205,
      "nodes": [
        6189296543,
        6189296544,
        6189296545,
        6189296546,
        6189296547,
        6189296543
      ],
      "tags": {
        "building": "yes",
        "name": "The Meat Boss",
        "shop": "butcher"
      }
    },
    {
      "type": "way",
      "id": 661350992,
      "nodes": [
        6191516688,
        6191516689,
        6191516690,
        6191516691,
        6191516692,
        6191516693,
        6191516694,
        6191516688
      ],
      "tags": {
        "building": "commercial",
        "name": "Continental Butchery",
        "shop": "butcher"
      }
    },
    {
      "type": "way",
      "id": 679565473,
      "nodes": [
        6363269319,
        6363269320,
        6363269321,
        6363269322,
        6363269323,
        6363269324,
        6363269319
      ],
      "tags": {
        "addr:city": "Pretoria",
        "building": "yes",
        "name": "Pretoria Chicken & Meat",
        "shop": "butcher"
      }
    },
    {
      "type": "way",
      "id": 696132340,
      "nodes": [
        6536949196,
        6536949197,
        6536949198,
        6536949215,
        6536949213,
        6536949196
      ],
      "tags": {
        "addr:city": "Mookgophong",
        "addr:postcode": "0560",
        "building": "yes",
        "name": "Waltkon Vleis",
        "phone": "+27 14 743 3797",
        "shop": "butcher",
        "website": "https://www.waltkongroup.co.za"
      }
    },
    {
      "type": "node",
      "id": 3687250420,
      "lat": -34.0211172,
      "lon": 18.655605
    },
    {
      "type": "node",
      "id": 3687251026,
      "lat": -34.0211385,
      "lon": 18.65557
    },
    {
      "type": "node",
      "id": 3687251031,
      "lat": -34.0211633,
      "lon": 18.6556459
    },
    {
      "type": "node",
      "id": 3687251033,
      "lat": -34.0211846,
      "lon": 18.6556109
    },
    {
      "type": "node",
      "id": 5656518016,
      "lat": -34.1504784,
      "lon": 19.9127238
    },
    {
      "type": "node",
      "id": 5656518017,
      "lat": -34.1505078,
      "lon": 19.912718
    },
    {
      "type": "node",
      "id": 5656518018,
      "lat": -34.1504849,
      "lon": 19.9125472
    },
    {
      "type": "node",
      "id": 5656518019,
      "lat": -34.1504554,
      "lon": 19.912553
    },
    {
      "type": "node",
      "id": 5656518020,
      "lat": -34.1503298,
      "lon": 19.9127707
    },
    {
      "type": "node",
      "id": 5656521821,
      "lat": -34.1504807,
      "lon": 19.912741
    },
    {
      "type": "node",
      "id": 5656521822,
      "lat": -34.1504538,
      "lon": 19.9125417
    },
    {
      "type": "node",
      "id": 5656521823,
      "lat": -34.150303,
      "lon": 19.9125714
    },
    {
      "type": "node",
      "id": 2173435916,
      "lat": -34.0210852,
      "lon": 20.4434589
    },
    {
      "type": "node",
      "id": 2173435917,
      "lat": -34.0212232,
      "lon": 20.4437261
    },
    {
      "type": "node",
      "id": 2173435918,
      "lat": -34.021148,
      "lon": 20.4435834
    },
    {
      "type": "node",
      "id": 2173435919,
      "lat": -34.0209202,
      "lon": 20.4432918
    },
    {
      "type": "node",
      "id": 2173435920,
      "lat": -34.0210604,
      "lon": 20.4434946
    },
    {
      "type": "node",
      "id": 2173435921,
      "lat": -34.020822,
      "lon": 20.443433
    },
    {
      "type": "node",
      "id": 2173435922,
      "lat": -34.0211209,
      "lon": 20.4436225
    },
    {
      "type": "node",
      "id": 2173435923,
      "lat": -34.021177,
      "lon": 20.4437925
    },
    {
      "type": "node",
      "id": 2233742580,
      "lat": -33.9557505,
      "lon": 22.4618239
    },
    {
      "type": "node",
      "id": 2233742586,
      "lat": -33.9558005,
      "lon": 22.4617764
    },
    {
      "type": "node",
      "id": 2233742589,
      "lat": -33.9558032,
      "lon": 22.4617812
    },
    {
      "type": "node",
      "id": 2233742591,
      "lat": -33.9558053,
      "lon": 22.4619223
    },
    {
      "type": "node",
      "id": 2233742593,
      "lat": -33.9558565,
      "lon": 22.4618808
    },
    {
      "type": "node",
      "id": 2233742597,
      "lat": -33.9558665,
      "lon": 22.4618989
    },
    {
      "type": "node",
      "id": 2233742606,
      "lat": -33.9560261,
      "lon": 22.4615618
    },
    {
      "type": "node",
      "id": 2233742610,
      "lat": -33.9560385,
      "lon": 22.461584
    },
    {
      "type": "node",
      "id": 2233742611,
      "lat": -33.9561116,
      "lon": 22.4614927
    },
    {
      "type": "node",
      "id": 2233742616,
      "lat": -33.9561255,
      "lon": 22.4615175
    },
    {
      "type": "node",
      "id": 2233742621,
      "lat": -33.9561707,
      "lon": 22.4614809
    },
    {
      "type": "node",
      "id": 2233742623,
      "lat": -33.9561784,
      "lon": 22.4614947
    },
    {
      "type": "node",
      "id": 2233742627,
      "lat": -33.9561937,
      "lon": 22.4614824
    },
    {
      "type": "node",
      "id": 2233742628,
      "lat": -33.956252,
      "lon": 22.4615872
    },
    {
      "type": "node",
      "id": 6191516688,
      "lat": -33.9569286,
      "lon": 25.5654091
    },
    {
      "type": "node",
      "id": 6191516694,
      "lat": -33.9570109,
      "lon": 25.5654842
    },
    {
      "type": "node",
      "id": 6191516689,
      "lat": -33.9567896,
      "lon": 25.5656157
    },
    {
      "type": "node",
      "id": 6191516690,
      "lat": -33.9568329,
      "lon": 25.5656586
    },
    {
      "type": "node",
      "id": 6191516691,
      "lat": -33.9568696,
      "lon": 25.5656532
    },
    {
      "type": "node",
      "id": 6191516692,
      "lat": -33.956883,
      "lon": 25.5656237
    },
    {
      "type": "node",
      "id": 6191516693,
      "lat": -33.9569064,
      "lon": 25.5656371
    },
    {
      "type": "node",
      "id": 4208901248,
      "lat": -29.1291327,
      "lon": 19.3971064
    },
    {
      "type": "node",
      "id": 4208901249,
      "lat": -29.1291293,
      "lon": 19.3967429
    },
    {
      "type": "node",
      "id": 4208901250,
      "lat": -29.1291492,
      "lon": 19.3967093
    },
    {
      "type": "node",
      "id": 4208901251,
      "lat": -29.1293221,
      "lon": 19.3967072
    },
    {
      "type": "node",
      "id": 4208901252,
      "lat": -29.1293236,
      "lon": 19.3968676
    },
    {
      "type": "node",
      "id": 4208901253,
      "lat": -29.1293439,
      "lon": 19.3968674
    },
    {
      "type": "node",
      "id": 4208901254,
      "lat": -29.1293461,
      "lon": 19.3971038
    },
    {
      "type": "node",
      "id": 4208901255,
      "lat": -29.12913,
      "lon": 19.3967569
    },
    {
      "type": "node",
      "id": 4208901258,
      "lat": -29.1291317,
      "lon": 19.397064
    },
    {
      "type": "node",
      "id": 5056125571,
      "lat": -28.89731,
      "lon": 21.9866271
    },
    {
      "type": "node",
      "id": 5056125572,
      "lat": -28.8972209,
      "lon": 21.9867543
    },
    {
      "type": "node",
      "id": 5056125573,
      "lat": -28.8970692,
      "lon": 21.9866156
    },
    {
      "type": "node",
      "id": 5056125574,
      "lat": -28.8971582,
      "lon": 21.9864884
    },
    {
      "type": "node",
      "id": 5056125578,
      "lat": -28.8970794,
      "lon": 21.9866009
    },
    {
      "type": "node",
      "id": 5056125999,
      "lat": -28.8947933,
      "lon": 21.9843589
    },
    {
      "type": "node",
      "id": 5056126002,
      "lat": -28.8950459,
      "lon": 21.9844348
    },
    {
      "type": "node",
      "id": 5056126003,
      "lat": -28.8949873,
      "lon": 21.9845244
    },
    {
      "type": "node",
      "id": 5056126004,
      "lat": -28.8948519,
      "lon": 21.9842693
    },
    {
      "type": "node",
      "id": 5086309900,
      "lat": -29.8195001,
      "lon": 24.4138551
    },
    {
      "type": "node",
      "id": 5086309901,
      "lat": -29.8194782,
      "lon": 24.4139596
    },
    {
      "type": "node",
      "id": 5086309902,
      "lat": -29.8195047,
      "lon": 24.413967
    },
    {
      "type": "node",
      "id": 5086309903,
      "lat": -29.819477,
      "lon": 24.4140982
    },
    {
      "type": "node",
      "id": 5086309904,
      "lat": -29.8195424,
      "lon": 24.4141165
    },
    {
      "type": "node",
      "id": 5086309905,
      "lat": -29.8195921,
      "lon": 24.4138809
    },
    {
      "type": "node",
      "id": 5973809190,
      "lat": -28.7350668,
      "lon": 24.7621475
    },
    {
      "type": "node",
      "id": 5973809191,
      "lat": -28.7350132,
      "lon": 24.762188
    },
    {
      "type": "node",
      "id": 5973809192,
      "lat": -28.7351097,
      "lon": 24.7621545
    },
    {
      "type": "node",
      "id": 5973809193,
      "lat": -28.7350833,
      "lon": 24.7623655
    },
    {
      "type": "node",
      "id": 5973809194,
      "lat": -28.7349928,
      "lon": 24.7623508
    },
    {
      "type": "node",
      "id": 5973809204,
      "lat": -28.7326263,
      "lon": 24.7644038
    },
    {
      "type": "node",
      "id": 5973809205,
      "lat": -28.7326127,
      "lon": 24.7643199
    },
    {
      "type": "node",
      "id": 5973809206,
      "lat": -28.7325721,
      "lon": 24.7643284
    },
    {
      "type": "node",
      "id": 5973809207,
      "lat": -28.7326939,
      "lon": 24.7643896
    },
    {
      "type": "node",
      "id": 5973809208,
      "lat": -28.7326491,
      "lon": 24.764113
    },
    {
      "type": "node",
      "id": 5973809209,
      "lat": -28.7325409,
      "lon": 24.7641358
    },
    {
      "type": "node",
      "id": 3834977874,
      "lat": -28.7002875,
      "lon": 24.7901137
    },
    {
      "type": "node",
      "id": 3834977875,
      "lat": -28.7003858,
      "lon": 24.7898895
    },
    {
      "type": "node",
      "id": 3834977876,
      "lat": -28.7003858,
      "lon": 24.7901716
    },
    {
      "type": "node",
      "id": 3834977877,
      "lat": -28.7004825,
      "lon": 24.7899438
    },
    {
      "type": "node",
      "id": 1668798943,
      "lat": -32.8218936,
      "lon": 27.4998667
    },
    {
      "type": "node",
      "id": 1668798994,
      "lat": -32.8218135,
      "lon": 27.4996929
    },
    {
      "type": "node",
      "id": 1668799094,
      "lat": -32.8217146,
      "lon": 27.4997575
    },
    {
      "type": "node",
      "id": 1668799417,
      "lat": -32.8217947,
      "lon": 27.4999313
    },
    {
      "type": "node",
      "id": 3588439383,
      "lat": -32.9779067,
      "lon": 27.8995373
    },
    {
      "type": "node",
      "id": 3588439384,
      "lat": -32.9779093,
      "lon": 27.8996287
    },
    {
      "type": "node",
      "id": 3588439385,
      "lat": -32.9779481,
      "lon": 27.8996271
    },
    {
      "type": "node",
      "id": 3588439386,
      "lat": -32.9779497,
      "lon": 27.8996841
    },
    {
      "type": "node",
      "id": 3588439387,
      "lat": -32.9780722,
      "lon": 27.8996792
    },
    {
      "type": "node",
      "id": 3588439388,
      "lat": -32.978068,
      "lon": 27.8995308
    },
    {
      "type": "node",
      "id": 5264528303,
      "lat": -29.8796737,
      "lon": 30.9256558
    },
    {
      "type": "node",
      "id": 5264528304,
      "lat": -29.8795453,
      "lon": 30.9257575
    },
    {
      "type": "node",
      "id": 5264528305,
      "lat": -29.8796173,
      "lon": 30.9258783
    },
    {
      "type": "node",
      "id": 5264528306,
      "lat": -29.8797457,
      "lon": 30.9257766
    },
    {
      "type": "node",
      "id": 5370691296,
      "lat": -29.8348136,
      "lon": 30.9866039
    },
    {
      "type": "node",
      "id": 5370691297,
      "lat": -29.834617,
      "lon": 30.9867006
    },
    {
      "type": "node",
      "id": 5370691298,
      "lat": -29.8346673,
      "lon": 30.9868359
    },
    {
      "type": "node",
      "id": 5370691299,
      "lat": -29.8348624,
      "lon": 30.9867357
    },
    {
      "type": "node",
      "id": 3417348425,
      "lat": -27.3306619,
      "lon": 30.6291182
    },
    {
      "type": "node",
      "id": 3417348426,
      "lat": -27.3305981,
      "lon": 30.6292412
    },
    {
      "type": "node",
      "id": 3417348427,
      "lat": -27.3306752,
      "lon": 30.6293173
    },
    {
      "type": "node",
      "id": 3417348428,
      "lat": -27.3308066,
      "lon": 30.6291405
    },
    {
      "type": "node",
      "id": 3417348429,
      "lat": -27.3307428,
      "lon": 30.62907
    },
    {
      "type": "node",
      "id": 3417348430,
      "lat": -27.3306862,
      "lon": 30.6291423
    },
    {
      "type": "node",
      "id": 6551962012,
      "lat": -27.3306379,
      "lon": 30.6291489
    },
    {
      "type": "node",
      "id": 6551962013,
      "lat": -27.3306562,
      "lon": 30.629167
    },
    {
      "type": "node",
      "id": 5816648705,
      "lat": -26.6961963,
      "lon": 27.8392935
    },
    {
      "type": "node",
      "id": 5816648706,
      "lat": -26.6962073,
      "lon": 27.8389208
    },
    {
      "type": "node",
      "id": 5816648703,
      "lat": -26.6959504,
      "lon": 27.8389113
    },
    {
      "type": "node",
      "id": 5816648704,
      "lat": -26.6959394,
      "lon": 27.839284
    },
    {
      "type": "node",
      "id": 5257258589,
      "lat": -25.6565017,
      "lon": 27.2538027
    },
    {
      "type": "node",
      "id": 5257258590,
      "lat": -25.656622,
      "lon": 27.2536455
    },
    {
      "type": "node",
      "id": 5257258591,
      "lat": -25.6568291,
      "lon": 27.2538406
    },
    {
      "type": "node",
      "id": 5257258592,
      "lat": -25.6567087,
      "lon": 27.2539978
    },
    {
      "type": "node",
      "id": 5830241828,
      "lat": -26.1737249,
      "lon": 27.9639397
    },
    {
      "type": "node",
      "id": 5830241829,
      "lat": -26.1737549,
      "lon": 27.9640551
    },
    {
      "type": "node",
      "id": 5830241830,
      "lat": -26.1736587,
      "lon": 27.9640862
    },
    {
      "type": "node",
      "id": 5830241831,
      "lat": -26.1736286,
      "lon": 27.9639709
    },
    {
      "type": "node",
      "id": 5816152255,
      "lat": -26.1945422,
      "lon": 28.0006856
    },
    {
      "type": "node",
      "id": 5816152256,
      "lat": -26.1947876,
      "lon": 28.0005676
    },
    {
      "type": "node",
      "id": 5816152257,
      "lat": -26.1946649,
      "lon": 28.0002505
    },
    {
      "type": "node",
      "id": 5816152258,
      "lat": -26.1944194,
      "lon": 28.0003685
    },
    {
      "type": "node",
      "id": 6189296543,
      "lat": -26.0794139,
      "lon": 27.9784255
    },
    {
      "type": "node",
      "id": 6189296544,
      "lat": -26.079376,
      "lon": 27.9785709
    },
    {
      "type": "node",
      "id": 6189296545,
      "lat": -26.0793355,
      "lon": 27.9785578
    },
    {
      "type": "node",
      "id": 6189296546,
      "lat": -26.0792883,
      "lon": 27.9784515
    },
    {
      "type": "node",
      "id": 6189296547,
      "lat": -26.0793044,
      "lon": 27.97839
    },
    {
      "type": "node",
      "id": 3314361075,
      "lat": -25.8631171,
      "lon": 28.1711
    },
    {
      "type": "node",
      "id": 3314361076,
      "lat": -25.8632149,
      "lon": 28.1717074
    },
    {
      "type": "node",
      "id": 3314361077,
      "lat": -25.8628896,
      "lon": 28.1717723
    },
    {
      "type": "node",
      "id": 3314361078,
      "lat": -25.8627989,
      "lon": 28.1711681
    },
    {
      "type": "node",
      "id": 6363269319,
      "lat": -25.7429446,
      "lon": 28.171588
    },
    {
      "type": "node",
      "id": 6363269320,
      "lat": -25.7429332,
      "lon": 28.1718509
    },
    {
      "type": "node",
      "id": 6363269321,
      "lat": -25.7430796,
      "lon": 28.1718587
    },
    {
      "type": "node",
      "id": 6363269322,
      "lat": -25.74309,
      "lon": 28.1716195
    },
    {
      "type": "node",
      "id": 6363269323,
      "lat": -25.7430381,
      "lon": 28.1716168
    },
    {
      "type": "node",
      "id": 6363269324,
      "lat": -25.7430392,
      "lon": 28.171593
    },
    {
      "type": "node",
      "id": 3851443111,
      "lat": -24.2975101,
      "lon": 28.1099156
    },
    {
      "type": "node",
      "id": 3851443112,
      "lat": -24.2979019,
      "lon": 28.1101762
    },
    {
      "type": "node",
      "id": 3851443113,
      "lat": -24.2976288,
      "lon": 28.1104758
    },
    {
      "type": "node",
      "id": 3851443114,
      "lat": -24.2972726,
      "lon": 28.1102934
    },
    {
      "type": "node",
      "id": 6536949196,
      "lat": -24.5202909,
      "lon": 28.7129537
    },
    {
      "type": "node",
      "id": 6536949197,
      "lat": -24.5204061,
      "lon": 28.7130887
    },
    {
      "type": "node",
      "id": 6536949198,
      "lat": -24.5206069,
      "lon": 28.7128817
    },
    {
      "type": "node",
      "id": 6536949213,
      "lat": -24.520302,
      "lon": 28.7129413
    },
    {
      "type": "node",
      "id": 6536949215,
      "lat": -24.5204914,
      "lon": 28.7127468
    },
    {
      "type": "node",
      "id": 5409726390,
      "lat": -23.9752332,
      "lon": 29.108606
    },
    {
      "type": "node",
      "id": 5409726391,
      "lat": -23.9752182,
      "lon": 29.1086593
    },
    {
      "type": "node",
      "id": 5409726392,
      "lat": -23.9753389,
      "lon": 29.1087001
    },
    {
      "type": "node",
      "id": 5409726393,
      "lat": -23.9753783,
      "lon": 29.1085604
    },
    {
      "type": "node",
      "id": 5409726394,
      "lat": -23.9753184,
      "lon": 29.1085402
    },
    {
      "type": "node",
      "id": 5409726395,
      "lat": -23.9753016,
      "lon": 29.1085999
    },
    {
      "type": "node",
      "id": 5409726396,
      "lat": -23.9752821,
      "lon": 29.1085933
    },
    {
      "type": "node",
      "id": 5409726397,
      "lat": -23.9752768,
      "lon": 29.1086123
    },
    {
      "type": "node",
      "id": 5409726398,
      "lat": -23.9752937,
      "lon": 29.108618
    },
    {
      "type": "node",
      "id": 5409726399,
      "lat": -23.9752915,
      "lon": 29.1086257
    }
  ]
}